{"type":"Feature","properties":{"GID_2":"IRQ.12.1_1","GID_0":"IRQ","country":"Iraq","GID_1":"IRQ.12_1","province":"Dihok","NL_NAME_1":"NA","county":"Amedi","VARNAME_2":"NA","NL_NAME_2":"NA","TYPE_2":"Kaza","ENGTYPE_2":"District","CC_2":"NA","HASC_2":"NA","name":"Amedi.county"},
"geometry":{"type": "MultiPolygon","coordinates": [[[[44.0232,37.3178,946.8226],[44.0044,37.2996,1656.3203],[43.9786,37.2924,1823.6521],[43.9706,37.2867,1698.2212],[43.967,37.2753,1709.3822],[43.9513,37.2554,1693.6703],[43.9316,37.2454,1240.6128],[43.8962,37.2346,1732.6554],[43.8464,37.2292,1549.7035],[43.8012,37.2296,1284.7036],[43.7654,37.2329,1416.9473],[43.7546,37.23,1604.318],[43.7473,37.2301,1566.5109],[43.7366,37.2341,1702.9038],[43.7308,37.2341,1735.4191],[43.7167,37.2304,1879.157],[43.7094,37.2354,1869.251],[43.7051,37.2349,1867.51],[43.697,37.2306,1859.8997],[43.6666,37.2309,1816.7351],[43.627,37.2364,1601.5316],[43.5925,37.2443,1219.627],[43.5869,37.2533,1029.8844],[43.5768,37.2581,880.8622],[43.5559,37.2528,1027.3213],[43.5209,37.2608,1496.7194],[43.3938,37.3087,2158.7068],[43.3837,37.3199,1684.3706],[43.37,37.3286,1834.8884],[43.3601,37.3303,2026.4211],[43.3462,37.3265,2074.1602],[43.3346,37.3187,1922.5679],[43.332,37.3157,2015.3745],[43.3279,37.3039,2108.3472],[43.3255,37.3036,2093.6567],[43.3118,37.312,2054.8879],[43.2886,37.3166,1861.2843],[43.2797,37.3267,1448.2029],[43.2635,37.3356,1675.4202],[43.2535,37.344,1400.0841],[43.234,37.3436,1366.5131],[43.2289,37.3447,1266.2],[43.2081,37.3551,1225.1737],[43.1819,37.3573,983.9544],[43.1789,37.3592,1054.7236],[43.1705,37.3724,1618.1716],[43.1674,37.374,1617.123],[43.146,37.3707,1097.2932],[43.1452,37.3303,933.4845],[43.1406,37.3185,929.223],[43.1354,37.2978,1041.1704],[43.129,37.2934,934.1938],[43.1142,37.2909,894.1492],[43.1071,37.2878,1043.8748],[43.0992,37.2793,1200.1273],[43.0967,37.2691,1343.0525],[43.0973,37.266,1105.7029],[43.1024,37.262,945.2651],[43.1335,37.2598,938.0055],[43.1419,37.2564,890.1213],[43.1446,37.2516,954.5536],[43.1487,37.2301,827.5004],[43.1565,37.2218,842.6594],[43.1603,37.2152,763.7576],[43.1609,37.2061,753.6219],[43.1595,37.202,903.4587],[43.1533,37.1976,711.7962],[43.1266,37.1944,804.1443],[43.101,37.1849,769.8253],[43.0887,37.1678,689.8508],[43.0886,37.1527,716.7825],[43.0869,37.1462,701.6041],[43.0812,37.1408,744.7123],[43.0605,37.1296,678.4777],[43.0586,37.126,747.5995],[43.056,37.1076,624.5507],[43.0522,37.1015,614.6638],[43.0455,37.0968,608.6888],[43.0482,37.0927,648.3029],[43.0559,37.0877,666.816],[43.0925,37.075,874.5176],[43.1209,37.0606,950.8572],[43.1272,37.0553,1024.9038],[43.1381,37.042,1107.3306],[43.1613,37.0248,1129.3654],[43.1813,37.0049,1148.4998],[43.1909,36.9919,1104.5598],[43.2011,36.9451,903.7039],[43.2037,36.9389,884.877],[43.2099,36.9343,886.1729],[43.2245,36.9306,1076.9775],[43.2354,36.9256,1237.191],[43.2528,36.9038,898.355],[43.2688,36.889,1030.1693],[43.2888,36.898,1087.5588],[43.3019,36.9019,1063.2383],[43.3119,36.9037,1075.3015],[43.3278,36.9029,1144.1583],[43.3454,36.8947,1082.4238],[43.3538,36.8877,1053.3124],[43.3679,36.8712,881.7609],[43.3798,36.8504,1089.4709],[43.3877,36.8398,758.7268],[43.3953,36.8329,808.3391],[43.4085,36.8255,761.1889],[43.4329,36.8184,590.1506],[43.4611,36.8142,653.8519],[43.5531,36.8097,560.2099],[43.5802,36.8027,543.3761],[43.6082,36.7889,519.1622],[43.6224,36.7892,481.524],[43.6425,36.7953,476.9159],[43.6523,36.8017,511.2309],[43.6664,36.8165,788.8796],[43.6733,36.828,920.6201],[43.6788,36.8416,789.0717],[43.6812,36.8564,511.1709],[43.6805,36.8714,665.475],[43.6767,36.8856,1054.4365],[43.6655,36.9032,1221.1233],[43.6518,36.9198,836.7145],[43.6456,36.9318,1225.2668],[43.645,36.9408,1230.1382],[43.6474,36.9491,1681.4413],[43.6542,36.9597,1214.3126],[43.6613,36.9666,999.1637],[43.6772,36.9757,1187.0872],[43.6902,36.979,1242.0326],[43.7186,36.9806,1313.9584],[43.768,36.9785,1377.3341],[43.8124,36.9841,1111.7454],[43.8266,36.9956,666.9805],[43.8954,37.0294,1261.9751],[43.9275,37.0489,1145.5115],[43.9725,37.0808,820.1815],[44.0032,37.1053,1163.3418],[44.0164,37.1195,1007.6143],[44.0281,37.1356,1248.7135],[44.0433,37.1642,1053.7816],[44.0476,37.1824,996.606],[44.0487,37.1962,1359.7495],[44.0477,37.2248,1762.9675],[44.0424,37.2697,1850.9299],[44.0348,37.2983,1731.2952],[44.029,37.311,1270.126],[44.0232,37.3178,946.8226]]]]}}