{"type":"Feature","properties":{"GID_2":"IRQ.8.2_1","GID_0":"IRQ","country":"Iraq","GID_1":"IRQ.8_1","province":"At-Ta'mim","NL_NAME_1":"NA","county":"Dibis","VARNAME_2":"NA","NL_NAME_2":"NA","TYPE_2":"Kaza","ENGTYPE_2":"District","CC_2":"NA","HASC_2":"NA","name":"Dibis.county"},
"geometry":{"type": "MultiPolygon","coordinates": [[[[43.8977,35.8349,371.7468],[43.8558,35.7826,303.3565],[43.8419,35.771,293.74],[43.8145,35.7535,268.2307],[43.7939,35.7381,294.7545],[43.7804,35.725,340.9853],[43.7708,35.7097,456.5193],[43.7677,35.6992,675.1447],[43.7673,35.689,610.8434],[43.7722,35.6599,289.5108],[43.7717,35.6486,277.6529],[43.7678,35.6379,262.9135],[43.7481,35.6034,235.4701],[43.7437,35.593,232.7172],[43.7405,35.577,226.9249],[43.7372,35.5319,209.9644],[43.7467,35.5251,207.4521],[43.7566,35.5221,206.3882],[43.7755,35.5202,210.2479],[43.7935,35.5103,208.3319],[43.8327,35.5121,189.7318],[43.8419,35.5151,191.7925],[43.8564,35.5342,195.8486],[43.8667,35.5419,197.2133],[43.8771,35.5437,198.8741],[43.8789,35.5551,205.575],[43.8865,35.5652,212.9378],[43.8954,35.5731,237.2753],[43.9067,35.578,227.4852],[43.9196,35.589,207.2763],[43.9302,35.5945,208.1971],[43.939,35.6086,211.4503],[43.9504,35.6196,214.1718],[43.986,35.6374,220.4353],[44.0172,35.6396,239.5243],[44.0277,35.6432,235.338],[44.035,35.6521,226.2271],[44.0394,35.6743,231.62],[44.0438,35.6806,237.4715],[44.0535,35.6861,257.168],[44.0764,35.6872,237.9043],[44.0878,35.6894,235.672],[44.0914,35.6924,251.2293],[44.1003,35.7074,257.472],[44.1075,35.7237,275.4706],[44.1068,35.7335,287.8434],[44.0863,35.7501,377.6327],[44.0808,35.7581,390.86],[44.0774,35.7669,385.3681],[44.0439,35.774,454.235],[44.0185,35.784,421.6838],[43.9982,35.7962,422.647],[43.9665,35.8212,428.1207],[43.9519,35.8288,428.8142],[43.9358,35.8314,406.9132],[43.9092,35.8326,380.8786],[43.8977,35.8349,371.7468]]]]}}