{"type":"Feature","properties":{"GID_2":"IRQ.13.3_1","GID_0":"IRQ","country":"Iraq","GID_1":"IRQ.13_1","province":"Diyala","NL_NAME_1":"NA","county":"Ba`qubah","VARNAME_2":"NA","NL_NAME_2":"NA","TYPE_2":"Kaza","ENGTYPE_2":"District","CC_2":"NA","HASC_2":"NA","name":"Ba`qubah.county"},
"geometry":{"type": "MultiPolygon","coordinates": [[[[44.5313,33.2966,33.0197],[44.5538,33.3003,33.0304],[44.6355,33.3004,35.0001],[44.6426,33.3017,35.0848],[44.6477,33.3057,35.6478],[44.6471,33.3349,35.9426],[44.6447,33.3523,36.0766],[44.6483,33.3873,35.1281],[44.6535,33.401,34.433],[44.6551,33.4102,35.0351],[44.6564,33.4676,37.7024],[44.6591,33.4724,37.5721],[44.664,33.475,37.4635],[44.6872,33.477,38.8755],[44.6972,33.4824,39.624],[44.7018,33.4886,40.7126],[44.7097,33.5155,38.3019],[44.706,33.5215,38.5789],[44.6935,33.5263,39.2064],[44.6905,33.5293,39.7283],[44.6897,33.5354,39.8454],[44.6933,33.5486,40.6346],[44.6877,33.5717,41.2311],[44.6843,33.573,40.906],[44.6785,33.5846,42.7356],[44.6698,33.5931,41.8828],[44.6351,33.6097,40.6407],[44.6175,33.615,34.5942],[44.5886,33.6293,41.7057],[44.5799,33.6372,41.1469],[44.5664,33.6574,41.6483],[44.5507,33.672,42.3317],[44.5437,33.675,41.3526],[44.5286,33.6748,42.0706],[44.5217,33.6717,40.9316],[44.5097,33.6613,39.1837],[44.5031,33.6588,38.7782],[44.4838,33.6596,37.8291],[44.4767,33.6611,37.3785],[44.4716,33.6652,36.4066],[44.4723,33.6753,36.2395],[44.4757,33.6819,37.0482],[44.4813,33.6875,37.812],[44.4976,33.6982,39.1504],[44.5027,33.7043,39.9874],[44.5107,33.7204,40.8597],[44.5125,33.7409,40.0153],[44.5105,33.7507,39.4486],[44.506,33.7569,39.7689],[44.4997,33.7614,40.4239],[44.4853,33.7659,40.2253],[44.4762,33.7735,39.6201],[44.4729,33.7807,40.1337],[44.4685,33.8074,42.2957],[44.4548,33.8026,41.7373],[44.4445,33.7952,41.7139],[44.4066,33.7577,39.8082],[44.3844,33.7317,40.4439],[44.3949,33.7081,38.5728],[44.3971,33.6912,45.3049],[44.3925,33.6482,37.9752],[44.3862,33.6167,38.2225],[44.3779,33.6028,37.7581],[44.3377,33.5769,37.1889],[44.3264,33.5637,30.0],[44.3207,33.5527,38.0279],[44.3168,33.5388,36.5107],[44.316,33.5124,40.4998],[44.3304,33.5074,34.9093],[44.3537,33.495,34.8027],[44.404,33.4511,34.0978],[44.4285,33.4391,33.6426],[44.4409,33.4359,35.4003],[44.4561,33.4345,33.6517],[44.4714,33.4352,34.5848],[44.4862,33.4381,35.7507],[44.5186,33.4497,35.4772],[44.5269,33.4506,31.9523],[44.5393,33.4484,37.556],[44.5455,33.4453,38.4423],[44.5527,33.4388,36.9798],[44.5568,33.4303,38.7022],[44.5593,33.4165,36.1697],[44.5593,33.4013,36.0341],[44.5569,33.3856,36.336],[44.5529,33.3724,35.7151],[44.5329,33.3238,35.454],[44.5298,33.3072,34.2977],[44.5313,33.2966,33.0197]]]]}}