{"type":"Feature","properties":{"GID_1":"IRQ.11_1","GID_0":"IRQ","country":"Iraq","province":"Dhi-Qar","VARNAME_1":"DhiQar|Muntafiq|Nasiriyah|Thi-Q","NL_NAME_1":"NA","TYPE_1":"Muhafazah","ENGTYPE_1":"Province","CC_1":"NA","HASC_1":"IQ.DQ","ISO_1":"NA","name":"Dhi-Qar.province"},
"geometry":{"type": "MultiPolygon","coordinates": [[[[46.5429,30.5611,26.7854],[46.5629,30.5731,27.1475],[46.585,30.5741,22.4354],[46.6121,30.5779,19.177],[46.6899,30.5931,13.9692],[46.8186,30.6251,19.7429],[46.8835,30.6465,14.581],[46.9069,30.6502,10.996],[46.9489,30.6479,10.9203],[47.0842,30.6251,23.3246],[47.1039,30.6231,25.0211],[47.1142,30.6238,24.4931],[47.1234,30.6267,23.9915],[47.129,30.6307,23.4666],[47.133,30.6363,21.9119],[47.136,30.6459,20.0405],[47.1358,30.6647,16.6052],[47.1327,30.6786,15.1043],[47.1173,30.7208,3.4212],[47.1146,30.732,1.839],[47.1187,30.7636,1.0473],[47.1236,30.7862,0.0],[47.1358,30.8256,0.6856],[47.1547,30.8759,1.0573],[47.1716,30.9328,0.8388],[47.1779,30.9679,0.5878],[47.1827,31.0079,1.32],[47.1855,31.0617,0.6286],[47.1809,31.115,0.4848],[47.1755,31.1428,0.2035],[47.1636,31.1463,0.371],[47.1541,31.1429,0.4093],[47.1192,31.1395,0.5438],[47.0243,31.1387,0.8063],[46.9864,31.1354,1.0338],[46.9449,31.1371,1.0925],[46.9357,31.1351,1.2133],[46.8615,31.1352,2.4984],[46.8409,31.1378,2.1551],[46.8078,31.1468,1.9094],[46.7961,31.1525,1.8968],[46.7805,31.1639,2.4004],[46.7624,31.1847,3.1871],[46.75,31.2076,3.585],[46.7459,31.225,3.0821],[46.7427,31.2772,3.3403],[46.7405,31.2897,4.2018],[46.7364,31.3018,4.0918],[46.7298,31.3138,4.0509],[46.7155,31.3303,4.2763],[46.6926,31.3495,4.7567],[46.6704,31.3657,4.8473],[46.6127,31.4029,4.5854],[46.5935,31.422,5.0524],[46.5772,31.441,5.2643],[46.5652,31.4609,5.9829],[46.5475,31.4977,6.4984],[46.5242,31.5343,6.5519],[46.4471,31.6394,7.8916],[46.4375,31.6505,8.0578],[46.4148,31.6949,8.4437],[46.4107,31.707,8.3894],[46.4097,31.7423,8.3742],[46.3799,31.7902,9.1315],[46.361,31.8162,9.0118],[46.3304,31.8468,9.3194],[46.3024,31.8828,10.0387],[46.296,31.8993,9.6143],[46.2957,31.9104,8.9953],[46.298,31.9212,9.3273],[46.3019,31.9286,9.295],[46.3264,31.9546,10.2814],[46.3302,31.9618,9.8504],[46.3318,31.9706,10.2599],[46.3223,31.9817,10.6322],[46.311,31.9804,10.6562],[46.1451,31.9821,9.5135],[46.117,31.9813,11.5742],[46.0865,31.9784,11.9],[46.0443,31.9734,12.42],[46.0194,31.9684,11.9569],[45.8694,31.9211,9.2015],[45.8371,31.9131,8.8241],[45.8097,31.9103,9.1766],[45.7671,31.9085,9.4613],[45.6988,31.9107,10.7169],[45.6954,31.8678,10.7839],[45.698,31.8427,10.7107],[45.7042,31.8249,21.2223],[45.7169,31.7987,9.8791],[45.7544,31.7371,9.2892],[45.7598,31.7189,9.6677],[45.7683,31.6616,8.0595],[45.7685,31.633,8.4432],[45.7661,31.6194,8.1881],[45.7779,31.6072,7.7091],[45.785,31.5962,7.0856],[45.7882,31.588,7.2392],[45.7898,31.5768,7.7363],[45.7871,31.5619,8.8791],[45.7689,31.5333,7.2135],[45.7668,31.5236,7.5017],[45.7684,31.5114,7.3791],[45.7806,31.4717,6.471],[45.782,31.4559,6.9245],[45.7779,31.4371,6.3398],[45.767,31.4179,6.558],[45.753,31.4004,6.0255],[45.7214,31.3677,6.3702],[45.7161,31.3589,6.6548],[45.7128,31.3448,6.9837],[45.7135,31.3383,7.0402],[45.7172,31.3298,7.1744],[45.7234,31.3245,7.1297],[45.7304,31.3228,7.5558],[45.7335,31.3242,7.1783],[45.7563,31.3132,6.7802],[45.7682,31.3029,6.6755],[45.7719,31.2938,6.2378],[45.7721,31.2839,6.536],[45.7695,31.2745,6.6306],[45.7412,31.2245,7.2291],[45.7332,31.2012,6.9596],[45.7317,31.1895,6.2615],[45.7339,31.1734,7.1902],[45.7382,31.1624,6.1154],[45.7455,31.1509,6.5059],[45.7686,31.1215,6.9352],[45.7737,31.1084,7.2148],[45.7742,31.1012,7.3079],[45.7728,31.0941,7.8728],[45.7692,31.0879,8.1018],[45.7642,31.0837,8.1829],[45.7261,31.0701,6.661],[45.7198,31.0659,6.5578],[45.7124,31.058,6.6208],[45.6884,31.0152,5.766],[45.6564,30.9731,5.1384],[45.6499,30.9617,5.4041],[45.6432,30.9376,5.1503],[45.642,30.9099,5.4708],[45.6446,30.8896,10.4693],[45.6525,30.8535,12.7605],[45.674,30.8397,16.9165],[45.7087,30.8248,9.5786],[45.7331,30.8191,7.4167],[45.7805,30.8114,5.009],[45.893,30.7955,5.6458],[45.9728,30.7872,5.4604],[46.1456,30.771,4.4255],[46.2077,30.769,4.4414],[46.2447,30.7643,19.2507],[46.2971,30.7614,15.8211],[46.3309,30.7575,11.1057],[46.3599,30.7504,11.4886],[46.3805,30.7409,12.5463],[46.3886,30.7343,13.7172],[46.4037,30.7176,15.8689],[46.4535,30.6533,23.1818],[46.5005,30.5981,24.69],[46.5242,30.5747,29.1292],[46.5429,30.5611,26.7854]]]]}}