{"type":"Feature","properties":{"ISO3166-1-Alpha-3":"IRQ","country":"Iraq","fill":"#FF0","id":"3225","name":"Dhi-Qar"},
"geometry":{"type": "Polygon","coordinates": [[[46.84585,31.13911,2.2519],[46.80668,31.15665,2.2005],[46.79283,31.16815,2.5479],[46.74953,31.19812,3.772],[46.7426,31.20592,4.3909],[46.73899,31.21306,4.4984],[46.73682,31.22135,4.0483],[46.73558,31.23091,3.1352],[46.73568,31.24145,2.6494],[46.74012,31.27703,3.3435],[46.74054,31.28809,4.066],[46.7395,31.297,3.978],[46.7363,31.30589,3.745],[46.73031,31.31602,4.0655],[46.71759,31.33075,4.2468],[46.70622,31.34046,4.2765],[46.69403,31.34855,4.8679],[46.60504,31.39604,5.1615],[46.58892,31.43733,5.1214],[46.5883,31.44663,5.2951],[46.58954,31.45963,5.3738],[46.59998,31.47779,5.2465],[46.60535,31.49012,5.3302],[46.60907,31.5103,6.071],[46.60649,31.52578,7.0768],[46.59915,31.54162,7.2903],[46.58851,31.55262,7.4302],[46.55636,31.57562,6.8757],[46.53993,31.58983,7.8588],[46.50882,31.63262,7.9002],[46.50283,31.63822,7.2888],[46.47182,31.65355,7.6622],[46.43265,31.69122,8.7498],[46.4096,31.74181,8.3213],[46.41301,31.7553,8.5909],[46.41436,31.77881,9.4371],[46.33705,31.8879,10.7858],[46.3109,31.93542,10.3082],[46.32061,31.95221,10.4171],[46.33725,31.96069,9.9324],[46.35369,31.96433,10.0999],[46.35203,31.97275,9.9763],[46.33974,31.98647,10.7245],[46.31741,32.00544,11.2987],[46.05758,32.00464,12.5079],[46.0243,31.99497,12.0305],[46.01913,31.99102,11.3259],[46.01541,31.98342,12.1986],[46.01097,31.98143,12.2504],[46.00373,31.98125,11.3059],[45.98823,31.98381,12.623],[45.97893,31.98624,13.1369],[45.97015,31.98691,13.1284],[45.96188,31.98466,12.5486],[45.92725,31.96257,12.1837],[45.9225,31.96169,11.5326],[45.91754,31.96482,12.4451],[45.91485,31.96735,11.4476],[45.91227,31.96828,11.5089],[45.90958,31.9672,11.5905],[45.90514,31.96301,11.2378],[45.90121,31.9611,11.0866],[45.89728,31.96087,10.9068],[45.89263,31.9641,11.2819],[45.88726,31.96417,11.7449],[45.82597,31.94234,10.9503],[45.72572,31.94779,9.2677],[45.719,31.92319,10.0949],[45.71745,31.90888,10.2963],[45.71838,31.88826,10.2892],[45.75827,31.7839,9.5467],[45.78576,31.65153,9.0163],[45.81739,31.6204,8.5849],[45.82297,31.60572,8.1091],[45.82173,31.60094,8.8277],[45.82111,31.58694,7.3744],[45.82256,31.57363,6.9779],[45.82163,31.56632,7.5717],[45.81946,31.56143,7.4726],[45.81553,31.56009,7.4548],[45.81119,31.56097,6.9992],[45.80116,31.56771,7.2294],[45.79589,31.57053,7.7269],[45.79031,31.57236,8.9915],[45.78463,31.56864,10.2425],[45.77967,31.56084,8.211],[45.77336,31.53924,7.1575],[45.77367,31.53027,6.9707],[45.77708,31.52448,7.6123],[45.78235,31.5227,7.0093],[45.78814,31.52154,7.5402],[45.79383,31.51495,7.5588],[45.7991,31.50358,6.5306],[45.80592,31.47301,7.3636],[45.80716,31.45979,5.9813],[45.80375,31.44824,6.7601],[45.73491,31.37429,7.5037],[45.72386,31.35586,6.3812],[45.72644,31.34186,6.8708],[45.75445,31.33762,6.4168],[45.80953,31.33561,5.6899],[45.75207,31.21923,6.7332],[45.74081,31.18706,6.2808],[45.74318,31.17637,5.161],[45.76251,31.16962,7.2639],[45.76633,31.16595,7.1499],[45.77822,31.15779,6.8356],[45.78628,31.15461,6.9375],[45.79228,31.15208,6.6785],[45.79558,31.14192,7.0415],[45.79434,31.12441,6.7747],[45.78845,31.09368,7.1883],[45.78142,31.0834,7.7577],[45.76912,31.08177,8.2071],[45.74897,31.08792,7.6376],[45.73378,31.08645,7.4189],[45.72613,31.07294,6.861],[45.72137,31.0473,5.6312],[45.7159,31.02888,5.4269],[45.71176,30.99919,5.0204],[45.70598,30.97731,5.1919],[45.71982,30.83763,5.267],[46.21065,30.78231,9.5111],[46.37136,30.7335,15.7614],[46.46314,30.60276,25.9584],[46.50448,30.52938,42.6261],[46.51523,30.51641,43.8516],[46.52825,30.50775,46.1864],[46.54158,30.50726,42.6251],[46.57466,30.51408,35.5993],[46.90115,30.59129,18.5381],[46.91944,30.59074,18.6535],[47.05814,30.56894,23.745],[47.08842,30.57379,27.812],[47.09452,30.60183,25.7924],[47.08904,30.67485,14.9481],[47.09049,30.6972,4.8314],[47.09669,30.7257,2.5932],[47.12212,30.83882,0.8445],[47.13473,31.04686,1.1606],[47.12615,31.12981,0.302],[46.95096,31.14048,1.0973],[46.84585,31.13911,2.2519]]]}}