{"type":"Feature","properties":{"featurecla":"River","scalerank":4,"rivernum":143,"dissolve":"143River","name":"Gharraf","name_alt":null,"note":null,"min_zoom":4.0,"strokeweig":0.25,"name_en":"Gharraf Canal","min_label":5.0},
"geometry":{"type": "LineString","coordinates": [[45.80908203125,32.502215887494117,13.6369],[45.809326171875,32.49567291874412,16.6044],[45.80517578125,32.47650787968162,17.3555],[45.805273437500006,32.47052643436912,18.1102],[45.807226562500006,32.464374090619117,17.3592],[45.815673828125,32.45551178593162,16.7788],[45.827539062500023,32.450702215619117,15.2075],[45.872314453125,32.44391510624412,15.6785],[45.890380859375,32.43610260624412,16.353],[45.912207031250006,32.423211981244116,15.6733],[45.93125,32.406854559369116,16.6201],[45.940527343750006,32.388690496869117,15.8817],[45.9384765625,32.373163153119116,16.5548],[45.923583984375,32.35101959843162,14.8479],[45.920166015625,32.337762762494116,16.1059],[45.923583984375,32.32318756718162,15.3267],[45.929589843750023,32.31159088749412,14.8652],[45.930761718750006,32.300165106244116,13.7948],[45.920166015625,32.286249090619116,15.1786],[45.9326171875,32.26850006718162,15.9298],[45.94384765625,32.248065496869117,14.865],[45.957617187500006,32.231219793744117,15.794],[45.99951171875,32.216327215619117,14.3127],[46.011328125,32.19684479374412,14.7692],[46.01611328125,32.17230866093162,13.7175],[46.015722656250006,32.14911530155662,13.3305],[46.008886718750006,32.127069403119116,14.377],[45.986328125,32.08539459843162,12.3387],[45.9814453125,32.07001373905662,13.4433],[45.978417968750023,32.064813543744116,12.3924],[45.971582031250023,32.05744049686912,13.7906],[45.964746093750023,32.047870184369117,13.7259],[45.961669921875,32.036151434369117,12.7848],[45.964599609375,32.026239324994116,13.2845],[45.978125,32.01080963749412,12.4435],[45.9814453125,31.998309637494117,13.5785],[45.978759765625,31.99079010624412,12.6484],[45.965722656250023,31.96637604374412,13.6484],[45.955957031250023,31.94122955936912,12.9507],[45.957421875000023,31.93524811405662,12.1911],[45.981835937500023,31.90570709843162,11.5848],[45.991943359375,31.89862702030662,11.231],[46.0498046875,31.888446356244117,11.0488],[46.075878906250011,31.86298248905662,13.2178],[46.09033203125,31.82282135624412,9.8945],[46.122802734375,31.52631256718162,9.5945],[46.129296875000023,31.50177643436912,9.8168],[46.153564453125,31.483270574994116,7.895],[46.162841796875,31.464862371869117,7.737],[46.188720703125,31.38837311405662,8.5364],[46.206152343750006,31.35370514530662,7.9775],[46.22802734375,31.32257721561912,8.1028],[46.272705078125,31.27558014530662,8.5221],[46.28955078125,31.262713934369117,7.4499],[46.30908203125,31.25446198124412,8.0178],[46.33447265625,31.251581121869116,6.6406],[46.34619140625,31.24384186405662,7.0974],[46.361083984375,31.22516510624412,7.1128],[46.370361328125,31.202655340619117,6.9326],[46.365136718750023,31.18329498905662,5.2787],[46.385156250000023,31.169452215619117,6.9936],[46.40478515625,31.167840887494116,6.5794],[46.41845703125,31.161883856244117,5.1269],[46.420312500000023,31.134881903119116,4.742],[46.416259765625,31.116229559369117,5.5103],[46.40966796875,31.099481512494116,5.1946],[46.401757812500023,31.085077215619116,4.8125],[46.39306640625,31.07343170780662,4.3408],[46.38330078125,31.06610748905662,4.4155],[46.373242187500011,31.06122467655662,4.1756],[46.366113281250023,31.055438543744117,4.0852],[46.365136718750023,31.045526434369116,3.727],[46.37109375,31.03925202030662,1.577],[46.392968750000023,31.034784246869116,3.0126],[46.399316406250023,31.031854559369116,2.9184],[46.4,31.016717840619116,3.479],[46.391992187500023,30.99823639530662,3.544],[46.3662109375,30.96356842655662,5.3644]]}}