{"type":"Feature","properties":{"GID_2":"IRQ.2.6_1","GID_0":"IRQ","country":"Iraq","GID_1":"IRQ.2_1","province":"Al-Basrah","NL_NAME_1":"NA","county":"Basrah","VARNAME_2":"NA","NL_NAME_2":"NA","TYPE_2":"Kaza","ENGTYPE_2":"District","CC_2":"NA","HASC_2":"NA","name":"Basrah.county"},
"geometry":{"type": "MultiPolygon","coordinates": [[[[47.8493,30.4837,3.2946],[47.8582,30.4984,3.5697],[47.8586,30.5058,0.4072],[47.8533,30.5152,1.265],[47.8355,30.5381,1.7897],[47.8288,30.5426,0.0],[47.7942,30.5534,3.0647],[47.7781,30.5611,3.7887],[47.7701,30.5678,2.124],[47.7654,30.5753,4.6463],[47.7584,30.5927,2.9974],[47.7566,30.622,1.2855],[47.7508,30.6408,1.7421],[47.7479,30.6745,1.2981],[47.74,30.6985,1.7806],[47.7212,30.7428,0.6021],[47.7135,30.7497,1.4859],[47.6622,30.7752,2.6035],[47.6211,30.7756,1.6373],[47.607,30.7742,2.7648],[47.6019,30.7716,1.4952],[47.5914,30.7582,2.0103],[47.5779,30.7477,0.7909],[47.5631,30.7285,0.6644],[47.5533,30.7215,0.0],[47.5311,30.7173,0.0],[47.5165,30.7124,0.0],[47.491,30.7095,0.0],[47.4494,30.6896,1.6632],[47.4108,30.678,0.0],[47.3984,30.6717,0.085],[47.3902,30.6636,0.2383],[47.3713,30.6267,2.1047],[47.3621,30.6119,5.532],[47.3685,30.6071,6.2098],[47.3724,30.6015,7.1056],[47.4078,30.5335,12.082],[47.4265,30.5188,11.0765],[47.4432,30.4982,14.8772],[47.465,30.4864,12.1172],[47.4746,30.479,10.2202],[47.4868,30.4662,9.8997],[47.4956,30.4535,11.7968],[47.5023,30.4492,9.8426],[47.5161,30.4479,7.0234],[47.6438,30.4473,10.9778],[47.6759,30.4367,8.8777],[47.7065,30.4213,3.1669],[47.7213,30.412,5.6488],[47.7331,30.4197,2.3842],[47.7406,30.4226,2.1498],[47.7691,30.4241,0.0],[47.7803,30.4277,2.7501],[47.8018,30.4432,2.9297],[47.8072,30.459,4.5985],[47.8147,30.4681,4.7169],[47.8337,30.4745,2.3793],[47.8493,30.4837,3.2946]]]]}}