{"type":"Feature","properties":{"GID_2":"IRQ.12.3_1","GID_0":"IRQ","country":"Iraq","GID_1":"IRQ.12_1","province":"Dihok","NL_NAME_1":"NA","county":"Simele","VARNAME_2":"NA","NL_NAME_2":"NA","TYPE_2":"Kaza","ENGTYPE_2":"District","CC_2":"NA","HASC_2":"NA","name":"Simele.county"},
"geometry":{"type": "MultiPolygon","coordinates": [[[[42.8415,36.9973,1227.1132],[42.8293,36.9991,944.0538],[42.7969,37.0113,1041.606],[42.7744,37.0153,932.8953],[42.7025,37.0392,1036.8716],[42.6451,37.0676,812.9977],[42.6299,37.0695,807.3692],[42.5662,37.0698,606.1245],[42.5576,37.0732,621.3767],[42.5475,37.0868,810.7899],[42.5377,37.0925,1014.8491],[42.4786,37.0946,815.0651],[42.4724,37.0986,729.5316],[42.4675,37.106,523.2876],[42.4618,37.1197,424.324],[42.4585,37.1324,364.6996],[42.4507,37.128,359.6649],[42.4348,37.1243,363.6332],[42.4268,37.1197,368.7644],[42.4118,37.1163,348.7321],[42.4036,37.1121,345.3897],[42.3959,37.1121,343.9941],[42.3844,37.1175,344.0795],[42.3752,37.1178,342.4388],[42.3637,37.1093,338.6778],[42.3622,37.095,359.0817],[42.366,37.0891,369.1694],[42.3736,37.0868,350.6526],[42.3811,37.082,404.1719],[42.385,37.0741,404.0766],[42.3847,37.0672,360.3941],[42.3737,37.0582,340.9507],[42.4951,36.9367,334.2805],[42.5173,36.9203,310.3889],[42.5314,36.9073,327.6107],[42.5387,36.8964,342.4676],[42.5453,36.8818,401.0825],[42.5576,36.8378,324.2257],[42.5651,36.8194,307.0],[42.5725,36.8086,307.0],[42.5798,36.8014,307.0],[42.5893,36.7949,307.0],[42.6085,36.7853,307.0],[42.6325,36.7771,307.0],[42.7115,36.7581,307.0],[42.7369,36.7455,307.0],[42.7662,36.7245,307.0],[42.7851,36.7131,307.0],[42.8065,36.7033,307.0],[42.8243,36.6975,307.0],[42.8381,36.695,307.0],[42.8678,36.6936,307.0],[42.8946,36.6946,307.0],[42.9167,36.698,325.9044],[42.9316,36.7124,333.8276],[42.9472,36.7213,377.9697],[42.9638,36.7248,383.6812],[43.0201,36.7274,410.8252],[43.0774,36.7359,512.0468],[43.1015,36.7432,667.5507],[43.1138,36.751,925.1143],[43.1207,36.7576,823.3284],[43.1126,36.7697,675.5042],[43.0877,36.7807,541.67],[43.0582,36.7825,533.0201],[43.044,36.7877,516.0944],[43.0345,36.7893,506.9347],[42.9943,36.7904,466.109],[42.9755,36.7967,461.8271],[42.941,36.7979,434.0032],[42.9322,36.801,435.7319],[42.9239,36.8149,464.5111],[42.9215,36.8229,470.4671],[42.9214,36.9005,729.8308],[42.9192,36.9122,821.7469],[42.9162,36.9158,867.5702],[42.9006,36.9236,934.5031],[42.8774,36.9257,654.6311],[42.868899999999996,36.929,656.2466],[42.8655,36.9374,711.3099],[42.8634,36.9688,1237.1725],[42.8523,36.9891,1246.6407],[42.8415,36.9973,1227.1132]]]]}}