{"type":"Feature","properties":{"GID_2":"IRQ.1.9_1","GID_0":"IRQ","country":"Iraq","GID_1":"IRQ.1_1","province":"Al-Anbar","NL_NAME_1":"NA","county":"Kadhimiya","VARNAME_2":"NA","NL_NAME_2":"NA","TYPE_2":"Kaza","ENGTYPE_2":"District","CC_2":"NA","HASC_2":"NA","name":"Kadhimiya.county"},
"geometry":{"type": "MultiPolygon","coordinates": [[[[44.2235,33.2531,32.3062],[44.2232,33.2864,32.1459],[44.2241,33.295,32.8092],[44.2284,33.308,33.8241],[44.2365,33.32,34.8534],[44.2471,33.3306,32.6917],[44.2735,33.3476,36.1846],[44.2791,33.3561,34.5039],[44.2803,33.361,36.0843],[44.2793,33.3691,34.4376],[44.2745,33.3811,33.2375],[44.2577,33.4096,32.839],[44.2518,33.4247,33.1772],[44.2219,33.4192,31.28],[44.1995,33.4111,31.0928],[44.1927,33.4114,30.9815],[44.1803,33.4174,31.2364],[44.1466,33.4401,32.1337],[44.1121,33.4607,32.9257],[44.0859,33.4411,33.4131],[44.0754,33.4274,33.9912],[44.0728,33.4195,34.3153],[44.0737,33.4098,34.6519],[44.0776,33.4002,33.9404],[44.0819,33.3778,33.8128],[44.087,33.3632,34.6117],[44.0888,33.3421,35.934],[44.0951,33.3209,37.0604],[44.0958,33.3091,34.835],[44.1023,33.3087,33.4322],[44.1094,33.3055,34.0337],[44.1292,33.287,37.1603],[44.1409,33.2785,35.54],[44.1546,33.275,34.1728],[44.1979,33.255,34.4234],[44.2235,33.2531,32.3062]]]]}}