{"type":"Feature","properties":{"GID_2":"IRQ.9.5_1","GID_0":"IRQ","country":"Iraq","GID_1":"IRQ.9_1","province":"Babil","NL_NAME_1":"NA","county":"AlMisiab","VARNAME_2":"NA","NL_NAME_2":"NA","TYPE_2":"Kaza","ENGTYPE_2":"District","CC_2":"NA","HASC_2":"NA","name":"Al_Misiab.county"},
"geometry":{"type": "MultiPolygon","coordinates": [[[[44.0943,32.6947,30.6159],[44.1077,32.6908,29.2272],[44.1303,32.6907,31.2022],[44.1502,32.6946,28.343],[44.1734,32.6929,29.3581],[44.1827,32.6883,31.8404],[44.197,32.6775,36.9552],[44.2022,32.6646,33.3872],[44.2011,32.6469,27.5845],[44.1958,32.6359,30.5957],[44.1918,32.6311,28.0749],[44.1716,32.619,31.3662],[44.1651,32.6055,28.2023],[44.1621,32.5888,28.9391],[44.1636,32.5653,30.4406],[44.1831,32.5374,28.4294],[44.2259,32.4912,27.564],[44.2358,32.4993,28.8899],[44.2573,32.5041,33.9208],[44.2664,32.5099,27.7609],[44.2857,32.511,27.6817],[44.2857,32.5284,30.4891],[44.282,32.5421,27.3815],[44.273,32.5581,27.5309],[44.2562,32.5725,29.1127],[44.2474,32.5957,31.7851],[44.2466,32.6027,28.7607],[44.2483,32.609,31.0989],[44.2514,32.6123,30.4465],[44.2648,32.6168,28.7645],[44.2976,32.6322,28.3223],[44.3055,32.6391,30.0106],[44.3082,32.6435,30.8038],[44.31,32.6568,30.9289],[44.3081,32.6654,31.3412],[44.3016,32.6737,30.6982],[44.2881,32.6842,32.6282],[44.2841,32.6949,31.4678],[44.2853,32.7025,32.6141],[44.2884,32.7078,33.5276],[44.3136,32.7209,32.1829],[44.3183,32.7249,30.3699],[44.3061,32.7381,32.1901],[44.3038,32.7773,31.3475],[44.2892,32.7866,33.4489],[44.2576,32.7874,30.785],[44.2561,32.8174,33.0492],[44.1845,32.8181,31.4956],[44.1838,32.8312,32.9904],[44.1376,32.8759,37.0431],[44.1001,32.874,30.1544],[44.1027,32.8703,32.3385],[44.1058,32.8049,35.6548],[44.1019,32.7691,31.5511],[44.0948,32.7287,32.4686],[44.0929,32.7024,34.7636],[44.0943,32.6947,30.6159]]]]}}