{"type":"Feature","properties":{"featurecla":"River","scalerank":3,"rivernum":62,"dissolve":"62River","name":"Euphrates2","name_alt":null,"note":null,"min_zoom":3.0,"strokeweig":0.45,"name_en":"Euphrates","min_label":4.0},
"geometry":{"type": "LineString","coordinates": [[42.055078125000023,34.36933014530662,132.5],[42.125244140625,34.33246491093162,132.5],[42.130957031250006,34.324823309369116,132.5],[42.130078125000011,34.29730866093162,132.5],[42.14453125,34.27924225468162,132.5],[42.1767578125,34.28729889530662,132.5],[42.2294921875,34.314081121869116,132.5],[42.244726562500006,34.31488678593162,132.5],[42.249267578125,34.31415436405662,132.5],[42.246826171875,34.290790106244117,132.5],[42.251953125,34.273553778119116,132.5],[42.263916015625,34.26679108280662,132.5],[42.277587890625,34.271258856244117,132.5],[42.288476562500023,34.287372137494117,132.5],[42.28271484375,34.30560944218162,132.5],[42.286230468750006,34.327997137494116,132.5],[42.296875,34.34699127811912,132.5],[42.311718750000011,34.35504791874412,132.5],[42.322998046875,34.35370514530662,132.5],[42.335693359375,34.349627996869117,132.5],[42.345703125,34.342401434369116,132.5],[42.349853515625,34.33173248905662,132.5],[42.384033203125,34.320917059369116,132.5],[42.387792968750006,34.308221746869116,132.5],[42.385351562500006,34.29010651249412,132.5],[42.3779296875,34.273944403119117,132.5],[42.366943359375,34.26691315311912,132.5],[42.344824218750006,34.26459381718162,132.5],[42.325097656250023,34.25726959843162,132.5],[42.313378906250023,34.24457428593162,132.5],[42.315185546875,34.22589752811912,132.5],[42.327392578125,34.214227606244116,132.5],[42.348388671875,34.20294830936912,135.3856],[42.370849609375,34.19452545780662,98.5],[42.387451171875,34.191180731244117,106.2249],[42.382080078125,34.18195221561912,108.6364],[42.384033203125,34.11603424686912,125.2577],[42.380273437500023,34.10980866093162,111.0311],[42.374414062500023,34.103876043744116,112.349],[42.370019531250023,34.09711334843162,102.7553],[42.370996093750023,34.088153387494117,90.0],[42.37744140625,34.08429596561912,91.9817],[42.399658203125,34.076922918744117,123.2697],[42.404541015625,34.07135651249412,113.8211],[42.406152343750023,34.05329010624412,118.6073],[42.412011718750023,34.03290436405662,99.0265],[42.424560546875,34.016961981244116,116.3566],[42.446044921875,34.01239655155662,81.5],[42.456298828125,34.01727936405662,83.3993],[42.48046875,34.03815338749412,89.7428],[42.493896484375,34.04718659061912,91.4715],[42.505615234375,34.03742096561912,100.0372],[42.510351562500006,34.02570221561912,86.1885],[42.513574218750023,34.01288483280662,89.063],[42.520605468750006,33.999383856244116,90.0297],[42.530517578125,33.990350653119116,89.5768],[42.549072265625,33.98078034061912,84.8662],[42.555908203125,33.971454168744117,84.6275],[42.56103515625,33.94769928593162,81.7269],[42.55625,33.92572662968162,91.8281],[42.54248046875,33.90778229374412,80.2063],[42.520605468750006,33.89630768436912,102.4504],[42.528417968750006,33.889178778119117,85.8617],[42.533203125,33.881952215619116,79.5187],[42.533398437500011,33.87506744999412,73.3088],[42.528076171875,33.869012762494116,67.5],[42.536523437500023,33.85993073124412,67.0],[42.551660156250023,33.852557684369117,74.9143],[42.568603515625,33.84808991093162,71.0658],[42.582617187500006,33.84796784061912,65.0],[42.59912109375,33.85663483280662,76.0567],[42.605078125,33.870135809369117,72.1703],[42.6083984375,33.884637762494116,73.1617],[42.61669921875,33.89630768436912,69.432],[42.64404296875,33.90167877811912,64.4011],[42.679443359375,33.895624090619116,62.542],[42.7333984375,33.875848699994116,70.2337],[42.75927734375,33.85346100468162,78.1798],[42.752832031250023,33.836444403119117,68.5637],[42.733154296875,33.82184479374412,65.9036],[42.71923828125,33.80695221561912,66.3571],[42.719921875000011,33.790887762494116,66.0824],[42.729394531250023,33.780389715619116,59.1983],[42.74072265625,33.77301666874412,67.7057],[42.747167968750006,33.765985418744116,67.1747],[42.747460937500023,33.74664948124412,63.0283],[42.738867187500006,33.73651764530662,74.6318],[42.725830078125,33.729266668744117,67.6758],[42.71240234375,33.71820709843162,68.5609],[42.718847656250006,33.712420965619117,56.5166],[42.726757812500011,33.70722077030662,66.5442],[42.747167968750006,33.697772528119117,65.0439],[42.762109375000023,33.70453522343162,65.8443],[42.778417968750006,33.69269440311912,62.97],[42.8017578125,33.663592840619117,52.0],[42.85,33.635760809369117,52.0],[42.863867187500006,33.62262604374412,52.5609],[42.887451171875,33.578241278119116,57.7592],[42.9267578125,33.54816315311912,60.4288],[42.930761718750006,33.54230377811912,60.8533],[42.93212890625,33.52985260624412,55.3227],[42.937255859375,33.52875397343162,55.0427],[42.963134765625,33.529559637494117,54.65],[42.973730468750006,33.52643463749412,52.3834],[42.990625,33.53607819218162,53.355],[43.010986328125,33.532586981244116,53.4494],[43.03076171875,33.52167389530662,53.605],[43.065673828125,33.49384186405662,54.4416],[43.07568359375,33.50104401249412,50.5],[43.08359375,33.518329168744117,51.0138],[43.09716796875,33.53327057499412,54.2061],[43.11875,33.536981512494116,59.7368],[43.139550781250023,33.53143952030662,50.8191],[43.168847656250023,33.51898834843162,52.1019],[43.234472656250006,33.47370026249412,51.8981],[43.248779296875,33.460321356244116,51.4774],[43.2646484375,33.44916412968162,49.4909],[43.28466796875,33.444452215619116,51.02],[43.308007812500023,33.44904205936912,50.0205],[43.34130859375,33.468377996869116,46.7603],[43.356640625000011,33.471795965619116,47.6267],[43.365136718750023,33.468622137494116,49.6261],[43.3779296875,33.45600006718162,44.8559],[43.384521484375,33.451288153119116,48.6654],[43.389892578125,33.45111725468162,48.3508],[43.395263671875,33.45319244999412,49.0503],[43.398535156250006,33.455926824994116,48.603],[43.398193359375,33.457538153119117,48.5764],[43.404296875,33.45477936405662,45.0473],[43.412011718750023,33.446307684369117,48.2815],[43.4150390625,33.444452215619116,47.1643],[43.423095703125,33.446893621869116,48.1454],[43.430908203125,33.450702215619117,45.8765],[43.436718750000011,33.450458074994117,47.2022],[43.439160156250011,33.44074127811912,46.1235],[43.4443359375,33.427997137494117,49.6879],[43.4560546875,33.42511627811912,47.5478],[43.469921875000011,33.42572662968162,48.5824],[43.480712890625,33.42340729374412,48.6015],[43.480712890625,33.43085358280662,48.0587],[43.486914062500006,33.43085358280662,45.6938],[43.48046875,33.41510651249412,44.8456],[43.48388671875,33.407001043744117,48.432],[43.494873046875,33.40399811405662,46.4688],[43.51123046875,33.40350983280662,46.8048],[43.527099609375,33.40509674686912,46.5499],[43.5361328125,33.40924713749412,45.4452],[43.555273437500006,33.42340729374412,46.4717],[43.55908203125,33.41034577030662,45.9946],[43.56640625,33.40082428593162,47.3223],[43.575292968750006,33.397577215619116,46.8837],[43.583886718750023,33.40350983280662,44.9956],[43.597363281250011,33.39740631718162,45.68],[43.606640625000011,33.38800690311912,47.0899],[43.610595703125,33.37933991093162,45.5505],[43.607666015625,33.37555573124412,45.4522],[43.63046875,33.37348053593162,44.3913],[43.641015625000023,33.37921784061912,45.3344],[43.644628906250006,33.39667389530662,44.8715],[43.6689453125,33.388299871869116,43.0],[43.693457031250006,33.372088934369117,44.486],[43.714257812500023,33.352655340619116,47.5111],[43.727148437500006,33.334588934369116,44.6862],[43.734619140625,33.334588934369116,43.2105],[43.736718750000023,33.34393952030662,43.7592],[43.741113281250023,33.35150787968162,43.319],[43.747314453125,33.35431549686912,44.2474],[43.754492187500006,33.348895574994117,43.668],[43.75732421875,33.33783600468162,47.5339],[43.755859375,33.311297918744117,42.7717],[43.761328125,33.30048248905662,43.0803],[43.7666015625,33.299579168744117,42.1279],[43.778222656250023,33.30609772343162,43.1278],[43.785253906250006,33.303583074994116,38.5],[43.78955078125,33.29877350468162,42.1956],[43.792382812500023,33.29157135624412,41.4222],[43.799902343750006,33.27826569218162,42.0257],[43.803955078125,33.25995514530662,42.0769],[43.808496093750023,33.252069403119116,41.1003],[43.81591796875,33.252069403119116,42.2656],[43.81591796875,33.25726959843162,40.3326],[43.8173828125,33.258319403119117,41.6677],[43.81591796875,33.26569244999412,41.5277],[43.836669921875,33.26068756718162,42.8618],[43.84228515625,33.24420807499412,42.4226],[43.84140625,33.223260809369116,44.5643],[43.84326171875,33.20490143436912,40.3141],[43.8609375,33.18280670780662,38.4628],[43.879003906250006,33.181756903119116,40.5536],[43.887939453125,33.192254949994116,41.7667],[43.878027343750006,33.20490143436912,37.0],[43.906835937500006,33.212176824994117,40.6278],[43.922949218750006,33.19367096561912,39.9],[43.936279296875,33.16852448124412,38.8181],[43.956152343750006,33.15582916874412,35.5],[43.964111328125,33.15790436405662,39.4212],[43.971923828125,33.167352606244116,37.8561],[43.98046875,33.170184637494117,39.5025],[43.988867187500006,33.16950104374412,39.9628],[43.99560546875,33.16705963749412,36.7458],[44.000683593750011,33.16449616093162,38.5481],[44.00439453125,33.16327545780662,38.8047],[44.019628906250006,33.160419012494117,35.8935],[44.053613281250023,33.146747137494117,38.9802],[44.06982421875,33.142206121869116,37.6357],[44.06982421875,33.136004949994117,39.7556],[44.047949218750006,33.13922760624412,39.354],[44.040283203125,33.13703034061912,39.8273],[44.03564453125,33.129169012494117,42.1823],[44.048095703125,33.127313543744116,38.9437],[44.05908203125,33.12116119999412,36.6001],[44.06689453125,33.11298248905662,38.6952],[44.06982421875,33.10492584843162,38.4298],[44.075439453125,33.099383856244117,35.469],[44.102148437500006,33.08942291874412,34.9986],[44.11083984375,33.08075592655662,39.1805],[44.09716796875,33.08075592655662,36.7407],[44.12451171875,33.054071356244116,38.2089],[44.138427734375,33.03082916874412,38.4935],[44.146386718750023,33.025751043744116,35.3868],[44.158593750000023,33.032342840619116,36.1422],[44.174414062500006,33.00141022343162,35.4409],[44.178417968750011,32.98627350468162,33.8341],[44.1796875,32.96405670780662,38.6475],[44.174902343750006,32.944598699994117,31.0],[44.17529296875,32.934344793744117,35.7582],[44.18310546875,32.929950262494117,31.9377],[44.195214843750023,32.92902252811912,34.3811],[44.2021484375,32.92560455936912,34.2863],[44.205468750000023,32.91840241093162,34.3297],[44.206445312500023,32.90631744999412,35.2464],[44.214941406250006,32.88861725468162,33.7424],[44.253027343750006,32.87946198124412,31.9487],[44.261621093750023,32.86505768436912,33.7589],[44.264257812500006,32.84674713749412,34.9019],[44.270898437500023,32.831805731244117,28.5],[44.28955078125,32.79962799686912,33.9437],[44.27880859375,32.785174871869117,33.2726]]}}