{"type":"Feature","properties":{"featurecla":"River","scalerank":3,"rivernum":62,"dissolve":"62River","name":"Euphrates1","name_alt":null,"note":null,"min_zoom":3.0,"strokeweig":0.3,"name_en":"Euphrates","min_label":4.0},
"geometry":{"type": "LineString","coordinates": [[40.992578125000023,34.428485418744117,167.5121],[41.006103515625,34.430780340619116,167.7127],[41.006103515625,34.430780340619116,167.7127],[41.006103515625,34.430780340619116,167.7127],[41.006103515625,34.430780340619116,167.7127],[41.006103515625,34.430780340619116,167.7127],[41.045800781250023,34.406854559369116,167.1925],[41.0576171875,34.403436590619116,165.228],[41.06640625,34.39813873905662,160.5],[41.0927734375,34.374627996869116,166.2938],[41.105712890625,34.36933014530662,165.5362],[41.161230468750006,34.374139715619116,167.6727],[41.191796875000023,34.38226959843162,159.5207],[41.218994140625,34.396014715619117,158.7971],[41.218994140625,34.403436590619116,160.0387],[41.178125,34.417743231244117,163.408],[41.178125,34.423944403119116,156.0],[41.191650390625,34.42999909061912,162.6486],[41.223876953125,34.44916412968162,155.212],[41.239501953125,34.45123932499412,162.0004],[41.249902343750023,34.441522528119116,163.6831],[41.257080078125,34.42609284061912,156.3512],[41.267675781250006,34.41632721561912,166.3213],[41.287988281250023,34.423944403119116,156.87],[41.2919921875,34.43109772343162,159.8601],[41.290136718750006,34.43891022343162,161.9519],[41.287011718750023,34.44599030155662,166.2651],[41.287988281250023,34.45123932499412,167.4765],[41.296972656250006,34.456805731244117,154.3708],[41.303320312500006,34.456073309369117,159.8471],[41.308691406250006,34.452899481244117,163.0177],[41.315185546875,34.45123932499412,157.6365],[41.328320312500011,34.450458074994117,162.4642],[41.343652343750023,34.446795965619117,160.65],[41.3583984375,34.44025299686912,152.5172],[41.369726562500006,34.430780340619116,157.4124],[41.380761718750023,34.44611237186912,158.6813],[41.397216796875,34.43707916874412,160.0116],[41.41552734375,34.42316315311912,164.2438],[41.431884765625,34.423944403119116,171.81],[41.42919921875,34.435809637494117,152.7182],[41.412695312500006,34.44769928593162,149.6664],[41.40380859375,34.45978424686912,164.6231],[41.424414062500006,34.47235748905662,155.2541],[41.434179687500006,34.46515534061912,169.9697],[41.445556640625,34.45868561405662,151.2264],[41.438085937500006,34.45123932499412,152.3091],[41.451074218750023,34.42816803593162,146.0],[41.46484375,34.42218659061912,152.1711],[41.500097656250006,34.430780340619116,148.2404],[41.501074218750006,34.43183014530662,148.2404],[41.503808593750023,34.434198309369116,153.0503],[41.507910156250006,34.436542059369117,151.8066],[41.513916015625,34.43756744999412,145.0],[41.517578125,34.43549225468162,144.5],[41.523193359375,34.430780340619116,152.7041],[41.52734375,34.426141668744116,155.0648],[41.527441406250006,34.423944403119116,156.8991],[41.539257812500011,34.42609284061912,146.0961],[41.545507812500006,34.429950262494117,144.0],[41.549414062500006,34.43427155155662,146.7957],[41.554785156250006,34.43756744999412,148.9966],[41.56591796875,34.43952057499412,147.2861],[41.574609375000023,34.43891022343162,147.4565],[41.581933593750023,34.43952057499412,143.5],[41.5888671875,34.44501373905662,155.537],[41.590039062500011,34.453631903119117,142.875],[41.585058593750006,34.461542059369116,150.2323],[41.58359375,34.46979401249412,142.5],[41.595117187500023,34.47919342655662,142.0],[41.611328125,34.479510809369117,144.0164],[41.6708984375,34.45868561405662,150.2803],[41.690820312500023,34.453876043744117,140.0],[41.71337890625,34.45648834843162,139.5],[41.7353515625,34.466913153119116,153.2741],[41.76318359375,34.48602936405662,139.7703],[41.76953125,34.49176666874412,139.4736],[41.772851562500023,34.50055573124412,144.342],[41.77392578125,34.516717840619116,140.2932],[41.7802734375,34.52155182499412,152.0754],[41.794824218750023,34.51447174686912,138.9458],[41.818261718750023,34.49591705936912,142.9497],[41.834082031250006,34.47821686405662,150.8233],[41.842041015625,34.47455475468162,151.985],[41.8564453125,34.47235748905662,135.0],[41.881738281250023,34.478778387494117,134.0],[41.897363281250023,34.48065827030662,144.7826],[41.9150390625,34.467059637494117,139.8087],[41.9677734375,34.471698309369117,146.78],[41.98681640625,34.45868561405662,132.5],[41.979394531250023,34.45123932499412,182.6659],[42.012597656250023,34.40790436405662,132.5],[42.030371093750006,34.389276434369116,145.874],[42.055078125000023,34.36933014530662,132.5]]}}