{"type":"Feature","properties":{"featurecla":"River","scalerank":3,"rivernum":69,"dissolve":"69River","name":"Al2","name_alt":null,"note":null,"min_zoom":3.0,"strokeweig":0.3,"name_en":"Al Furat","min_label":4.0},
"geometry":{"type": "LineString","coordinates": [[38.559960937500023,35.863299871869117,275.9092],[38.559960937500023,35.863299871869117,275.9092],[38.559960937500023,35.863299871869117,275.9092],[38.559960937500023,35.863299871869117,275.9092],[38.559960937500023,35.863299871869117,275.9092],[38.571533203125,35.85687897343162,260.1767],[38.5830078125,35.85980866093162,253.5],[38.594824218750006,35.86615631718162,253.5],[38.607812500000023,35.870135809369117,258.4911],[38.625,35.86762116093162,257.2715],[38.647558593750006,35.853045965619117,257.2814],[38.659570312500023,35.84967682499412,257.1199],[38.721435546875,35.84967682499412,257.2511],[38.740917968750011,35.85321686405662,260.6687],[38.74765625,35.862079168744117,253.5],[38.75048828125,35.87323639530662,253.5],[38.759179687500023,35.883807684369117,253.014],[38.7509765625,35.891717840619116,249.1138],[38.74658203125,35.894305731244117,250.7991],[38.743359375000011,35.89313385624412,250.9548],[38.73876953125,35.890008856244116,253.2307],[38.734765625000023,35.902215887494116,251.7526],[38.742919921875,35.910272528119116,251.3331],[38.757519531250011,35.91535065311912,252.0728],[38.772216796875,35.91852448124412,251.1516],[38.780175781250023,35.91803619999412,246.1552],[38.793359375000023,35.91181061405662,248.7719],[38.799560546875,35.91168854374412,244.0],[38.80419921875,35.91583893436912,249.3006],[38.810791015625,35.92865631718162,249.4547],[38.813232421875,35.93158600468162,249.0543],[38.83447265625,35.932733465619116,243.6637],[38.906005859375,35.92475006718162,239.5],[39.008691406250023,35.93158600468162,242.6426],[39.034277343750006,35.92926666874412,240.8304],[39.057519531250023,35.921405340619117,239.8065],[39.076074218750023,35.906610418744116,236.4143],[39.088134765625,35.883807684369117,240.3986],[39.098388671875,35.88861725468162,234.7966],[39.108300781250023,35.88873932499412,236.1519],[39.116455078125,35.884881903119116,234.1932],[39.122314453125,35.877557684369116,233.6057],[39.141210937500006,35.88629791874412,230.5],[39.158935546875,35.88104889530662,231.4727],[39.177001953125,35.870477606244116,232.6255],[39.197363281250006,35.863299871869117,229.2518],[39.229882812500023,35.86347077030662,235.2567],[39.244238281250006,35.85968659061912,233.9499],[39.2626953125,35.84625885624412,229.9226],[39.277587890625,35.83075592655662,228.8326],[39.283398437500011,35.829217840619116,226.0],[39.324316406250006,35.82916901249412,229.7487],[39.334228515625,35.83197662968162,227.924],[39.350830078125,35.841571356244117,224.3672],[39.367089843750023,35.83600494999412,225.8587],[39.377197265625,35.838397528119117,224.4545],[39.39609375,35.84967682499412,227.8088],[39.40087890625,35.83588287968162,226.0278],[39.398193359375,35.82306549686912,224.979],[39.399804687500023,35.81146881718162,225.3679],[39.41650390625,35.80121491093162,222.7195],[39.435449218750023,35.799335028119117,222.9267],[39.472558593750023,35.80792877811912,224.2694],[39.492285156250006,35.80866119999412,224.8445],[39.509960937500011,35.802752996869117,220.6054],[39.538818359375,35.78461334843162,223.8764],[39.5537109375,35.780780340619117,222.9707],[39.556640625,35.78290436405662,223.3549],[39.561279296875,35.787616278119117,218.5],[39.568115234375,35.79230377811912,223.4023],[39.577880859375,35.79437897343162,222.6394],[39.591064453125,35.79291412968162,217.8901],[39.593017578125,35.789081121869117,219.3751],[39.589599609375,35.78363678593162,222.4379],[39.582128906250006,35.76581452030662,219.5743],[39.583740234375,35.761493231244117,222.9529],[39.5947265625,35.760272528119117,227.5074],[39.602929687500023,35.76300690311912,219.1694],[39.609619140625,35.76898834843162,219.67],[39.614160156250023,35.77655670780662,222.4841],[39.615820312500006,35.78388092655662,221.7762],[39.622314453125,35.79462311405662,220.0478],[39.637451171875,35.78986237186912,217.056],[39.666601562500006,35.773944403119117,220.7982],[39.696191406250023,35.762469793744117,214.5],[39.7203125,35.741571356244116,215.5369],[39.742578125000023,35.73175690311912,217.3082],[39.766015625000023,35.753436590619117,218.613],[39.805273437500006,35.73517487186912,211.3503],[39.814355468750023,35.72614166874412,212.4336],[39.835546875,35.681756903119116,216.534],[39.834228515625,35.67413971561912,218.796],[39.828125,35.65790436405662,211.0161],[39.828125,35.63397858280662,217.2867],[39.832275390625,35.625604559369116,211.3188],[39.841552734375,35.616571356244116,211.8214],[39.85107421875,35.604999090619117,211.4955],[39.85595703125,35.58893463749412,213.1416],[39.862207031250023,35.58893463749412,213.3701],[39.868359375000011,35.594110418744116,212.2934],[39.875390625000023,35.595477606244117,219.8867],[39.882421875,35.59357330936912,218.1039],[39.889404296875,35.58893463749412,209.0941],[39.878027343750006,35.577997137494116,212.0852],[39.877539062500006,35.569354559369117,213.4587],[39.885498046875,35.563739324994117,211.3247],[39.8994140625,35.561639715619116,210.8495],[39.91171875,35.534051824994116,203.6077],[39.916796875000017,35.527460028119116,206.9106],[39.92236328125,35.52643463749412,209.277],[39.929296875,35.526874090619117,208.687],[39.93603515625,35.52850983280662,206.8372],[39.948486328125,35.534784246869116,203.3773],[39.95361328125,35.530633856244116,206.2065],[39.957275390625,35.52411530155662,205.666],[39.961181640625,35.52069733280662,205.2561],[39.97314453125,35.51764557499412,202.0983],[39.98779296875,35.510516668744117,208.7688],[40.000244140625,35.50238678593162,208.8805],[40.00546875,35.49616119999412,203.8565],[40.007910156250006,35.48920319218162,200.0],[40.013574218750023,35.48749420780662,199.75],[40.020605468750006,35.48773834843162,206.9036],[40.026562500000011,35.486590887494117,206.8553],[40.03173828125,35.482538153119116,205.8708],[40.036865234375,35.47516510624412,200.161],[40.039648437500006,35.472284246869116,205.0653],[40.059326171875,35.461053778119116,201.022],[40.0654296875,35.453729559369116,203.6126],[40.067578125000011,35.44122955936912,202.0963],[40.077246093750006,35.418085028119116,204.539],[40.096093750000023,35.407098699994116,205.2041],[40.109277343750023,35.39533112186912,203.2683],[40.101806640625,35.369891668744117,196.0],[40.134667968750023,35.36005280155662,201.8936],[40.143310546875,35.356219793744117,203.8742],[40.148535156250006,35.35040924686912,195.8447],[40.160742187500006,35.332635809369116,200.3795],[40.167236328125,35.32892487186912,199.667],[40.170166015625,35.32660553593162,200.7497],[40.202539062500023,35.31806061405662,198.9073],[40.208251953125,35.318377996869117,196.4655],[40.218359375,35.31220123905662,193.125],[40.226660156250006,35.308954168744116,197.9308],[40.23193359375,35.30280182499412,200.7196],[40.23203125,35.28790924686912,198.5106],[40.2607421875,35.30536530155662,196.9415],[40.266845703125,35.30780670780662,199.4124],[40.271679687500011,35.298944403119116,196.4876],[40.267578125,35.288592840619117,195.5809],[40.253173828125,35.266864324994117,196.509],[40.265869140625,35.26605866093162,193.3691],[40.27783203125,35.267938543744116,196.8027],[40.287353515625,35.272723699994117,193.7245],[40.293554687500006,35.28046295780662,199.4557],[40.32080078125,35.270868231244116,203.9127],[40.32763671875,35.266864324994117,203.9143],[40.334228515625,35.257928778119116,190.5],[40.335693359375,35.24945709843162,195.2938],[40.3359375,35.24201080936912,194.7683],[40.338476562500006,35.23639557499412,194.32],[40.354394531250023,35.230096746869116,195.2142],[40.404199218750023,35.218622137494116,199.1987],[40.417724609375,35.21161530155662,198.4071],[40.42041015625,35.198749090619117,193.3208],[40.412695312500006,35.193133856244117,189.3298],[40.402441406250006,35.19000885624412,193.2791],[40.397216796875,35.18488190311912,192.9091],[40.400390625,35.17426178593162,190.6855],[40.41455078125,35.16364166874412,192.0002],[40.419677734375,35.144794012494117,192.2928],[40.4287109375,35.13532135624412,190.8412],[40.4306640625,35.12653229374412,195.0534],[40.428955078125,35.09235260624412,186.0],[40.4306640625,35.08246491093162,191.059],[40.438574218750006,35.06683991093162,187.3577],[40.443603515625,35.067987371869116,190.4034],[40.448974609375,35.07453034061912,192.0698],[40.4580078125,35.07501862186912,189.2593],[40.471093750000023,35.06671784061912,184.978],[40.471093750000023,35.061786199994117,187.8573],[40.45458984375,35.051141668744116,189.715],[40.444580078125,35.03937409061912,183.5],[40.444433593750006,35.03485748905662,189.4549],[40.448632812500023,35.03339264530662,188.9011],[40.451171875,35.030633856244116,188.6465],[40.45556640625,35.03778717655662,190.1202],[40.465039062500011,35.03070709843162,189.1363],[40.478515625,35.013544012494116,186.9958],[40.482177734375,35.006366278119117,187.9122],[40.48681640625,34.991571356244116,187.1857],[40.4921875,34.98627350468162,187.4838],[40.503027343750006,34.985614324994117,186.3294],[40.5166015625,34.98847077030662,187.4794],[40.5283203125,34.98932526249412,184.9371],[40.536376953125,34.97748444218162,182.3486],[40.551025390625,34.96698639530662,185.5836],[40.556396484375,34.95807526249412,188.3302],[40.565673828125,34.958612371869116,183.0705],[40.56787109375,34.95490143436912,184.2514],[40.56689453125,34.936639715619116,183.9982],[40.571679687500023,34.91974518436912,179.5],[40.57578125,34.89508698124412,181.8461],[40.580957031250023,34.88324616093162,180.0519],[40.589746093750023,34.87250397343162,183.6762],[40.597558593750023,34.870721746869116,178.5132],[40.62255859375,34.88324616093162,178.7369],[40.62109375,34.87189362186912,183.2732],[40.617089843750023,34.856317449994116,183.3007],[40.616308593750006,34.84564850468162,177.5896],[40.618261718750006,34.83356354374412,177.8095],[40.627343750000023,34.820917059369116,181.6493],[40.62939453125,34.811542059369117,181.6545],[40.63828125,34.79682037968162,179.256],[40.658789062500006,34.784784246869116,176.3114],[40.681884765625,34.778436590619116,175.0458],[40.6982421875,34.78082916874412,181.8923],[40.728515625,34.756708074994116,175.3928],[40.732421875,34.74982330936912,184.4061],[40.738867187500006,34.75104401249412,174.4075],[40.752685546875,34.738397528119116,178.8764],[40.764746093750006,34.723504949994116,173.0],[40.766503906250023,34.718133856244116,175.1076],[40.779199218750023,34.713885809369117,178.5875],[40.7900390625,34.713983465619116,177.7063],[40.797753906250023,34.71893952030662,174.0934],[40.800683593750023,34.729022528119117,173.8628],[40.80419921875,34.72882721561912,173.5791],[40.82177734375,34.705438543744116,177.456],[40.82861328125,34.698260809369117,178.1495],[40.82861328125,34.69147369999412,182.3049],[40.821191406250023,34.68817780155662,171.3811],[40.80810546875,34.68024323124412,176.5684],[40.800683593750023,34.67719147343162,175.8449],[40.807861328125,34.670428778119117,170.0],[40.8388671875,34.64984772343162,175.3558],[40.85205078125,34.655047918744117,172.8165],[40.86083984375,34.66474030155662,174.4089],[40.86962890625,34.670428778119117,173.9816],[40.883203125000023,34.66351959843162,178.9814],[40.8876953125,34.652215887494116,178.3434],[40.887792968750006,34.63873932499412,169.8086],[40.891699218750006,34.627313543744116,170.0505],[40.927148437500023,34.61847565311912,172.4999],[40.928808593750006,34.608026434369116,168.0686],[40.92236328125,34.593768621869117,167.7165],[40.91796875,34.57819244999412,170.3993],[40.922119140625,34.56818268436912,170.419],[40.940332031250023,34.54157135624412,168.4024],[40.944726562500023,34.527606512494117,169.3429],[40.9384765625,34.51984284061912,165.8359],[40.92724609375,34.51203034061912,172.0681],[40.922265625000023,34.50079987186912,171.9906],[40.938378906250023,34.47577545780662,170.3977],[40.930566406250023,34.46832916874412,168.7903],[40.934667968750006,34.461786199994116,169.6355],[40.94091796875,34.45795319218162,169.9947],[40.952392578125,34.454706121869116,168.914],[40.958984375,34.45123932499412,168.2995],[40.980371093750023,34.43366119999412,166.057],[40.992578125000023,34.428485418744117,167.5121]]}}