{"type":"Feature","properties":{"GID_2":"IRQ.7.9_1","GID_0":"IRQ","country":"Iraq","GID_1":"IRQ.7_1","province":"As-Sulaymaniyah","NL_NAME_1":"NA","county":"Sharbazher","VARNAME_2":"NA","NL_NAME_2":"NA","TYPE_2":"Kaza","ENGTYPE_2":"District","CC_2":"NA","HASC_2":"NA","name":"Sharbazher.county"},
"geometry":{"type": "MultiPolygon","coordinates": [[[[45.5019,36.006,897.8871],[45.4826,36.0031,803.5689],[45.4741,35.9957,817.0683],[45.4668,35.9934,1018.5042],[45.4425,35.9968,780.0764],[45.4334,35.9855,798.5521],[45.4279,35.9835,761.2007],[45.4171,35.9837,666.5013],[45.4145,35.9758,755.2485],[45.41,35.9728,731.6766],[45.4024,35.9732,754.5274],[45.3892,35.9771,873.8914],[45.3803,35.9758,781.33],[45.3711,35.9807,632.3556],[45.3611,35.9784,754.5747],[45.3554,35.9829,945.5136],[45.3485,35.9811,688.0032],[45.327,35.9806,1184.1963],[45.3083,35.9734,1495.6964],[45.2935,35.9711,1539.7498],[45.2885,35.9688,1347.6243],[45.2817,35.9613,1251.9663],[45.2637,35.9521,1793.1516],[45.254,35.951,1902.7195],[45.2366,35.9546,2420.2502],[45.2304,35.9512,2016.4948],[45.2257,35.9373,1933.3351],[45.2289,35.9189,1713.3536],[45.2334,35.91,1638.1611],[45.2504,35.8955,1597.5623],[45.2583,35.8803,2037.6138],[45.2589,35.8708,1999.3798],[45.2513,35.8524,1064.7185],[45.2508,35.8457,1016.6497],[45.2547,35.8349,1191.5457],[45.2656,35.8233,1629.25],[45.2678,35.8119,1246.384],[45.2662,35.8023,1328.2581],[45.2637,35.7976,1477.8362],[45.2382,35.7608,1736.4028],[45.2361,35.7495,1751.8469],[45.2581,35.7496,1471.5374],[45.2695,35.7471,1658.8247],[45.2807,35.7341,1899.5576],[45.2887,35.7273,1776.3923],[45.3368,35.7036,1386.1663],[45.359,35.6992,913.925],[45.3873,35.6807,957.248],[45.393,35.6727,954.0294],[45.3952,35.6585,930.9224],[45.3975,35.6545,950.5509],[45.4066,35.6449,918.0779],[45.4165,35.6302,927.2867],[45.4301,35.6195,954.447],[45.4353,35.6132,958.2883],[45.48,35.5262,925.6437],[45.4879,35.5194,926.8058],[45.5361,35.4958,968.6412],[45.575,35.4933,1172.9663],[45.5815,35.4912,1225.9789],[45.5863,35.4852,1179.9579],[45.5934,35.4652,923.3902],[45.6009,35.4409,771.7282],[45.6049,35.4186,671.1692],[45.6125,35.4025,618.6698],[45.6193,35.3946,597.9045],[45.6341,35.3846,574.8448],[45.6484,35.3688,545.6443],[45.6545,35.3681,551.5443],[45.6685,35.3718,570.833],[45.6772,35.3708,577.3834],[45.6805,35.3686,567.3682],[45.6823,35.3647,558.1638],[45.6827,35.3579,545.1941],[45.6911,35.3592,547.6183],[45.7193,35.3723,538.4718],[45.7376,35.3734,580.8213],[45.7452,35.3709,652.4673],[45.7573,35.364,531.1385],[45.7693,35.3481,501.4901],[45.7755,35.3433,497.8571],[45.787,35.3395,494.8456],[45.7979,35.3419,493.9869],[45.8026,35.3458,497.697],[45.8086,35.3547,504.0284],[45.8106,35.364,511.1704],[45.8106,35.4472,1007.2405],[45.809,35.4572,986.258],[45.8038,35.4715,840.9282],[45.8029,35.4948,1099.1783],[45.7962,35.5049,1214.4835],[45.7874,35.5264,1039.9154],[45.7871,35.5452,1457.1938],[45.7893,35.5517,1323.2551],[45.7926,35.5548,1539.2526],[45.8101,35.5586,1226.9885],[45.8164,35.563,1261.3241],[45.8204,35.5884,1113.3677],[45.8231,35.5933,1159.2472],[45.828,35.5959,1070.5778],[45.8471,35.5977,1266.8301],[45.8556,35.6009,1503.665],[45.8586,35.609,1575.04],[45.8574,35.6159,1720.8195],[45.8315,35.6572,1674.6138],[45.8263,35.6597,1576.4736],[45.8118,35.6622,1377.4807],[45.8056,35.6666,1341.5739],[45.8043,35.6764,1350.9299],[45.8111,35.6987,1164.0851],[45.8111,35.7125,1532.7373],[45.8091,35.7192,1486.6775],[45.7918,35.7345,1256.873],[45.7887,35.7413,1103.7766],[45.7842,35.76,1604.9152],[45.7663,35.7789,1665.7292],[45.7617,35.7862,1700.9419],[45.7606,35.794,2022.5645],[45.762,35.8013,2133.4846],[45.7574,35.804,2094.0923],[45.7284,35.8446,1903.6085],[45.7141,35.8732,2059.5229],[45.7027,35.884,2113.7266],[45.6968,35.8936,2087.5088],[45.6729,35.9053,1960.7473],[45.6693,35.9147,1988.443],[45.6611,35.9245,1768.4833],[45.6463,35.9355,1663.2207],[45.6425,35.9441,1492.3853],[45.6446,35.9492,1229.7479],[45.6312,35.9591,1093.9839],[45.6052,35.9624,1011.3267],[45.6016,35.9668,1074.3936],[45.6012,35.9792,1114.9762],[45.5975,35.9817,1063.4148],[45.5781,35.9828,1010.9605],[45.5737,35.9844,877.0974],[45.5616,35.9987,988.3586],[45.5568,36.0013,951.3645],[45.5483,36.002,806.2773],[45.5296,35.997,833.5212],[45.5187,35.999,904.4339],[45.5019,36.006,897.8871]]]]}}