{"type":"Feature","properties":{"GID_2":"IRQ.7.10_1","GID_0":"IRQ","country":"Iraq","GID_1":"IRQ.7_1","province":"As-Sulaymaniyah","NL_NAME_1":"NA","county":"Sulaymaniya","VARNAME_2":"NA","NL_NAME_2":"NA","TYPE_2":"Kaza","ENGTYPE_2":"District","CC_2":"NA","HASC_2":"NA","name":"Sulaymaniya.county"},
"geometry":{"type": "MultiPolygon","coordinates": [[[[45.3426,35.1469,760.749],[45.373,35.1334,787.9927],[45.3993,35.113,855.205],[45.4285,35.1035,799.3815],[45.471,35.1009,920.9118],[45.5024,35.1148,999.2363],[45.4926,35.1382,1583.2595],[45.4916,35.1485,1275.3789],[45.4975,35.1683,757.0625],[45.4997,35.1889,692.243],[45.5046,35.2034,690.2101],[45.5053,35.213,747.5406],[45.5041,35.2176,816.2491],[45.4956,35.2308,1073.4033],[45.4929,35.2386,1371.0472],[45.5002,35.2658,705.0433],[45.5086,35.2808,865.6093],[45.5154,35.2851,944.6281],[45.5336,35.2888,1216.4625],[45.5595,35.3084,738.1671],[45.5919,35.3244,637.1346],[45.6071,35.3286,599.8612],[45.646,35.3429,545.1786],[45.6569,35.3495,535.5955],[45.6801,35.351,536.2468],[45.6825,35.3537,537.8632],[45.6829,35.3604,547.9883],[45.6805,35.3686,567.3682],[45.6772,35.3708,577.3834],[45.6685,35.3718,570.833],[45.6545,35.3681,551.5443],[45.6484,35.3688,545.6443],[45.6341,35.3846,574.8448],[45.6156,35.3983,606.7041],[45.6049,35.4186,671.1692],[45.6009,35.4409,771.7282],[45.5934,35.4652,923.3902],[45.5863,35.4852,1179.9579],[45.5815,35.4912,1225.9789],[45.575,35.4933,1172.9663],[45.5361,35.4958,968.6412],[45.4879,35.5194,926.8058],[45.48,35.5262,925.6437],[45.4353,35.6132,958.2883],[45.4301,35.6195,954.447],[45.4165,35.6302,927.2867],[45.4066,35.6449,918.0779],[45.3975,35.6545,950.5509],[45.3952,35.6585,930.9224],[45.393,35.6727,954.0294],[45.3873,35.6807,957.248],[45.359,35.6992,913.925],[45.3368,35.7036,1386.1663],[45.2887,35.7273,1776.3923],[45.2807,35.7341,1899.5576],[45.2695,35.7471,1658.8247],[45.2581,35.7496,1471.5374],[45.2181,35.75,1162.1436],[45.2025,35.7472,1004.6545],[45.1992,35.7439,995.0748],[45.1949,35.7265,933.3338],[45.1904,35.7201,913.616],[45.1674,35.7116,817.3699],[45.1448,35.7078,767.493],[45.1216,35.6994,799.4703],[45.1181,35.6963,826.5873],[45.1063,35.6746,986.3599],[45.0998,35.6663,1159.0155],[45.0899,35.656,993.9742],[45.0797,35.6519,876.0404],[45.0482,35.6541,852.2559],[45.041,35.6559,861.4346],[45.0329,35.6623,869.1868],[45.0185,35.6891,935.8007],[45.0076,35.7003,980.5533],[44.9617,35.7238,884.5142],[44.9548,35.7255,883.9739],[44.9461,35.7237,845.7559],[44.9225,35.675,821.6171],[44.9154,35.6671,759.2214],[44.9005,35.6572,712.5068],[44.8941,35.649,692.3558],[44.8926,35.6437,698.8372],[44.8925,35.6325,727.311],[44.8967,35.6229,736.787],[44.9045,35.616,791.1461],[44.9317,35.6014,824.1518],[44.9397,35.594,773.9623],[44.9536,35.5764,767.4045],[44.9902,35.5561,742.9312],[44.9933,35.5526,741.9982],[45.0041,35.5268,712.3759],[45.0092,35.5204,698.6146],[45.0361,35.4992,718.9357],[45.0622,35.4842,746.6434],[45.078,35.4603,658.6757],[45.0815,35.4572,664.527],[45.0936,35.4516,657.4814],[45.0968,35.4484,666.6632],[45.1016,35.4353,653.567],[45.1097,35.4202,579.9597],[45.1228,35.4096,621.3117],[45.1296,35.4017,623.3477],[45.1559,35.3496,693.5773],[45.1584,35.3458,705.524],[45.17,35.3371,725.5621],[45.1725,35.33,724.5546],[45.1724,35.3123,735.7661],[45.1762,35.3035,816.037],[45.184,35.2971,837.1154],[45.2025,35.2896,839.9598],[45.2107,35.2825,891.9949],[45.2241,35.2635,898.0211],[45.2407,35.2491,870.187],[45.2526,35.2274,867.1478],[45.263,35.2151,826.1803],[45.2717,35.2091,837.0763],[45.286,35.2048,836.0826],[45.306399999999996,35.194,839.3386],[45.3133,35.1861,842.2037],[45.3295,35.1576,762.0448],[45.3426,35.1469,760.749]]]]}}