{"type":"Feature","properties":{"GID_2":"IRQ.6.6_1","GID_0":"IRQ","country":"Iraq","GID_1":"IRQ.6_1","province":"Arbil","NL_NAME_1":"NA","county":"Shaqlawa","VARNAME_2":"NA","NL_NAME_2":"NA","TYPE_2":"Kaza","ENGTYPE_2":"District","CC_2":"NA","HASC_2":"NA","name":"Shaqlawa.county"},
"geometry":{"type": "MultiPolygon","coordinates": [[[[44.2742,36.2494,889.2348],[44.2836,36.2465,839.472],[44.3037,36.2457,767.6544],[44.313,36.2473,795.9822],[44.3275,36.2525,811.5499],[44.3568,36.2543,1090.7765],[44.371,36.2595,974.2736],[44.3845,36.261,923.9751],[44.3934,36.2596,961.0989],[44.4173,36.2512,1067.3215],[44.4262,36.2436,1152.4009],[44.4337,36.2328,1208.3673],[44.4388,36.2302,1243.844],[44.4535,36.2299,1070.1937],[44.471,36.236,960.5285],[44.497,36.2394,928.9942],[44.5141,36.2485,1222.2461],[44.526,36.2611,795.2007],[44.5113,36.2969,839.9769],[44.5065,36.3213,1218.7983],[44.5066,36.337,1366.0537],[44.5089,36.3449,1297.6154],[44.5136,36.3517,1656.5386],[44.5383,36.3688,1097.4634],[44.5182,36.3853,1064.2545],[44.4751,36.4064,1311.7654],[44.4624,36.4167,1285.9285],[44.4513,36.429,1223.9435],[44.4417,36.4444,932.3853],[44.4344,36.4526,850.05],[44.4222,36.4638,832.5068],[44.4035,36.4773,760.5165],[44.381,36.5199,732.1218],[44.3745,36.5284,750.9052],[44.3666,36.5358,729.2476],[44.3472,36.549,706.3441],[44.3293,36.5703,661.2817],[44.2927,36.5907,569.5094],[44.2885,36.5974,547.7443],[44.2861,36.6181,654.4262],[44.2823,36.6284,675.4049],[44.273,36.6398,641.3669],[44.2637,36.6444,586.5018],[44.2452,36.6485,587.9056],[44.2392,36.6524,525.7147],[44.2195,36.6313,519.3737],[44.2024,36.6179,465.676],[44.161,36.5925,433.1207],[44.1342,36.5805,598.8019],[44.1119,36.5757,390.1246],[44.0941,36.5738,497.4574],[44.056399999999996,36.5742,570.4493],[44.0106,36.5782,530.8301],[43.9995,36.5778,412.543],[43.9812,36.5726,367.62],[43.9581,36.556,321.492],[43.9072,36.5118,352.4749],[43.8465,36.4554,318.4808],[43.8259,36.4295,293.0977],[43.8183,36.4155,277.5023],[43.8151,36.4056,282.4932],[43.8292,36.3997,332.3296],[43.8617,36.3967,339.3957],[43.8758,36.3916,345.7025],[43.8938,36.3886,359.8586],[43.9078,36.3835,374.9504],[43.9258,36.3806,379.4373],[43.9398,36.3756,398.157],[43.9621,36.3714,419.6276],[43.9746,36.3614,428.2467],[43.9881,36.3433,449.129],[44.0034,36.3353,454.1769],[44.029,36.3325,471.5972],[44.0484,36.3263,503.9552],[44.0854,36.3255,535.5813],[44.0978,36.3234,563.1385],[44.1041,36.319,574.347],[44.1145,36.303,582.0806],[44.1234,36.2955,607.7106],[44.1473,36.2874,688.998],[44.1729,36.2821,844.0612],[44.185,36.2755,874.9453],[44.1924,36.2668,895.4714],[44.1991,36.2626,944.4963],[44.2175,36.2593,1038.9916],[44.2317,36.2542,1035.6403],[44.2636,36.2522,885.3213],[44.2742,36.2494,889.2348]]]]}}