{"type":"Feature","properties":{"GID_1":"IRQ.12_1","GID_0":"IRQ","country":"Iraq","province":"Dihok","VARNAME_1":"Dahuk|D'hok","NL_NAME_1":"NA","TYPE_1":"Muhafazah","ENGTYPE_1":"Province","CC_1":"NA","HASC_1":"IQ.DA","ISO_1":"NA","name":"Dihok.province"},
"geometry":{"type": "MultiPolygon","coordinates": [[[[43.1015,36.7432,667.5507],[43.1138,36.751,925.1143],[43.1207,36.7576,823.3284],[43.1311,36.7586,847.4321],[43.1427,36.7669,734.032],[43.1522,36.7707,827.1596],[43.1714,36.7833,776.5262],[43.1847,36.7894,719.2146],[43.1929,36.8005,857.83],[43.204,36.8086,988.4241],[43.2469,36.8516,632.4937],[43.2536,36.8644,674.1524],[43.2628,36.8733,816.8616],[43.2688,36.889,1030.1693],[43.2888,36.898,1087.5588],[43.3119,36.9037,1075.3015],[43.3278,36.9029,1144.1583],[43.3454,36.8947,1082.4238],[43.3538,36.8877,1053.3124],[43.3679,36.8712,881.7609],[43.3798,36.8504,1089.4709],[43.3877,36.8398,758.7268],[43.3953,36.8329,808.3391],[43.4085,36.8255,761.1889],[43.4329,36.8184,590.1506],[43.4611,36.8142,653.8519],[43.5531,36.8097,560.2099],[43.5802,36.8027,543.3761],[43.6082,36.7889,519.1622],[43.6224,36.7892,481.524],[43.6425,36.7953,476.9159],[43.6523,36.8017,511.2309],[43.6664,36.8165,788.8796],[43.6733,36.828,920.6201],[43.6788,36.8416,789.0717],[43.6812,36.8564,511.1709],[43.6805,36.8714,665.475],[43.6767,36.8856,1054.4365],[43.6655,36.9032,1221.1233],[43.6518,36.9198,836.7145],[43.6456,36.9318,1225.2668],[43.645,36.9408,1230.1382],[43.6474,36.9491,1681.4413],[43.6542,36.9597,1214.3126],[43.6613,36.9666,999.1637],[43.6772,36.9757,1187.0872],[43.6902,36.979,1242.0326],[43.7186,36.9806,1313.9584],[43.768,36.9785,1377.3341],[43.8124,36.9841,1111.7454],[43.8266,36.9956,666.9805],[43.8954,37.0294,1261.9751],[43.9275,37.0489,1145.5115],[43.9725,37.0808,820.1815],[44.0032,37.1053,1163.3418],[44.0164,37.1195,1007.6143],[44.0281,37.1356,1248.7135],[44.0433,37.1642,1053.7816],[44.0476,37.1824,996.606],[44.0487,37.1962,1359.7495],[44.0477,37.2248,1762.9675],[44.0424,37.2697,1850.9299],[44.0387,37.2869,1228.6418],[44.029,37.311,1270.126],[44.0232,37.3178,946.8226],[44.0044,37.2996,1656.3203],[43.9786,37.2924,1823.6521],[43.9706,37.2867,1698.2212],[43.967,37.2753,1709.3822],[43.9513,37.2554,1693.6703],[43.9316,37.2454,1240.6128],[43.8962,37.2346,1732.6554],[43.8464,37.2292,1549.7035],[43.8012,37.2296,1284.7036],[43.7654,37.2329,1416.9473],[43.7546,37.23,1604.318],[43.7473,37.2301,1566.5109],[43.7366,37.2341,1702.9038],[43.7308,37.2341,1735.4191],[43.7167,37.2304,1879.157],[43.7094,37.2354,1869.251],[43.7051,37.2349,1867.51],[43.697,37.2306,1859.8997],[43.6666,37.2309,1816.7351],[43.627,37.2364,1601.5316],[43.5925,37.2443,1219.627],[43.5869,37.2533,1029.8844],[43.5768,37.2581,880.8622],[43.5559,37.2528,1027.3213],[43.5209,37.2608,1496.7194],[43.3938,37.3087,2158.7068],[43.3837,37.3199,1684.3706],[43.37,37.3286,1834.8884],[43.3601,37.3303,2026.4211],[43.3462,37.3265,2074.1602],[43.3346,37.3187,1922.5679],[43.332,37.3157,2015.3745],[43.3279,37.3039,2108.3472],[43.3255,37.3036,2093.6567],[43.3118,37.312,2054.8879],[43.2886,37.3166,1861.2843],[43.2797,37.3267,1448.2029],[43.2635,37.3356,1675.4202],[43.2535,37.344,1400.0841],[43.234,37.3436,1366.5131],[43.2289,37.3447,1266.2],[43.2081,37.3551,1225.1737],[43.1819,37.3573,983.9544],[43.1789,37.3592,1054.7236],[43.1705,37.3724,1618.1716],[43.1674,37.374,1617.123],[43.1412,37.37,1152.7217],[43.1289,37.3718,1070.2275],[43.1086,37.3652,1216.6228],[43.0917,37.3639,1243.3735],[43.068,37.3582,1393.823],[43.0381,37.3555,1403.2015],[43.0347,37.3527,1389.9358],[43.0271,37.3386,1872.6134],[43.02,37.333,1762.6997],[42.9874,37.3241,1865.9867],[42.9775,37.3174,1696.1084],[42.9737,37.3165,1777.2035],[42.9603,37.3179,2163.5586],[42.9214,37.3311,1902.3201],[42.8865,37.3376,1721.5692],[42.8821,37.339,1902.1958],[42.8731,37.3459,1906.4041],[42.8498,37.3469,1985.7985],[42.8421,37.3513,1756.579],[42.8346,37.3682,1377.5909],[42.8313,37.3716,1371.7882],[42.8033,37.378,1660.8627],[42.7936,37.3744,1767.9468],[42.7847,37.363,1352.5044],[42.7742,37.3564,1523.2571],[42.7343,37.3479,1092.3796],[42.7308,37.3451,643.4182],[42.7433,37.3314,701.1167],[42.7459,37.3244,675.3385],[42.7433,37.318,702.8872],[42.737,37.3134,657.1016],[42.7268,37.3096,617.2093],[42.7046,37.3076,560.6148],[42.6993,37.3054,775.0647],[42.6989,37.3025,649.1854],[42.7032,37.2908,569.4094],[42.7007,37.2854,678.1019],[42.6933,37.2806,637.025],[42.6856,37.2705,586.2961],[42.6744,37.2702,550.8816],[42.6646,37.262,638.4243],[42.6581,37.2411,509.8661],[42.6525,37.2316,561.2477],[42.642,37.2225,624.7656],[42.627,37.214,510.6118],[42.6238,37.208,489.9692],[42.6216,37.1972,464.5156],[42.6159,37.1905,449.8207],[42.6022,37.1792,433.0826],[42.596,37.1702,430.2837],[42.5916,37.1473,398.3723],[42.5806,37.1454,394.0762],[42.5644,37.1482,391.0302],[42.5363,37.1488,383.2378],[42.5267,37.145,378.8786],[42.5122,37.134,375.4881],[42.493899999999996,37.1338,369.477],[42.4839,37.1362,367.409],[42.472,37.1365,368.7537],[42.4604,37.1334,364.6996],[42.4507,37.128,359.6649],[42.4348,37.1243,363.6332],[42.4268,37.1197,368.7644],[42.4118,37.1163,348.7321],[42.4036,37.1121,345.3897],[42.3959,37.1121,343.9941],[42.3844,37.1175,344.0795],[42.3752,37.1178,342.4388],[42.3637,37.1093,338.6778],[42.3622,37.095,359.0817],[42.366,37.0891,369.1694],[42.3736,37.0868,350.6526],[42.3811,37.082,404.1719],[42.385,37.0741,404.0766],[42.3847,37.0672,360.3941],[42.3737,37.0582,340.9507],[42.4951,36.9367,334.2805],[42.5173,36.9203,310.3889],[42.5314,36.9073,327.6107],[42.5387,36.8964,342.4676],[42.5453,36.8818,401.0825],[42.5576,36.8378,324.2257],[42.5651,36.8194,307.0],[42.5725,36.8086,307.0],[42.5798,36.8014,307.0],[42.5893,36.7949,307.0],[42.6085,36.7853,307.0],[42.6325,36.7771,307.0],[42.7115,36.7581,307.0],[42.7369,36.7455,307.0],[42.7662,36.7245,307.0],[42.7851,36.7131,307.0],[42.8065,36.7033,307.0],[42.8243,36.6975,307.0],[42.8381,36.695,307.0],[42.8678,36.6936,307.0],[42.8946,36.6946,307.0],[42.9167,36.698,325.9044],[42.9316,36.7124,333.8276],[42.9472,36.7213,377.9697],[42.9638,36.7248,383.6812],[43.0201,36.7274,410.8252],[43.0774,36.7359,512.0468],[43.1015,36.7432,667.5507]]]]}}