{"type":"Feature","properties":{"ISO3166-1-Alpha-3":"IRQ","country":"Iraq","fill":"#00F","id":"3046","name":"Dihok"},
"geometry":{"type": "Polygon","coordinates": [[[42.93705,37.32015,1999.0974],[42.89674,37.32491,1818.3174],[42.81406,37.34682,1700.1212],[42.80548,37.35186,1487.9098],[42.80114,37.36909,1720.5826],[42.79246,37.37433,1767.9468],[42.78047,37.3755,1895.1653],[42.77158,37.3749,1484.7056],[42.72218,37.35891,907.7021],[42.71567,37.35529,726.4478],[42.70946,37.34718,1163.9646],[42.7074,37.34015,1398.2546],[42.70616,37.33323,1389.3955],[42.70233,37.32535,934.291],[42.57697,37.17923,428.8415],[42.56467,37.15205,391.6841],[42.56126,37.14662,389.8],[42.54524,37.14089,397.3581],[42.45914,37.12931,362.5376],[42.40189,37.11414,347.0126],[42.35724,37.10998,339.6442],[42.36365,37.09815,364.35],[42.37119,37.08794,344.5108],[42.37688,37.07676,337.2601],[42.37719,37.06224,345.0117],[42.37681,37.062,344.9218],[42.3838,37.04071,326.8223],[42.39755,37.01704,324.5],[42.4146,36.99555,324.7422],[42.45263,36.9655,378.5296],[42.47062,36.95482,316.5],[42.48808,36.95513,356.2892],[42.50762,36.97307,325.0829],[42.50793,36.95787,320.9766],[42.50328,36.93782,311.0],[42.504,36.92173,324.754],[42.52064,36.91844,320.7292],[42.5132,36.89653,321.5777],[42.51547,36.88728,320.765],[42.52395,36.87984,334.702],[42.5349,36.8632,348.32],[42.50865,36.86181,314.8521],[42.504,36.85132,313.6971],[42.51485,36.84336,312.5869],[42.5349,36.84953,311.3826],[42.56601,36.83659,307.0],[42.58286,36.82654,324.261],[42.5965,36.79602,307.0],[42.61252,36.78933,307.0],[42.65469,36.78871,307.0],[42.65955,36.79073,307.0],[42.66389,36.79522,307.0],[42.66936,36.79974,307.0],[42.67825,36.80176,307.0],[42.69035,36.79959,307.0],[42.69923,36.79429,307.0],[42.72962,36.76675,307.0],[42.74719,36.75396,307.0],[42.75659,36.75024,307.0],[42.76466,36.74957,307.0],[42.77251,36.74763,307.0],[42.7813,36.74029,307.0],[42.75887,36.73337,307.0],[42.74967,36.72742,307.0],[42.74719,36.7198,307.0],[42.75401,36.71151,313.0946],[42.76445,36.71215,307.0],[42.79969,36.72631,307.0],[42.80796,36.72582,307.0],[42.82233,36.7198,307.0],[42.82977,36.71458,307.0],[42.83483,36.7081,307.0],[42.84341,36.69252,314.398],[42.85168,36.70466,307.0],[42.86119,36.71042,307.0],[42.87276,36.71228,307.0],[42.88744,36.71236,307.0],[42.89953,36.71011,307.0],[42.98149,36.74688,465.4518],[43.11234,36.76132,764.5913],[43.15254,36.76411,1011.2657],[43.18582,36.77799,996.3642],[43.20091,36.78646,796.2416],[43.20535,36.80225,858.6993],[43.21445,36.82013,1014.0037],[43.22323,36.84271,877.5731],[43.25259,36.8816,927.8395],[43.28328,36.91147,956.5088],[43.29062,36.92149,940.5201],[43.30467,36.93023,1219.1028],[43.32069,36.93457,1453.3713],[43.35873,36.931,1329.9349],[43.37402,36.92449,1200.9976],[43.38963,36.91441,1484.2272],[43.40307,36.90292,1523.465],[43.43325,36.8855,1433.3743],[43.45102,36.87227,1247.4655],[43.48296,36.85979,1515.7534],[43.62796,36.82848,1096.4478],[43.64223,36.82623,1077.6504],[43.64884,36.82651,987.1961],[43.65163,36.83106,790.1112],[43.65256,36.83592,543.8352],[43.65256,36.84163,622.6915],[43.65432,36.84669,605.2255],[43.65762,36.85033,502.3889],[43.66486,36.85349,573.9185],[43.67406,36.85468,509.5615],[43.69111,36.85013,513.287],[43.69463,36.84827,514.2416],[43.69835,36.84842,522.5778],[43.70165,36.85124,538.402],[43.7061,36.86245,548.5002],[43.70723,36.86871,574.7881],[43.70754,36.8739,566.6593],[43.70672,36.87754,587.7258],[43.70579,36.88036,584.9587],[43.70548,36.88537,622.734],[43.70486,36.88783,687.5012],[43.70475,36.89028,685.1586],[43.70475,36.89343,656.3272],[43.70424,36.8969,789.3658],[43.70227,36.90284,667.9059],[43.703,36.90511,667.7415],[43.70847,36.90687,691.7971],[43.71302,36.9093,709.8408],[43.71778,36.91351,726.2487],[43.72615,36.92733,820.4387],[43.7279,36.93219,871.0363],[43.72821,36.93679,859.3192],[43.72739,36.94175,876.9564],[43.72615,36.94676,872.8077],[43.72367,36.95134,891.0107],[43.72046,36.95441,918.6873],[43.71499,36.95638,953.418],[43.70878,36.95738,1076.775],[43.69183,36.96175,1221.4922],[43.68346,36.96537,1176.1564],[43.67571,36.96661,1089.092],[43.66176,36.96707,999.1637],[43.65576,36.96836,983.2173],[43.6507,36.97048,989.1359],[43.64047,36.97643,963.6593],[43.63788,36.97963,1004.2892],[43.63664,36.9825,928.8251],[43.63613,36.98526,936.063],[43.63334,36.98999,898.858],[43.63292,36.99299,881.9487],[43.63272,36.99648,918.089],[43.63334,37.0003,986.2998],[43.63582,37.00774,826.8433],[43.63943,37.0157,911.4686],[43.64078,37.02399,879.497],[43.64068,37.02753,747.6813],[43.64161,37.03032,735.6552],[43.64636,37.03854,686.9391],[43.64936,37.04203,667.4877],[43.6537,37.04575,645.61],[43.65731,37.04776,631.6003],[43.66052,37.04862,642.4577],[43.66476,37.04838,631.5133],[43.66951,37.04722,612.9939],[43.68718,37.03939,605.249],[43.69866,37.03676,593.2925],[43.76873,37.02676,582.857],[43.79663,37.0179,568.9294],[43.82816,37.01185,554.8188],[43.848,37.0296,675.576],[43.86164,37.03503,689.3157],[43.86981,37.03668,628.4595],[43.87446,37.04032,620.4806],[43.87839,37.04528,568.6891],[43.88273,37.05611,601.4926],[43.88614,37.06205,622.2986],[43.89193,37.06608,622.509],[43.90939,37.07415,697.5439],[43.94681,37.08624,717.6895],[43.95135,37.08867,683.7684],[43.95166,37.09068,623.4415],[43.94949,37.09285,644.502],[43.94774,37.09595,628.6396],[43.95208,37.09836,640.1262],[43.96066,37.10076,752.0164],[43.97864,37.10758,654.1644],[43.9867,37.11156,647.457],[43.99249,37.1159,670.4949],[43.99621,37.1214,773.3735],[44.0112,37.13835,756.916],[44.01678,37.14236,750.0422],[44.03755,37.15125,710.2249],[44.05047,37.15538,723.6611],[44.05574,37.15856,687.9538],[44.05781,37.1614,701.5228],[44.05326,37.1683,707.7991],[44.05388,37.17223,820.5226],[44.05698,37.17781,850.8502],[44.06897,37.19065,776.4667],[44.07672,37.19688,917.1733],[44.08757,37.20388,832.9399],[44.09853,37.20768,808.0165],[44.09946,37.21039,874.8237],[44.09936,37.21427,758.8599],[44.09667,37.22571,828.614],[44.09512,37.22716,865.4937],[44.09326,37.22778,864.0433],[44.08706,37.22793,840.9976],[44.08334,37.22897,911.7836],[44.08075,37.23073,774.7645],[44.07889,37.23359,775.8728],[44.07796,37.23956,810.0227],[44.0762,37.2453,798.9778],[44.07589,37.24902,793.2384],[44.07651,37.25302,834.4911],[44.0793,37.25959,837.7947],[44.0883,37.27413,860.8539],[44.0883,37.27744,864.6998],[44.08695,37.28002,845.4086],[44.08396,37.28132,870.8082],[44.0821,37.28266,851.1182],[44.07982,37.28354,926.9485],[44.07775,37.28452,850.761],[44.0762,37.28581,871.2267],[44.07548,37.28741,866.3626],[44.07331,37.2917,969.2803],[44.07093,37.29333,962.5325],[44.06773,37.29455,902.3796],[44.06432,37.2994,983.071],[44.06902,37.31373,946.5719],[44.03559,37.31824,1280.7279],[43.99037,37.3125,1824.0588],[43.95378,37.28747,2070.2434],[43.92417,37.25308,1434.5237],[43.89363,37.22491,2097.3213],[43.83999,37.21711,1273.6849],[43.82201,37.20238,1051.1654],[43.8094,37.19969,1375.7219],[43.80206,37.20357,1331.3575],[43.78056,37.22036,1596.5011],[43.77064,37.22584,1448.6365],[43.74692,37.23065,1588.0436],[43.72082,37.23261,1796.5861],[43.6183,37.22698,1666.891],[43.59422,37.22946,1523.5818],[43.5689,37.2377,923.8763],[43.5506,37.24874,1146.6145],[43.54244,37.2523,1198.5541],[43.52952,37.2539,1404.3],[43.51712,37.2523,1530.0342],[43.49241,37.24476,1871.4011],[43.4796,37.24336,1715.3379],[43.46327,37.24868,1926.7705],[43.41676,37.27917,2203.0066],[43.37604,37.29553,1644.6567],[43.36251,37.30391,1891.7648],[43.33615,37.32023,1901.3213],[43.32416,37.32222,2073.5461],[43.30566,37.31997,1750.6489],[43.29687,37.31674,1817.2705],[43.28752,37.30914,1952.2007],[43.27863,37.30775,1862.7094],[43.27031,37.30868,1792.5369],[43.26338,37.3107,1790.0378],[43.13197,37.36726,1227.1799],[43.11481,37.37113,1198.9553],[43.08371,37.36883,1201.3682],[43.0435,37.36025,1493.9558],[43.00516,37.34726,1757.8149],[42.97963,37.33183,1787.0059],[42.93705,37.32015,1999.0974]]]}}