{"type":"Feature","properties":{"GID_2":"IRQ.15.5_1","GID_0":"IRQ","country":"Iraq","GID_1":"IRQ.15_1","province":"Maysan","NL_NAME_1":"NA","county":"AlialGharbi","VARNAME_2":"NA","NL_NAME_2":"NA","TYPE_2":"Kaza","ENGTYPE_2":"District","CC_2":"NA","HASC_2":"NA","name":"Alial_Gharbi.county"},
"geometry":{"type": "MultiPolygon","coordinates": [[[[46.5644,32.8609,111.0155],[46.5434,32.8322,78.4165],[46.5159,32.8038,63.4354],[46.4961,32.7794,53.9543],[46.4884,32.7649,49.5697],[46.4787,32.7407,43.4177],[46.4246,32.5717,17.6211],[46.4157,32.5281,13.2356],[46.407,32.4499,11.7271],[46.3913,32.4066,10.938],[46.3874,32.3841,10.582],[46.3883,32.3724,10.2564],[46.3934,32.356,9.965],[46.397,32.3501,10.1822],[46.4186,32.327,10.3626],[46.4225,32.3178,9.9911],[46.4253,32.2964,8.9921],[46.4222,32.2331,9.7043],[46.4245,32.221,9.8819],[46.4292,32.2097,10.3358],[46.4402,32.1947,9.9098],[46.4547,32.1826,10.3215],[46.518,32.1472,9.3312],[46.5314,32.1343,10.1305],[46.5393,32.1198,9.7766],[46.5446,32.0962,9.7879],[46.5448,32.0726,9.7591],[46.5301,31.9815,9.2172],[46.5483,31.9746,9.7068],[46.567,31.9735,9.1865],[46.581,31.9754,9.4865],[46.5961,31.9804,9.0493],[46.6293,31.9832,9.5964],[46.6523,31.9918,9.1886],[46.6666,32.0083,9.2231],[46.6782,32.0129,8.9611],[46.7152,32.0129,7.9619],[46.7397,32.0059,8.4609],[46.7535,32.0061,8.3896],[46.7616,32.0098,7.3971],[46.783,32.0266,8.2365],[46.8014,32.0303,9.3105],[46.8092,32.0341,8.7419],[46.8236,32.0505,9.1166],[46.8466,32.0591,9.6372],[46.863,32.061,8.3856],[46.9203,32.0606,7.2203],[46.9324,32.0631,7.3551],[46.9378,32.0689,7.4019],[46.9557,32.1038,8.1879],[46.9762,32.1293,8.962],[47.0038,32.1837,15.0191],[47.0324,32.2249,21.9059],[47.0482,32.2569,27.97],[47.0522,32.2713,30.4584],[47.0681,32.3033,36.2762],[47.088,32.3289,40.1566],[47.0924,32.351,40.1666],[47.103,32.3715,42.9261],[47.1338,32.4041,49.5161],[47.1437,32.4245,52.9067],[47.1585,32.4475,58.5679],[47.2057,32.4562,104.3371],[47.181399999999996,32.4608,61.8482],[47.179,32.4533,59.4104],[47.1734,32.4512,62.8769],[47.1592,32.4541,59.3319],[47.1314,32.4676,67.2397],[47.1083,32.4758,72.3558],[47.0679,32.5104,85.4488],[47.0558,32.5231,100.7267],[47.0439,32.5305,102.8061],[46.9954,32.5718,126.1197],[46.952,32.597,111.1871],[46.9405,32.6099,124.8532],[46.9203,32.6251,100.1034],[46.9081,32.6295,105.0274],[46.8907,32.6401,103.9312],[46.8767,32.6572,116.0104],[46.8322,32.6929,112.8154],[46.8236,32.7023,153.6205],[46.8109,32.7083,119.8121],[46.7979,32.7113,103.9946],[46.7875,32.7157,98.509],[46.7774,32.7274,105.463],[46.749,32.7536,102.5033],[46.7304,32.7656,113.3622],[46.7061,32.7746,104.2149],[46.6967,32.784,113.4648],[46.6857,32.7919,114.3029],[46.6652,32.7999,107.0295],[46.6595,32.8042,113.7029],[46.6467,32.8207,148.5853],[46.5756,32.8534,105.0857],[46.5644,32.8609,111.0155]]]]}}