{"type":"Feature","properties":{"GID_2":"IRQ.2.3_1","GID_0":"IRQ","country":"Iraq","GID_1":"IRQ.2_1","province":"Al-Basrah","NL_NAME_1":"NA","county":"AlMadiana","VARNAME_2":"NA","NL_NAME_2":"NA","TYPE_2":"Kaza","ENGTYPE_2":"District","CC_2":"NA","HASC_2":"NA","name":"Al_Madiana.county"},
"geometry":{"type": "MultiPolygon","coordinates": [[[[47.1785,30.7079,1.681],[47.2004,30.7463,0.6896],[47.2132,30.7556,1.0462],[47.221,30.7644,1.1173],[47.2289,30.7804,1.0183],[47.2367,30.8044,0.8716],[47.242,30.83,1.2463],[47.2486,30.8422,0.5423],[47.2608,30.853,1.165],[47.2688,30.8686,0.884],[47.2723,30.8827,1.018],[47.2762,30.8877,1.5811],[47.2841,30.8877,1.6105],[47.2917,30.8847,-1.27],[47.2971,30.8737,0.5647],[47.303,30.8674,0.5973],[47.3086,30.8644,0.504],[47.3126,30.8644,0.7893],[47.3162,30.8657,0.4409],[47.3408,30.8888,0.9281],[47.3511,30.8943,0.9281],[47.3698,30.8974,0.5901],[47.3841,30.9023,1.0752],[47.4133,30.9041,0.9958],[47.4276,30.9092,0.8428],[47.4369,30.9108,0.8684],[47.4615,30.91,1.8444],[47.4787,30.905,1.8222],[47.4852,30.9083,1.8336],[47.4916,30.9201,0.0],[47.4927,30.9301,1.5676],[47.4881,30.9442,1.4134],[47.4866,30.9629,2.1939],[47.4846,30.9695,2.3313],[47.4814,30.9727,1.3651],[47.47,30.9752,1.3342],[47.4292,30.9747,0.5856],[47.4197,30.973,0.8914],[47.4051,30.9676,1.5545],[47.384,30.9667,1.6574],[47.3714,30.9688,2.8433],[47.3651,30.9732,1.9712],[47.3607,30.9796,1.6284],[47.3585,30.9988,2.0031],[47.3607,31.0181,1.4974],[47.377,31.066,1.9532],[47.3974,31.1074,1.5565],[47.3991,31.1173,1.9219],[47.3991,31.1597,1.6926],[47.3916,31.1892,1.3011],[47.3909,31.2635,1.6358],[47.3895,31.2722,1.5205],[47.3836,31.2862,1.8713],[47.3596,31.278199999999998,1.5598],[47.3469,31.2682,1.5931],[47.3336,31.2622,1.3877],[47.2692,31.2431,1.0972],[47.24,31.225,1.1929],[47.2118,31.2053,0.8586],[47.1997,31.1925,0.7164],[47.1755,31.1428,0.2035],[47.1809,31.115,0.4848],[47.1855,31.0617,0.6286],[47.1827,31.0079,1.32],[47.1779,30.9679,0.5878],[47.1716,30.9328,0.8388],[47.1547,30.8759,1.0573],[47.1358,30.8256,0.6856],[47.1236,30.7862,0.0],[47.1187,30.7636,1.0473],[47.1146,30.732,1.839],[47.1361,30.7319,0.863],[47.1486,30.7286,0.5],[47.1645,30.7207,0.5],[47.172,30.7121,1.6285],[47.1785,30.7079,1.681]]]]}}