{"type":"Feature","properties":{"GID_2":"IRQ.17.8_1","GID_0":"IRQ","country":"Iraq","GID_1":"IRQ.17_1","province":"Salaad-Din","NL_NAME_1":"NA","county":"TouzHourmato","VARNAME_2":"NA","NL_NAME_2":"NA","TYPE_2":"Kaza","ENGTYPE_2":"District","CC_2":"NA","HASC_2":"NA","name":"Touz_Hourmato.county"},
"geometry":{"type": "MultiPolygon","coordinates": [[[[44.5074,35.112,240.1454],[44.4933,35.1108,263.0634],[44.4824,35.1062,232.8985],[44.4739,35.0995,217.6221],[44.4659,35.0882,215.8976],[44.4614,35.0737,211.4479],[44.4586,35.0213,199.7],[44.456,35.0062,197.4154],[44.4503,34.9908,193.6773],[44.4336,34.9674,187.9087],[44.394,34.9235,176.3356],[44.3682,34.8843,172.4258],[44.3289,34.8161,145.1943],[44.3134,34.7837,121.3188],[44.296,34.7414,145.7625],[44.2814,34.7168,199.9132],[44.2691,34.7033,194.648],[44.2601,34.6974,172.1463],[44.25,34.695,153.6323],[44.2353,34.6967,142.5877],[44.2263,34.7003,146.9192],[44.1949,34.7214,172.9188],[44.1874,34.7128,165.2091],[44.1685,34.6999,139.1853],[44.1643,34.6932,135.1345],[44.1646,34.6864,134.7569],[44.1723,34.6623,123.0329],[44.1787,34.6499,119.2453],[44.1821,34.6452,117.9659],[44.1965,34.6352,115.074],[44.2071,34.624,113.0971],[44.2167,34.6049,109.6704],[44.2204,34.5905,108.243],[44.2281,34.5743,99.7227],[44.2488,34.5441,95.8519],[44.2552,34.5397,95.4492],[44.2624,34.538,93.8887],[44.3053,34.5379,92.7701],[44.3169,34.5355,95.169],[44.3201,34.5323,96.1972],[44.322,34.5257,95.0312],[44.3225,34.493899999999996,85.4671],[44.3258,34.4855,83.3656],[44.3342,34.4821,83.3651],[44.3607,34.4817,85.0025],[44.3732,34.4795,85.8034],[44.3822,34.4722,85.9803],[44.3898,34.4615,85.5935],[44.3948,34.459,85.5225],[44.4053,34.4594,85.6957],[44.4297,34.4681,88.5201],[44.4422,34.4747,92.6071],[44.454,34.4777,93.9197],[44.4621,34.5144,100.3565],[44.4697,34.5334,112.5744],[44.4784,34.5459,111.4139],[44.4861,34.5532,108.1738],[44.4946,34.5584,102.3365],[44.5051,34.5611,96.0312],[44.5146,34.5606,126.5336],[44.5665,34.548,148.5276],[44.5786,34.5463,149.2359],[44.5907,34.5467,175.1915],[44.6098,34.5512,190.3057],[44.6265,34.5574,173.0428],[44.6474,34.5672,161.2826],[44.6606,34.5754,144.0194],[44.6747,34.5897,145.5157],[44.6808,34.6022,144.3007],[44.682,34.6168,149.1293],[44.681,34.6538,169.8737],[44.6838,34.6668,189.2032],[44.6942,34.6853,217.1033],[44.7015,34.6922,218.5472],[44.7112,34.6981,199.9621],[44.7642,34.7174,181.1656],[44.7791,34.7279,186.1635],[44.7898,34.7426,189.1115],[44.8057,34.7863,283.3317],[44.8106,34.7952,269.3258],[44.8157,34.8006,272.8904],[44.8318,34.8097,308.7232],[44.8693,34.8261,354.2735],[44.9184,34.8522,448.1292],[44.9108,34.8762,442.6095],[44.9112,34.9222,416.5761],[44.9104,34.9398,392.4204],[44.9073,34.9568,396.7372],[44.9016,34.9715,444.3417],[44.8938,34.9844,507.5108],[44.882,34.9967,552.9108],[44.8732,35.0025,549.1671],[44.8622,35.0072,549.7006],[44.8482,35.0104,504.6839],[44.8045,35.0151,442.1599],[44.7302,35.0262,369.7029],[44.6813,35.0302,319.253],[44.6227,35.0295,279.5541],[44.5963,35.0345,275.7343],[44.5735,35.0472,268.7039],[44.5454,35.07,236.9125],[44.5219,35.0924,237.6226],[44.5074,35.112,240.1454]]]]}}