{"type":"Feature","properties":{"id":142160.0,"name":"Qadisiyah","lge_id":null,"pfafstette":0.0,"lke_type":null,"altitude":0,"objectid":89064,"scalerank":10,"featurecla":"Lake","note":null,"funkyname":0,"min_zoom":6.0,"min_label":7.0},
"geometry":{"type": "Polygon","coordinates": [[[42.300791862896233,34.251288153119077,132.5],[42.289195183208733,34.238226629681577,132.5],[42.289195183208733,34.238226629681577,132.5],[42.301036003521233,34.220709539837827,148.1499],[42.318614128521233,34.203985907025327,132.5],[42.347666862896233,34.210272528119077,132.5],[42.375743034771233,34.224554754681577,132.5],[42.389414909771233,34.235846258587827,132.5],[42.397105339458733,34.247442938275327,132.5],[42.411143425396233,34.261969305462827,132.5],[42.426280144146233,34.270025946087827,132.5],[42.434825066021233,34.276007391400327,132.5],[42.423594597271233,34.297369696087827,146.3477],[42.409556511333733,34.324408270306577,159.5002],[42.414317253521233,34.344000555462827,132.5],[42.418711784771233,34.353888250775327,141.0068],[42.404795769146233,34.351813055462827,158.9827],[42.392588737896233,34.348211981244077,139.368],[42.373789909771233,34.360419012494077,142.317],[42.349864128521233,34.365484930462827,153.0113],[42.343028191021233,34.371466375775327,135.2591],[42.330821159771233,34.385992742962827,147.3051],[42.300425651958733,34.375250555462827,145.4967],[42.269786003521233,34.365484930462827,132.5],[42.251963737896233,34.360724188275327,136.0849],[42.213389519146233,34.338141180462827,154.3269],[42.173472526958733,34.321173407025327,158.6444],[42.161387566021233,34.320318914837827,152.0971],[42.162608269146233,34.342291571087827,132.5],[42.179698112896233,34.370794989056577,132.5],[42.180064323833733,34.393072821087827,132.5],[42.164561394146233,34.386603094525327,132.5],[42.152354362896233,34.385992742962827,134.4417],[42.135142448833733,34.401129461712827,137.3057],[42.119151237896233,34.378546453900327,132.5],[42.088389519146233,34.375250555462827,156.2781],[42.042369011333733,34.379584051556577,139.4733],[42.033579948833733,34.371100164837827,153.733],[42.060679558208733,34.346441961712827,149.4607],[42.101206901958733,34.320379949994077,132.5],[42.114024284771233,34.308356024212827,132.5],[42.125010612896233,34.273260809369077,132.5],[42.143199089458733,34.261358953900327,132.5],[42.173838737896233,34.267279364056577,132.5],[42.197276237896233,34.280707098431577,132.5],[42.221690300396233,34.273260809369077,148.971],[42.236216667583733,34.267584539837827,132.5],[42.247569206646233,34.261786199994077,156.5492],[42.267100456646233,34.250860907025327,139.02],[42.287974480083733,34.262579657025327,151.1731],[42.305796745708733,34.307806707806577,148.664],[42.307627800396233,34.332159735150327,132.5],[42.330821159771233,34.326544500775327,132.5],[42.352183464458733,34.299505926556577,132.5],[42.318369987896233,34.281012274212827,134.6618],[42.300791862896233,34.251288153119077,132.5]]]}}