{"type":"Feature","properties":{"featurecla":"Geoarea","name":"Mesopotamia","namealt":null,"region":"Asia","subregion":null,"min_label":4.0,"max_label":8.0,"scalerank":3},
"geometry":{"type": "MultiPolygon","coordinates": [[[[43.308983469354786,35.796093094158238,173.8528],[43.315562370708875,35.808722235150242,175.3588],[43.315562370708875,35.86444733280652,179.3433],[43.331553581646261,35.854010321087912,176.4409],[43.349497917583761,35.862250067181606,178.6306],[43.360606316021318,35.881903387494106,185.1748],[43.356455925396318,35.90546295780652,179.5],[43.351328972271375,35.907660223431719,182.7339],[43.343028191021375,35.909002996869219,183.6461],[43.334483269146318,35.912115789837856,183.7685],[43.329234245708705,35.919745184369106,182.0709],[43.328868034771205,35.927191473431606,183.0087],[43.330821159771375,35.933661199993992,184.6383],[43.333872917583875,35.9398257507753,182.0],[43.341319206646375,35.962225653119134,192.3745],[43.346079948833875,35.971991278118992,186.1535],[43.345835808208705,35.981085516400356,185.2453],[43.336070183208875,35.994879461712742,232.5427],[43.339976433208875,36.01550934452527,187.9807],[43.336070183208875,36.034308172650469,192.8374],[43.326182487896205,36.051214910931549,194.521],[43.303599480083818,36.074652410931549,195.2549],[43.298472526958818,36.082770086712884,193.1512],[43.295786980083818,36.092962957806549,191.0],[43.294444206646318,36.122503973431606,198.4617],[43.295298698833705,36.129645086712856,199.0902],[43.302867058208875,36.142523504681606,195.4326],[43.299082878521205,36.146918035931606,194.5],[43.292369011333818,36.149542547650412,200.9054],[43.291636589458705,36.149908758587884,198.5937],[43.290049675396318,36.150580145306549,200.6078],[43.288340691021318,36.151251532025384,201.3575],[43.286997917583818,36.151251532025384,201.7955],[43.274546745708875,36.166144110150412,202.5069],[43.272227409771261,36.170538641400412,203.6347],[43.267100456646261,36.186651922650412,201.7876],[43.258189323833818,36.193548895306606,230.5249],[43.246836784771205,36.198981024212856,218.6808],[43.237071159771375,36.206000067181662,208.1652],[43.233042839458818,36.217718817181549,212.4452],[43.227793816021261,36.224249578900356,216.054],[43.216319206646205,36.231024481244106,207.827],[43.204844597271375,36.23963043827527,209.5858],[43.199473503521318,36.251776434369162,215.3493],[43.196055534771375,36.257635809369106,216.8517],[43.178599480083761,36.278876043744162,213.3632],[43.172129753521375,36.289068914837912,212.1687],[43.185801628521205,36.289068914837912,213.5563],[43.176158073833875,36.321905828900356,215.3933],[43.172129753521375,36.330023504681606,218.4231],[43.165782097271205,36.334967352337742,218.4802],[43.148448112896261,36.344305731243992,220.2852],[43.144786003521205,36.347113348431719,221.9486],[43.138194206646375,36.357550360150412,220.7563],[43.125254753521318,36.368292547650469,226.2971],[43.116953972271205,36.3813540710878,223.4883],[43.123789909771205,36.398932196087912,231.3553],[43.081797722271318,36.400336004681719,223.5575],[43.061534050396318,36.398627020306634,223.7118],[43.048594597271318,36.392096258587856,219.7375],[43.031626823833818,36.400824285931549,229.5906],[43.000498894146318,36.410467840619162,241.8638],[42.974619987896375,36.4281070007753,229.1672],[42.968638542583875,36.4345767273378,225.7309],[42.966075066021205,36.443609930462856,237.0519],[42.968272331646318,36.453619696087856,242.6028],[42.977549675396261,36.463812567181606,297.1138],[42.979746941021318,36.4711978210878,276.2155],[42.972178581646205,36.477972723431634,234.6061],[42.935313347271318,36.491888739056719,229.7301],[42.921641472271205,36.494513250775327,231.765],[42.863780144146318,36.494513250775327,234.9484],[42.832652214458818,36.499823309369049,249.5788],[42.794810417583705,36.501959539837856,242.8651],[42.761363151958818,36.499823309369049,244.5365],[42.750987175396375,36.506598211712912,243.3546],[42.747080925396375,36.525824285931606,247.5514],[42.753916862896318,36.553412176556549,252.9263],[42.771739128521261,36.578192449994049,280.778],[42.795909050396375,36.5963198914003,260.4077],[42.822032097271375,36.603705145306492,260.8705],[42.817881706646205,36.611395574994049,269.0637],[42.818492058208761,36.618353582806634,260.8786],[42.822520378521375,36.625067449993992,255.2859],[42.828868034771318,36.631659246869106,307.0],[42.831309441021375,36.637030340619219,307.0],[42.830332878521375,36.641424871869219,307.0],[42.830577019146318,36.6420962585878,307.0],[42.830821159771205,36.643561102337912,307.0],[42.831065300396261,36.644293524212884,307.0],[42.839366081646318,36.645331121869049,307.0],[42.857188347271261,36.644293524212884,307.0],[42.863780144146318,36.645331121869049,307.0],[42.886363151958705,36.636603094525327,307.0],[42.904185417583818,36.647894598431606,307.0],[42.905406120708705,36.664679266400356,307.0],[42.877329948833818,36.672674871869106,307.0],[42.887950066021375,36.693548895306492,307.0],[42.891978386333818,36.707342840619049,307.0],[42.887217644146318,36.713568426556492,307.0],[42.872569206646375,36.713507391400356,307.0],[42.860972526958705,36.711737371869162,307.0],[42.851573112896318,36.705877996869106,307.0],[42.843150261333818,36.693732000775242,307.0],[42.834727409771375,36.709357000775412,307.0],[42.829478386333875,36.715765692181577,316.1383],[42.822032097271375,36.721014715618992,307.0],[42.807871941021318,36.727057196087969,307.0],[42.799571159771205,36.727606512494106,307.0],[42.764292839458705,36.713446356244049,307.0],[42.753916862896318,36.712713934369077,307.0],[42.747080925396375,36.721014715618992,307.0],[42.749522331646318,36.728644110150242,307.0],[42.758677605083818,36.734625555462912,307.0],[42.781138542583875,36.741522528119106,307.0],[42.772227409771318,36.748846746869162,317.8167],[42.764414909771318,36.75079987186902,311.1143],[42.756358269146318,36.751471258587969,307.0],[42.747080925396375,36.755194403119049,307.0],[42.729502800396318,36.768011785931662,307.0],[42.699107292583875,36.795538641400469,307.0],[42.690196159771318,36.8007876648378,307.0],[42.678111198833761,36.802984930462884,307.0],[42.669200066021318,36.800970770306549,307.0],[42.663584831646205,36.796454168744106,307.0],[42.659434441021375,36.791937567181662,307.0],[42.654551628521318,36.789984442181606,307.0],[42.612315300396375,36.790594793744134,307.0],[42.596324089458875,36.797308660931492,307.0],[42.582652214458875,36.827765203900469,318.8416],[42.565806511333875,36.837836004681577,308.0732],[42.534800651958705,36.850775457806549,319.3222],[42.520152214458705,36.854132391400412,323.6623],[42.509898308208875,36.855108953900356,323.5566],[42.511363151958705,36.857672430462827,316.209],[42.531870964458818,36.865790106244106,308.0],[42.523936394146205,36.899847723431606,320.7693],[42.513438347271205,36.987372137494077,365.1913],[42.503184441021261,37.015692449993992,412.0853],[42.434580925396375,37.063666082806577,489.3772],[42.343028191021375,37.08801911015027,405.2254],[42.158457878521375,37.103399969525384,493.3723],[42.005812854614163,37.107752212301335,626.187],[41.533946159771205,36.971380926556606,385.0795],[41.237681511333761,36.923224188275356,394.1693],[40.372080925396205,36.862250067181577,378.2255],[40.088849575411956,36.824858472469089,351.6595],[40.000987175396375,36.8068911804628,362.6527],[39.831797722271375,36.791205145306492,406.746],[39.713608435293992,36.787277112356918,436.4262],[39.429937112314889,36.774261422613591,434.8809],[38.950327995708705,36.69910309452527,348.8308],[38.797007683208705,36.683783270306634,366.5972],[38.647715691021375,36.678900457806549,425.638],[38.503062370708705,36.657538153119049,529.5415],[38.363413933208875,36.592840887493992,422.2706],[38.189341667583761,36.389593817181662,320.0],[38.136729362896375,36.147650457806662,336.2799],[38.226573112896375,35.943670965619077,299.5],[38.480357292583705,35.854254461712969,361.4208],[38.618540886333875,35.877752996869162,253.5],[38.781260612896318,35.923712469525412,249.9895],[38.942515495708705,35.94837067265027,245.5058],[39.075938347271318,35.907843328900356,237.5921],[39.088023308208875,35.885016180462742,240.3986],[39.098277214458818,35.889776922650412,233.1306],[39.108042839458875,35.889960028119162,234.6214],[39.116221550396318,35.886053778119162,233.8927],[39.122080925396375,35.878729559368992,233.6057],[39.141001823833818,35.887518621869106,236.2051],[39.158702019146375,35.8822085632753,231.1493],[39.176768425396261,35.871649481244162,232.6255],[39.197276237896318,35.86444733280652,229.8969],[39.229746941021205,35.864691473431662,230.3255],[39.244151237896375,35.8608462585878,233.5881],[39.262461784771375,35.847418524212912,227.8866],[39.277476433208761,35.831976629681662,228.8326],[39.283335808208875,35.830389715619106,229.1447],[39.324229362896261,35.830389715619106,229.7487],[39.334117058208705,35.833197332806549,228.2765],[39.350596550396318,35.842718817181549,229.0932],[39.366831901958818,35.837225653119162,226.5823],[39.376963737896318,35.839606024212912,228.0127],[39.395884636333705,35.850836492962884,229.5282],[39.400645378521205,35.837103582806634,226.642],[39.398081901958875,35.824286199994106,224.0274],[39.399668816021375,35.812628485150327,225.0275],[39.416392448833875,35.802435614056492,222.4144],[39.435313347271318,35.800482489056634,221.5],[39.472422722271261,35.809149481244049,222.3549],[39.492198112896205,35.809881903119106,225.1823],[39.509776237896205,35.803961492962742,223.8275],[39.538584831646205,35.785834051556492,223.2985],[39.553477409771261,35.781927801556577,222.9707],[39.556407097271318,35.784064032025469,223.3474],[39.561045769146375,35.788763739056549,218.8218],[39.568003776958875,35.793463446087742,223.4023],[39.577769401958818,35.79559967655652,222.9435],[39.590952995708818,35.79407379765027,220.8714],[39.592784050396261,35.790228582806492,219.3751],[39.589488151958705,35.784796453900356,222.5596],[39.582041862896205,35.767035223431662,219.5743],[39.583628776958761,35.762701727337969,223.5695],[39.594615105083875,35.761419989056492,223.4056],[39.602793816021318,35.764166571087912,219.0594],[39.609385612896375,35.770148016400469,219.67],[39.614024284771318,35.777716375775412,222.4158],[39.615611198833705,35.785040594525384,221.7762],[39.622202995708818,35.79578278202527,218.1335],[39.637339714458875,35.79102203983777,216.5],[39.666514519146375,35.775152899212742,220.7982],[39.696055534771318,35.763617254681577,214.5],[39.720225456646375,35.742804266400412,213.5],[39.742320183208761,35.732977606244162,216.4428],[39.765879753521375,35.754645086712827,218.9425],[39.805186394146375,35.736395574994134,212.5351],[39.814219597271261,35.727362371869162,213.1663],[39.835337761333705,35.682928778119077,219.0776],[39.834117058208818,35.675360418744134,218.796],[39.827891472271205,35.6590640320253,209.0173],[39.827891472271205,35.635138250775412,217.2867],[39.832041862896318,35.626837469525412,211.3188],[39.841441276958705,35.617743231244219,210.7802],[39.850962761333875,35.606146551556662,211.7445],[39.855845573833875,35.590155340619106,213.1416],[39.862071159771205,35.590155340619106,213.3701],[39.868296745708818,35.595282293744162,212.2934],[39.875132683208818,35.5966861023378,219.8867],[39.882334831646375,35.594794012494162,228.6325],[39.889292839458875,35.590155340619106,209.0941],[39.877940300396375,35.579230047650384,212.4722],[39.877452019146318,35.5705630554628,215.6077],[39.885386589458875,35.564886785931606,211.4684],[39.899302605083875,35.562811590619219,211.2092],[39.911631706646205,35.535223699994106,203.6077],[39.916636589458761,35.528692938275384,206.9106],[39.922129753521205,35.527594305462856,209.2935],[39.929209831646205,35.528021551556549,209.2598],[39.935923698833875,35.529669500775412,208.6142],[39.948374870708818,35.535956121869162,208.2184],[39.953379753521375,35.53180573124402,206.2065],[39.957163933208818,35.525274969525412,205.666],[39.961070183208761,35.521857000775242,205.2561],[39.972911003521261,35.518866278119049,204.7622],[39.987559441021205,35.511725164837912,208.7688],[40.000132683208705,35.503546453900242,208.8805],[40.005381706646375,35.497381903119106,207.095],[40.007823112896261,35.49042389530652,205.8083],[40.013438347271318,35.488714910931549,199.75],[40.020518425396375,35.48889801640027,206.9184],[40.026499870708761,35.487738348431606,206.7866],[40.031504753521375,35.483710028118992,205.8708],[40.036753776958705,35.476385809369106,199.0],[40.037364128521261,35.475653387494219,199.0],[40.038828972271375,35.474188543744106,199.6786],[40.039561394146318,35.473456121869049,205.0653],[40.059092644146205,35.462225653119049,199.8397],[40.065196159771205,35.454901434369162,201.2271],[40.067515495708761,35.442450262494106,202.0588],[40.077159050396375,35.419256903119106,204.4672],[40.095957878521375,35.408270574994077,205.2041],[40.109141472271375,35.396551824993992,197.1702],[40.101573112896375,35.371039129681549,196.0],[40.134532097271318,35.361273504681606,201.8294],[40.143199089458705,35.357367254681606,196.3783],[40.148448112896318,35.35156891483777,196.0204],[40.160655144146318,35.333807684369106,199.2429],[40.167124870708875,35.330084539837856,199.667],[40.170054558208875,35.327826239056719,199.7907],[40.202403191021375,35.319220282025356,200.0297],[40.208018425396375,35.31952545780652,198.5715],[40.218150261333705,35.31342194218152,193.125],[40.226573112896261,35.310126043744162,197.9308],[40.231700066021205,35.304022528119162,200.4547],[40.231944206646375,35.289129949994134,193.186],[40.260508659771205,35.306586004681549,198.4595],[40.266612175396205,35.308966375775384,199.3183],[40.271617058208875,35.300177313275469,196.4876],[40.267466667583818,35.2898013367128,195.5513],[40.253062370708705,35.268011785931606,196.3342],[40.265757683208818,35.267279364056549,195.183],[40.277598503521318,35.26917145390027,197.1056],[40.287242058208761,35.27393219608777,196.0635],[40.293467644146375,35.281683660931634,199.4557],[40.320689323833818,35.272040106244049,203.9127],[40.327525261333875,35.268011785931606,204.3846],[40.333994987896375,35.259161688275469,190.7464],[40.335581901958818,35.250616766400412,195.4411],[40.335826042583705,35.243170477337912,194.9143],[40.338389519146375,35.237616278119219,194.5165],[40.354258659771318,35.231268621869077,195.9197],[40.404063347271318,35.219794012494049,199.4727],[40.417613151958818,35.212774969525327,200.2666],[40.420298698833875,35.199896551556492,195.4581],[40.412608269146318,35.194281317181606,189.4885],[40.402232292583705,35.1911685242128,193.6124],[40.397105339458761,35.186102606244106,193.2915],[40.400157097271261,35.175421453900356,190.7845],[40.414317253521375,35.164862371869049,192.4057],[40.419566276958705,35.145941473431606,191.1709],[40.428477409771318,35.136542059369134,191.9394],[40.430552605083818,35.127752996869219,195.7194],[40.428843620708818,35.0935122742128,186.0],[40.430552605083818,35.083685614056719,191.059],[40.438487175396261,35.068060614056634,190.0335],[40.443369987896375,35.069159246869106,190.2679],[40.448741081646205,35.075690008587884,191.5395],[40.457896355083705,35.076239324994106,189.6858],[40.470957878521375,35.067877508587884,184.5],[40.470957878521375,35.062933660931662,187.3367],[40.454478386333705,35.052313543744049,189.53],[40.444468620708818,35.040594793744134,183.9456],[40.444346550396205,35.036017157025384,189.7633],[40.448496941021318,35.034552313275356,189.4263],[40.451060417583705,35.031866766400242,188.6465],[40.455332878521318,35.039007879681577,190.3161],[40.464854362896375,35.031927801556549,189.1363],[40.478282097271375,35.014776922650412,186.9524],[40.482066276958818,35.007513739056549,187.1828],[40.486704948833705,34.992743231244162,187.5036],[40.492076042583761,34.987494207806662,187.2498],[40.502940300396205,34.986822821087912,186.3294],[40.516490105083761,34.989691473431662,186.9902],[40.528086784771205,34.990545965619162,187.3427],[40.536265495708875,34.978705145306549,182.3486],[40.550913933208818,34.968146063275412,187.8044],[40.556285026958875,34.959295965619106,185.0315],[40.565562370708875,34.959784246869106,186.0859],[40.567759636333705,34.956122137494162,181.6257],[40.566661003521261,34.937811590619162,183.9649],[40.571543816021375,34.9209048523378,179.5],[40.575694206646318,34.896246649212742,182.1729],[40.580821159771375,34.884466864056549,180.3587],[40.589610222271318,34.873663641400356,183.6762],[40.597422722271375,34.871893621869049,178.5132],[40.622447136333818,34.884466864056549,185.5767],[40.620982292583705,34.873053289837912,185.3974],[40.616953972271375,34.857489324994134,183.4517],[40.616221550396205,34.846869207806606,177.5896],[40.618174675396261,34.834723211712912,178.9156],[40.627207878521318,34.82208893436902,181.8728],[40.629283073833818,34.8127505554628,180.935],[40.638072136333818,34.797980047650384,180.8556],[40.658702019146318,34.786017157025356,175.3365],[40.681773308208818,34.779608465619077,175.3848],[40.698008659771375,34.781988836712912,181.8923],[40.728282097271318,34.757940985150412,173.873],[40.732310417583818,34.750982977337912,174.1237],[40.738780144146318,34.752203680462884,175.9052],[40.752574089458705,34.739569403119106,178.5832],[40.764659050396261,34.724676824994077,173.0],[40.766368034771261,34.719305731244049,173.5667],[40.778941276958761,34.715033270306662,178.5875],[40.789805534771205,34.715155340619106,177.7063],[40.797618034771205,34.720099188275327,174.0934],[40.800547722271375,34.730169989056549,173.8628],[40.804087761333705,34.7299868835878,173.5791],[40.821665886333761,34.706610418744219,177.456],[40.828501823833705,34.6994693054628,178.7935],[40.828501823833705,34.692633367962827,182.604],[40.821055534771205,34.689398504681577,170.5],[40.807871941021375,34.681402899212856,177.1242],[40.800547722271375,34.678351141400356,175.8449],[40.807749870708761,34.671637274212912,170.0],[40.838755730083818,34.651068426556606,176.5576],[40.851939323833875,34.656256414837969,168.5],[40.860728386333705,34.6658999695253,174.3705],[40.869517448833705,34.671637274212912,173.9816],[40.883067253521205,34.664740301556549,177.0205],[40.887583855083818,34.653448797650242,178.3434],[40.887705925396375,34.639898992962742,169.3347],[40.891490105083761,34.62848541874402,170.0505],[40.927012566021375,34.619696356244106,174.7919],[40.928599480083875,34.609198309368992,170.4271],[40.922251823833818,34.59491608280652,167.7165],[40.917735222271375,34.579352117962856,170.2058],[40.921885612896318,34.569342352337856,170.3706],[40.940074089458705,34.542731024212856,168.3513],[40.944590691021318,34.528753973431549,169.3058],[40.938365105083705,34.521002508587856,170.0047],[40.927134636333705,34.513251043743992,171.5234],[40.922129753521375,34.501959539837884,171.9906],[40.938243034771375,34.476935125775356,170.3977],[40.930430534771375,34.469549871869162,168.9821],[40.934580925396261,34.462958074994049,170.1503],[40.940806511333875,34.45911286015027,170.0011],[40.952281120708705,34.45587799686902,169.7528],[40.958872917583818,34.452398992962912,167.9241],[40.980235222271318,34.434881903119106,166.1586],[40.992442253521318,34.429632879681606,168.3542],[41.005992058208818,34.431952215619219,167.7127],[41.045664909771318,34.408026434369049,164.2776],[41.057505730083818,34.404608465619162,164.4404],[41.066172722271205,34.399298407025356,162.7509],[41.092661980083705,34.375860907025356,166.1024],[41.105601433208875,34.370489813275327,165.9286],[41.161143425396205,34.375311590619134,167.6727],[41.191661003521205,34.383490301556606,159.5207],[41.218882683208818,34.397162176556549,159.1928],[41.218882683208818,34.404608465619162,160.721],[41.177989128521375,34.418890692181549,162.8756],[41.177989128521375,34.425116278119162,156.0],[41.191538933208875,34.431219793744162,162.293],[41.223765495708875,34.450384832806662,161.1156],[41.239268425396318,34.452398992962912,161.9705],[41.249766472271318,34.442694403119106,159.9529],[41.256968620708875,34.427252508587856,155.748],[41.267588737896205,34.417547918744049,164.2691],[41.287852409771375,34.425116278119162,156.87],[41.291758659771375,34.432318426556606,159.4864],[41.289927605083761,34.440130926556606,161.9519],[41.286875847271261,34.447211004681719,166.4674],[41.287852409771375,34.452398992962912,168.7396],[41.296885612896318,34.458014227337912,160.627],[41.303233269146205,34.457220770306549,157.5522],[41.308604362896205,34.454107977337912,160.2131],[41.315074089458705,34.452398992962912,151.5],[41.328257683208761,34.451605535931634,162.4642],[41.343516472271261,34.447943426556606,158.1662],[41.358286980083818,34.441473699994106,153.6306],[41.369639519146205,34.431952215619219,157.4124],[41.380625847271318,34.447333074994162,161.9411],[41.396983269146375,34.438238836712969,159.1587],[41.415293816021375,34.424383856244106,149.0],[41.431773308208875,34.425116278119162,171.81],[41.429087761333875,34.436957098431492,152.7182],[41.412608269146375,34.448858953900412,149.1265],[41.403697136333818,34.460943914837969,178.3089],[41.424327019146375,34.473517157025356,155.2541],[41.434092644146205,34.466376043744049,168.7635],[41.445445183208818,34.459845282025242,151.1862],[41.437998894146318,34.452398992962912,151.8351],[41.450938347271375,34.429388739056549,150.0651],[41.464610222271205,34.423407293744162,152.1711],[41.494883659771318,34.431097723431549,151.9271],[41.500865105083705,34.433050848431577,148.9672],[41.503550651958761,34.435431219525242,145.0],[41.507823112896318,34.43775055546277,145.5614],[41.513682487896375,34.438788153119106,147.6961],[41.517466667583761,34.436651922650412,144.5],[41.522959831646205,34.432013250775356,152.7041],[41.527232292583875,34.427374578900469,153.8589],[41.527232292583875,34.426764227337856,155.0648],[41.527354362896205,34.425726629681606,155.0648],[41.527354362896205,34.425116278119162,156.8991],[41.539195183208705,34.427313543744162,144.0],[41.545298698833705,34.431097723431549,144.0],[41.549327019146261,34.435431219525242,148.1741],[41.554698112896375,34.438788153119106,149.5075],[41.565806511333818,34.440741278119134,143.5],[41.574351433208875,34.440130926556606,147.4565],[41.581797722271375,34.440741278119134,148.6557],[41.588755730083705,34.446234442181606,155.1838],[41.589854362896318,34.454779364056662,148.1326],[41.584971550396205,34.4627749695253,150.2148],[41.583506706646375,34.4709536804628,142.5],[41.594981316021318,34.480353094525327,142.0],[41.611216667583818,34.480658270306606,141.5],[41.670664909771375,34.459845282025242,147.9473],[41.690684441021375,34.455023504681719,140.0],[41.713145378521205,34.457709051556634,140.2176],[41.735240105083705,34.46808502811902,150.7445],[41.762950066021261,34.4871890320253,145.2137],[41.769419792583705,34.492926336712912,144.3048],[41.772715691021375,34.501776434369134,144.342],[41.773692253521318,34.517889715619049,145.6578],[41.780161980083875,34.522711492962856,149.0428],[41.794688347271318,34.515692449994134,137.5799],[41.818125847271375,34.497137762494077,138.8385],[41.833872917583705,34.479376532025412,160.1685],[41.841807487896318,34.47571442265027,154.9075],[41.856333855083875,34.473517157025356,135.0],[41.881602409771261,34.479986883587856,134.0],[41.897227409771261,34.48181793827527,144.7826],[41.914927605083705,34.46826813358777,138.7518],[41.967661980083875,34.472906805462827,135.0639],[41.986704948833875,34.459845282025242,132.5],[41.979258659771261,34.452398992962912,166.8958],[42.012461784771375,34.409064032025469,132.5],[42.030284050396375,34.39044830936902,148.4846],[42.054942253521205,34.370489813275327,132.5],[42.125132683208705,34.3336245789003,132.5],[42.130869987896261,34.325995184369049,132.5],[42.130015495708818,34.298529364056549,132.5],[42.144419792583761,34.28040192265027,132.5],[42.176646355083761,34.288519598431719,132.5],[42.229380730083818,34.315252996869162,132.5],[42.244639519146318,34.316046453900356,132.5],[42.249156120708875,34.315375067181606,132.5],[42.246714714458818,34.291937567181606,132.5],[42.251841667583875,34.274725653119162,132.5],[42.263804558208705,34.268011785931549,132.5],[42.277476433208875,34.272406317181549,132.5],[42.288340691021318,34.288519598431719,132.5],[42.282603386333818,34.306769110150412,132.5],[42.286143425396261,34.32923004765027,132.5],[42.296763542583705,34.348211981244219,132.5],[42.311656120708705,34.356207586712856,132.5],[42.322886589458875,34.354925848431662,132.5],[42.335459831646375,34.35077545780652,132.5],[42.345591667583705,34.343573309369162,132.5],[42.349742058208818,34.332953192181719,132.5],[42.383799675396261,34.322088934369219,132.5],[42.387705925396318,34.30939362186902,132.5],[42.385264519146205,34.29126618046277,132.5],[42.377696159771261,34.275091864056549,132.5],[42.366831901958761,34.268072821087856,132.5],[42.344737175396375,34.265814520306719,132.5],[42.324961784771318,34.258490301556549,132.5],[42.313120964458818,34.245794989056719,132.5],[42.314952019146261,34.227118231244134,132.5],[42.327159050396261,34.215399481244162,132.5],[42.348277214458705,34.204169012494077,132.5],[42.370738151958818,34.195685125775242,104.8964],[42.387217644146261,34.192328192181662,106.1679],[42.381846550396205,34.183111883587856,107.6898],[42.383799675396261,34.117254949994134,125.4859],[42.380137566021205,34.110907293744106,123.0628],[42.374278191021375,34.105047918744134,112.349],[42.369883659771261,34.0982730164003,110.4491],[42.370860222271375,34.089361883587856,92.1164],[42.377207878521318,34.085455633587856,100.9345],[42.399424675396261,34.078070379681662,128.5812],[42.404429558208875,34.072577215619106,116.7659],[42.406016472271318,34.054510809369162,104.4373],[42.411875847271375,34.034125067181492,100.2591],[42.424449089458875,34.018194891400327,122.1889],[42.445933464458705,34.013617254681577,81.5],[42.456187370708818,34.018439032025469,83.3993],[42.480357292583875,34.039374090619077,94.9899],[42.493662956646261,34.048346258587856,91.4715],[42.505503776958875,34.0385806335878,100.0372],[42.510264519146261,34.026922918744049,86.1885],[42.513438347271205,34.014044500775469,88.9579],[42.520518425396205,34.000555731243992,86.1332],[42.530406120708875,33.991583563275412,94.3409],[42.548838737896318,33.982001043744219,90.1137],[42.555796745708705,33.972662664837969,82.7606],[42.560923698833875,33.948858953900412,80.3879],[42.556162956646205,33.926886297650469,91.8281],[42.542369011333818,33.909002996868992,70.0],[42.520518425396205,33.897528387494134,102.416],[42.528330925396205,33.890387274212912,94.1654],[42.533091667583705,33.883124090619049,80.903],[42.533335808208761,33.876288153119077,68.0],[42.527964714458705,33.870245672650384,67.5],[42.536387566021261,33.861090399212884,67.0],[42.551524284771318,33.853766180462912,66.5],[42.568492058208818,33.849310614056492,66.9542],[42.582530144146261,33.849127508587856,75.4275],[42.598887566021205,33.857794500775327,75.2362],[42.604991081646205,33.871344305462856,72.5347],[42.608164909771318,33.885809637494162,77.0946],[42.616587761333818,33.897528387494134,77.5985],[42.643931511333705,33.902838446087856,66.9197],[42.679331901958818,33.8968570007753,62.542],[42.733286980083818,33.877020574994049,70.2337],[42.759165886333761,33.854620672650412,78.7193],[42.752574089458818,33.837591864056606,81.6382],[42.732920769146318,33.823065496869162,66.4777],[42.719004753521318,33.808172918744049,69.7248],[42.719859245708761,33.79212067265027,64.6981],[42.729258659771375,33.78162262577527,57.5],[42.740489128521375,33.774237371869162,67.5247],[42.747080925396375,33.767157293744049,68.7699],[42.747325066021261,33.74787018436902,63.1206],[42.738780144146375,33.737738348431606,70.6201],[42.725718620708875,33.730414129681606,67.6758],[42.712168816021375,33.719366766400469,67.3146],[42.718760612896375,33.713568426556549,56.5166],[42.726695183208705,33.708441473431577,66.5442],[42.747080925396375,33.698919989056606,65.6153],[42.761973503521205,33.705694891400356,68.7453],[42.778208855083705,33.693854071087742,60.2402],[42.801646355083705,33.664740301556549,54.1614],[42.849864128521318,33.636908270306662,52.0],[42.863780144146318,33.623846746869162,58.8446],[42.887217644146318,33.5794741882753,53.7271],[42.926646355083875,33.549383856244106,60.4739],[42.930552605083875,33.543524481244134,60.8533],[42.931895378521375,33.5310122742128,55.321],[42.937144401958875,33.529974676556634,55.0427],[42.963023308208705,33.530768133587912,56.127],[42.973643425396318,33.5275943054628,52.6774],[42.990489128521205,33.53729889530652,53.5848],[43.010874870708705,33.533758856244106,52.9039],[43.030650261333818,33.522894598431606,53.8394],[43.065562370708818,33.495001532025412,54.4416],[43.075572136333705,33.502264715619077,50.5],[43.083506706646318,33.519476629681719,50.0],[43.097056511333818,33.53443024296277,55.326],[43.118540886333875,33.538153387494106,60.4211],[43.139414909771375,33.532599188275356,50.6338],[43.168711784771375,33.5201480164003,52.1019],[43.234385612896318,33.474859930462884,49.5],[43.248545769146205,33.461493231244219,50.902],[43.264536980083875,33.450384832806577,49.4909],[43.284434441021261,33.445685125775412,50.2847],[43.307871941021205,33.450201727337856,50.0205],[43.341075066021205,33.4696109070253,46.0],[43.356455925396318,33.472967840619162,50.7217],[43.365000847271318,33.469855047650356,50.3812],[43.377818230083818,33.457159735150242,45.9525],[43.384410026958875,33.452460028119162,49.433],[43.389781120708875,33.452276922650412,49.4044],[43.395030144146205,33.454413153119106,49.1062],[43.398326042583761,33.457098699994219,48.5764],[43.398203972271318,33.457525946087912,48.5764],[43.398203972271318,33.458319403119106,48.5764],[43.398081901958705,33.458685614056492,48.5764],[43.404185417583705,33.455939032025356,44.8982],[43.411753776958818,33.44745514530652,48.7709],[43.414927605083875,33.445685125775412,48.6183],[43.422984245708818,33.448065496869049,49.8473],[43.430674675396375,33.45184967655652,45.8765],[43.436656120708761,33.4516665710878,47.2022],[43.439097526958705,33.441961981244049,46.1235],[43.444102409771261,33.42914459843152,50.8447],[43.455943230083875,33.426336981244162,47.9192],[43.469737175396318,33.4268862976503,48.5824],[43.480601433208818,33.42456696171277,48.7908],[43.480601433208818,33.43201325077527,48.0587],[43.486827019146261,33.43201325077527,45.6938],[43.480357292583875,33.416327215619162,45.177],[43.483775261333761,33.408209539837912,48.5498],[43.494761589458875,33.405157782025412,46.4688],[43.510996941021205,33.40473053593152,47.351],[43.526988151958875,33.40625641483777,47.1782],[43.536021355083761,33.410467840619049,45.0269],[43.555186394146318,33.42456696171277,46.6652],[43.558848503521375,33.411566473431492,46.1312],[43.566294792583705,33.401983953900469,47.3223],[43.575205925396318,33.398810125775356,46.2928],[43.583628776958875,33.40473053593152,44.392],[43.597178581646375,33.398565985150384,45.68],[43.606455925396375,33.389166571087856,46.5571],[43.610484245708818,33.380560614056662,45.5464],[43.607554558208761,33.376776434369106,45.4522],[43.630381706646205,33.374701239056719,47.661],[43.640879753521205,33.380377508587827,45.3344],[43.644541862896261,33.397833563275242,44.1588],[43.668711784771375,33.38947174686902,44.6684],[43.693369987896261,33.3732974304628,44.486],[43.714121941021205,33.353827215619049,46.6518],[43.727061394146375,33.335760809369106,44.0992],[43.734507683208875,33.335760809369106,42.0766],[43.736582878521318,33.345099188275327,43.7592],[43.740977409771318,33.352728582806577,43.3748],[43.747202995708875,33.355475164837912,43.4026],[43.754405144146261,33.350104071087969,43.668],[43.757212761333875,33.339056707806634,48.734],[43.755625847271318,33.312506414837856,42.8407],[43.761241081646205,33.301703192181492,43.0803],[43.766490105083818,33.300726629681662,40.6068],[43.778086784771375,33.307318426556662,42.519],[43.785166862896375,33.304754949993992,41.5539],[43.789439323833875,33.299933172650469,42.1956],[43.792246941021318,33.292731024212912,41.4466],[43.799815300396261,33.27942536015027,42.0662],[43.803843620708875,33.261175848431577,43.0316],[43.808360222271205,33.253241278119162,41.487],[43.815806511333705,33.253241278119162,43.5585],[43.815806511333705,33.258429266400356,40.3326],[43.817271355083818,33.259466864056606,43.7012],[43.815806511333705,33.266913153119106,41.5277],[43.836558464458875,33.261847235150242,42.8618],[43.842173698833875,33.245428778119162,41.6593],[43.841319206646375,33.22449371952527,41.5612],[43.843028191021375,33.206061102337856,40.4798],[43.860728386333818,33.184027410931492,38.1295],[43.878916862896205,33.182928778119049,40.1353],[43.887705925396205,33.193487860150356,41.7667],[43.877940300396375,33.206061102337856,37.0],[43.906748894146375,33.213324285931606,40.6278],[43.922862175396375,33.194830633587856,41.2982],[43.936045769146375,33.169684149212884,37.3209],[43.956065300396375,33.157049871869106,35.5],[43.963999870708705,33.159125067181577,39.152],[43.971812370708705,33.168585516400356,37.8561],[43.980357292583875,33.171332098431577,39.3672],[43.988780144146205,33.170660711712912,40.2223],[43.995371941021318,33.168280340619077,35.5],[44.000620964458705,33.165716864056492,36.7092],[44.004161003521318,33.164496160931606,38.5555],[44.019541862896261,33.161627508587856,35.8935],[44.053477409771261,33.147894598431606,39.1413],[44.069590691021318,33.143377996869162,37.6941],[44.069590691021318,33.137213446087856,39.0169],[44.047862175396318,33.1403872742128,39.354],[44.040049675396318,33.138251043743992,37.7493],[44.035533073833705,33.130377508587969,42.1823],[44.047984245708875,33.128485418744134,38.9437],[44.058848503521375,33.122381903119134,38.1641],[44.066783073833705,33.114142157025356,36.1559],[44.069590691021318,33.106146551556719,38.2169],[44.075327995708818,33.100531317181549,35.2192],[44.101939323833761,33.090582586712856,37.564],[44.110606316021318,33.081976629681492,38.1817],[44.097056511333818,33.081976629681492,36.7407],[44.124278191021375,33.055243231244134,38.2089],[44.138316276958705,33.031988836712912,38.4935],[44.146250847271318,33.026922918744049,35.3868],[44.158457878521318,33.033514715619162,36.1422],[44.174327019146318,33.002569891400356,35.5009],[44.178233269146261,32.987494207806606,35.7554],[44.179453972271318,32.96527741093152,38.6475],[44.174815300396375,32.945807196087856,32.0917],[44.175181511333761,32.9355532898378,34.7666],[44.182871941021318,32.931097723431662,31.0],[44.194956901958705,32.930243231244077,34.9422],[44.202036980083705,32.9267642273378,34.2863],[44.205332878521375,32.919623114056634,34.8508],[44.206309441021375,32.907538153119162,33.7673],[44.214854362896261,32.8897769226503,33.3951],[44.252940300396205,32.880682684369106,31.4328],[44.261485222271318,32.866278387494106,32.205],[44.264170769146375,32.847967840619106,34.2062],[44.270762566021375,32.832953192181662,28.5],[44.289317253521318,32.800787664837969,32.9742],[44.278575066021375,32.786322332806662,33.1304],[44.270518425396205,32.76080963749402,32.564],[44.265635612896375,32.736517645306634,28.6368],[44.264903191021318,32.725653387494134,30.6675],[44.255503776958875,32.717352606244049,34.0071],[44.220225456646375,32.608832098431549,32.3154],[44.222422722271205,32.571478582806577,28.3261],[44.239024284771205,32.5374820007753,29.8478],[44.295298698833705,32.467718817181577,26.7282],[44.302378776958705,32.447699285931606,29.3208],[44.292735222271318,32.427740789837912,23.8854],[44.287852409771205,32.411322332806634,24.0984],[44.295298698833705,32.390448309369162,25.2298],[44.316172722271375,32.355780340619106,24.7309],[44.333506706646375,32.297064520306634,25.4476],[44.340342644146261,32.287420965619049,29.9517],[44.354014519146375,32.275763250775356,24.2434],[44.353770378521318,32.24945709843152,25.1628],[44.343394401958761,32.204901434369106,24.1166],[44.344493034771205,32.184149481244134,24.563],[44.357066276958875,32.119269110150356,24.4844],[44.360850456646318,32.113226629681662,24.6943],[44.387950066021318,32.089667059369162,24.2801],[44.391978386333875,32.07721588749402,25.7403],[44.394786003521318,32.063544012494077,26.9081],[44.397959831646261,32.054083563275412,26.3549],[44.430430534771375,32.022406317181634,22.6022],[44.446421745708875,32.0030581726503,23.8793],[44.453257683208761,31.9820620789003,25.5552],[44.454600456646261,31.973700262494162,23.5459],[44.458140495708818,31.964911199994049,21.426],[44.463511589458705,31.956244207806662,23.6139],[44.470347526958818,31.947943426556662,22.6372],[44.477549675396318,31.93683502811902,20.9933],[44.479258659771375,31.926825262494106,20.0206],[44.479014519146261,31.916205145306492,24.8826],[44.485362175396375,31.880072332806606,19.8781],[44.487437370708875,31.81763336796277,18.9201],[44.491221550396261,31.800482489056549,22.4265],[44.498789909771375,31.784369207806634,20.5658],[44.504038933208875,31.7670962585878,18.895],[44.500987175396375,31.746222235150384,17.4312],[44.496348503521205,31.74152252811902,17.649],[44.478770378521205,31.727972723431606,16.766],[44.473765495708818,31.718939520306719,17.0557],[44.474009636333705,31.7056948914003,18.472],[44.484751823833761,31.687506414837912,17.3024],[44.487437370708875,31.673895574994106,15.7572],[44.494151237896318,31.660406805462912,15.1626],[44.510386589458818,31.645758367962856,11.5798],[44.549571159771205,31.622076727337912,16.2694],[44.613902214458875,31.601263739056634,14.698],[44.624522331646205,31.591681219525356,10.6969],[44.626719597271318,31.578558660931719,17.8707],[44.632334831646205,31.572821356244106,16.7488],[44.639903191021318,31.569647528118992,10.8587],[44.648570183208761,31.564032293744106,16.8337],[44.679209831646375,31.526495672650384,15.9144],[44.692637566021261,31.517340399212884,9.2499],[44.739512566021205,31.4964663757753,15.1645],[44.758433464458761,31.492377020306662,14.9233],[44.764414909771318,31.488104559369077,15.1088],[44.776499870708875,31.469305731244162,14.6391],[44.786021355083875,31.465033270306606,14.6579],[44.807871941021375,31.464544989056492,10.8041],[44.816538933208875,31.462469793744106,14.6233],[44.823741081646318,31.458258367962742,13.3954],[44.835826042583705,31.440008856244049,14.6391],[44.842784050396375,31.41956207890027,14.5985],[44.852915886333818,31.403021551556662,13.8753],[44.875010612896375,31.3961245789003,13.0918],[44.901988151958875,31.394537664837912,12.9425],[44.966563347271375,31.376288153119049,13.9321],[45.012339714458875,31.370428778119106,13.3588],[45.033457878521205,31.362616278119106,13.0686],[45.042246941021261,31.344671942181577,13.3152],[45.050303581646375,31.333502508587912,13.1559],[45.068614128521375,31.323797918744106,13.0247],[45.089244011333818,31.316900946087912,11.9611],[45.109751823833705,31.313482977337742,12.8355],[45.124888542583875,31.307379461712742,12.7612],[45.138316276958875,31.317267157025384,12.0759],[45.158946159771205,31.3032290710878,11.8287],[45.177989128521375,31.285162664837827,11.8121],[45.186289909771375,31.2828433289003,11.3295],[45.189341667583875,31.3062808289003,11.5486],[45.198496941021375,31.317938543744049,10.9876],[45.213755730083875,31.323309637494077,11.6474],[45.234751823833875,31.327887274212827,9.1752],[45.249156120708705,31.333014227337912,10.9732],[45.257334831646375,31.334784246869106,11.4242],[45.268809441021205,31.3347232117128,11.7212],[45.301402214458875,31.328741766400242,11.8054],[45.336192253521261,31.326727606244162,10.3702],[45.409190300396205,31.31104157108777,10.6852],[45.440196159771318,31.299933172650412,9.2273],[45.451182487896261,31.30188629765027,8.5937],[45.462901237896318,31.306402899212912,8.1799],[45.474375847271318,31.308661199994219,8.5896],[45.484507683208875,31.303656317181577,9.6264],[45.493052605083818,31.297674871869106,9.2695],[45.503184441021375,31.294745184369219,9.4911],[45.525401237896261,31.293768621869106,7.9914],[45.531870964458761,31.2889468445253,7.8079],[45.531504753521261,31.277411199994162,10.0843],[45.528941276958875,31.263861395306634,10.2463],[45.528819206646261,31.252752996869106,8.904],[45.549449089458875,31.211798407025412,8.6003],[45.566538933208705,31.204474188275327,7.6079],[45.578135612896318,31.2025210632753,7.3856],[45.583506706646205,31.208075262494049,7.7266],[45.593516472271375,31.21491119999402,7.3062],[45.616587761333875,31.207342840619077,8.0743],[45.666392448833875,31.180060125775327,8.4882],[45.687266472271205,31.163397528119106,6.5724],[45.706187370708705,31.174627996868992,7.0659],[45.724619987896318,31.1790835632753,7.5907],[45.743052605083875,31.177557684369049,7.4267],[45.762217644146375,31.17084381718152,7.156],[45.766123894146375,31.167181707806662,7.4428],[45.778086784771205,31.159002996869106,7.6959],[45.790537956646375,31.15405914921277,7.3786],[45.796397331646205,31.15997955936902,6.9773],[45.802012566021318,31.163519598431719,7.3397],[45.814707878521205,31.162298895306549,7.7617],[45.860606316021318,31.149542547650327,2.858],[45.873301628521261,31.144354559369049,6.4283],[45.878916862896318,31.139471746869106,6.2805],[45.883433464458875,31.131842352337856,6.5465],[45.894419792583705,31.129889227337912,6.0581],[45.907847526958875,31.1302554382753,6.1072],[45.919932487896318,31.1292788757753,6.0322],[45.943736198833818,31.123114324994162,4.9719],[45.974375847271261,31.122503973431719,6.1675],[45.985240105083761,31.120550848431577,6.1372],[45.995738151958761,31.115607000775356,5.8228],[46.000865105083705,31.123236395306606,5.466],[46.008433464458818,31.127020574994162,5.9845],[46.029185417583818,31.1292788757753,5.0184],[46.040415886333875,31.127508856244162,4.6019],[46.049327019146261,31.122748114056492,5.3665],[46.056040886333875,31.117865301556662,5.7235],[46.060191276958705,31.115607000775356,5.6993],[46.086314323833705,31.091620184369134,5.3027],[46.094981316021318,31.077460028119106,4.4635],[46.104258659771261,31.073126532025384,4.5741],[46.168467644146375,31.056463934369077,3.4044],[46.251841667583705,31.045660711712884,10.473],[46.283702019146205,31.026190496869219,3.889],[46.302867058208875,31.004461981244134,4.7493],[46.310313347271375,30.998297430462827,3.229],[46.362925651958875,30.966559149212856,3.6392],[46.427012566021375,30.95111725468152,3.4272],[46.467173698833875,30.903021551556492,6.3789],[46.478526237896375,30.895880438275356,4.9636],[46.489512566021205,30.893866278118992,2.5959],[46.511363151958818,30.884833074994106,2.8163],[46.523203972271318,30.882818914837856,3.4536],[46.536021355083875,30.885443426556634,2.3723],[46.547251823833818,30.891546942181634,3.6205],[46.564219597271318,30.903326727337856,2.5845],[46.748179558208761,30.963019110150356,1.9443],[46.950327995708705,30.9610659851503,1.3805],[46.971934441021261,30.96332428593152,1.7837],[46.992198112896318,30.974676824994106,0.9558],[47.008921745708761,30.980536199994162,1.3623],[47.031626823833761,30.979498602337912,1.337],[47.117686394146375,30.96619293827527,1.3957],[47.163218620708761,30.964789129681634,0.9526],[47.233653191021375,30.97247955936902,1.2401],[47.255747917583761,30.971625067181606,1.3492],[47.266368034771205,30.967108465618992,1.3518],[47.286021355083705,30.953314520306606,1.2052],[47.297251823833875,30.95111725468152,2.8022],[47.306895378521375,30.956122137494162,2.7577],[47.314463737896205,30.973883367962827,4.1212],[47.320811394146375,30.977850653119049,4.6087],[47.336314323833818,30.9810855164003,2.8758],[47.410411003521261,31.01215241093152,1.9164],[47.433116081646261,31.017645574994162,4.9987],[47.436534050396205,31.0173403992128,0.6312],[47.433726433208875,31.020025946087912,4.978],[47.427867058208818,31.0360171570253,2.4375],[47.428477409771375,31.051703192181577,0.8905],[47.433726433208875,31.084234930462856,1.8721],[47.431529167583875,31.091437078900384,2.1668],[47.426524284771318,31.094855047650469,1.9398],[47.421885612896375,31.09894440311902,2.2863],[47.420786980083818,31.108160711712827,2.3623],[47.421275261333705,31.108648992962856,2.3623],[47.422373894146375,31.109564520306662,2.8006],[47.422862175396375,31.110113836712969,2.8006],[47.437510612896261,31.13269684452527,1.6653],[47.455577019146205,31.150397039837912,2.8946],[47.453745964458875,31.154608465618992,2.9355],[47.441172722271375,31.157538153119162,2.4934],[47.427622917583875,31.17084381718152,2.8321],[47.426280144146375,31.182074285931492,2.6355],[47.441172722271375,31.21796295780652,2.6428],[47.442393425396375,31.232123114056662,2.6233],[47.441050651958875,31.24866364140027,2.7672],[47.437022331646318,31.264471746868992,2.9393],[47.425913933208875,31.285773016400469,3.1982],[47.413951042583818,31.32477448124402,6.0237],[47.418467644146375,31.335821844525356,4.6256],[47.427744987896205,31.345038153119162,2.1633],[47.435069206646375,31.35700104374402,1.5968],[47.433726433208875,31.376288153119049,4.2154],[47.426158073833818,31.387884832806606,3.3435],[47.414073112896375,31.395331121869106,2.1433],[47.399912956646205,31.401678778119162,3.5268],[47.386607292583875,31.409796453900412,3.4475],[47.375498894146205,31.420599676556606,4.1965],[47.369395378521205,31.431341864056662,3.9056],[47.369395378521205,31.442511297650327,3.6535],[47.376109245708875,31.454535223431577,4.4093],[47.379893425396261,31.465033270306606,4.4653],[47.374400261333875,31.4737612976503,4.2871],[47.355357292583818,31.488959051556492,4.5669],[47.335948112896318,31.512030340619162,4.6324],[47.323863151958875,31.519659735150412,4.8319],[47.314585808208818,31.523077703900412,4.2613],[47.292246941021318,31.5286929382753,6.9142],[47.283579948833761,31.532721258587912,5.3143],[47.242076042583818,31.591681219525356,5.9922],[47.235728386333875,31.610602117962969,4.1522],[47.221202019146261,31.621893621869162,4.5483],[47.205210808208875,31.630682684368992,5.1669],[47.194224480083818,31.642584539837912,5.779],[47.191538933208818,31.676703192181549,6.146],[47.183238151958705,31.696478582806492,5.4417],[47.149668816021205,31.712591864056577,6.6732],[47.143809441021375,31.730414129681662,6.9663],[47.139659050396318,31.773504949994134,6.5787],[47.136485222271205,31.781500555462969,6.0999],[47.131968620708875,31.789190985150356,6.1428],[47.127818230083818,31.798407293744162,6.1923],[47.125987175396205,31.811102606244162,5.4151],[47.128184441021375,31.820807196087884,7.0718],[47.137461784771205,31.834112860150356,9.0345],[47.139659050396318,31.845221258587884,8.7828],[47.134654167583875,31.865057684369134,8.3575],[47.123057487896318,31.875738836712884,7.2118],[47.109507683208818,31.884100653119106,7.6695],[47.098643425396318,31.897040106244077,7.2116],[47.083750847271318,31.8918521179628,7.7691],[47.034190300396318,31.88019440311902,7.5167],[47.023570183208705,31.879095770306662,6.5517],[47.012705925396205,31.864264227337856,7.5777],[46.989024284771375,31.863470770306577,7.4384],[46.965342644146318,31.870428778118992,8.1848],[46.954600456646375,31.879095770306662,7.0023],[46.948252800396205,31.894415594525469,8.3336],[46.906260612896205,31.938055731244106,8.7387],[46.899180534771375,31.949713446087856,8.3782],[46.893565300396375,31.963080145306719,8.3564],[46.866587761333705,32.055975653119134,8.774],[46.862681511333875,32.06329987186902,8.5294],[46.856211784771318,32.069525457806634,5.1038],[46.843760612896261,32.076544500775356,7.7048],[46.836802605083875,32.079046942181719,7.2845],[46.829844597271375,32.080572821087969,7.2393],[46.823619011333818,32.080755926556719,7.3983],[46.799815300396375,32.075751043744077,8.8792],[46.794322136333705,32.075384832806606,9.0526],[46.788951042583705,32.076361395306606,9.6471],[46.784068230083875,32.078985907025412,9.4739],[46.780772331646205,32.0827700867128,9.799],[46.774302605083705,32.096625067181662,9.9847],[46.767100456646375,32.105292059369049,8.3153],[46.757212761333818,32.110480047650356,8.314],[46.735240105083875,32.117560125775356,9.8844],[46.725962761333818,32.122931219525384,8.753],[46.719370964458705,32.129950262494106,9.8776],[46.715586784771261,32.138739324994219,10.1283],[46.714121941021318,32.149359442181662,10.1864],[46.713877800396375,32.164740301556492,9.2749],[46.713145378521375,32.169745184369049,9.6783],[46.711070183208818,32.175787664837912,10.0099],[46.694956901958705,32.202460028119134,10.0619],[46.691783073833875,32.212530828900356,5.0],[46.693492058208875,32.22199127811902,10.1363],[46.701670769146375,32.2305972351503,8.6524],[46.708750847271375,32.236090399212856,8.8146],[46.714610222271261,32.242377020306606,8.0503],[46.719126823833875,32.249762274212884,10.0167],[46.721690300396261,32.2584292664003,10.3831],[46.721324089458875,32.2685611023378,10.2406],[46.717784050396375,32.277838446087742,5.4262],[46.708262566021375,32.295843817181662,11.1827],[46.705821159771205,32.303656317181549,9.1985],[46.705454948833761,32.311590887494162,11.3151],[46.706797722271261,32.319342352337856,8.9236],[46.709849480083761,32.3269107117128,11.0679],[46.715830925396318,32.334173895306549,11.0047],[46.723399284771261,32.338629461712969,11.7701],[46.740489128521375,32.344977117962742,10.2609],[46.747447136333875,32.351019598431606,10.5036],[46.749400261333818,32.359381414837827,11.2235],[46.747691276958818,32.368353582806606,8.2568],[46.672862175396261,32.471869207806549,12.1908],[46.663096550396205,32.480536199994219,12.3627],[46.651377800396318,32.487555242962827,12.9281],[46.635508659771375,32.49359772343152,12.4687],[46.555308464458705,32.505438543744049,12.4148],[46.496836784771375,32.526739813275412,13.3013],[46.481455925396318,32.530523992962884,13.376],[46.465098503521205,32.531866766400384,9.9068],[46.398203972271261,32.525152899212856,11.0969],[46.348765495708705,32.529425360150242,13.6427],[46.335703972271318,32.534186102337742,14.54],[46.311900261333875,32.551336981244162,9.1831],[46.296885612896205,32.555731512494162,7.8444],[46.249644401958875,32.562018133587912,14.5804],[46.233653191021318,32.566351629681606,14.757],[46.218882683208705,32.573553778119162,15.1951],[46.206309441021261,32.584662176556606,14.7573],[46.176402214458875,32.630987860150327,15.5076],[46.161753776958818,32.642035223431662,9.8305],[46.140513542583761,32.651312567181606,15.5846],[46.104014519146375,32.655707098431606,14.6665],[46.095713737896375,32.654364324994106,15.0679],[46.052622917583875,32.640631414837856,15.0772],[46.047618034771261,32.637701727337969,14.758],[46.035777214458705,32.62634918827527,16.0524],[46.030772331646375,32.623419500775384,17.2202],[45.976451042583705,32.614569403119162,15.5794],[45.964610222271205,32.611395574994134,16.5821],[45.955577019146318,32.605658270306719,17.1772],[45.947520378521375,32.596747137493992,16.4543],[45.941050651958875,32.586432196087912,16.5681],[45.936778191021205,32.576483465619219,16.5522],[45.932749870708705,32.561468817181492,17.4177],[45.930552605083875,32.557013250775356,10.5916],[45.925059441021318,32.5523745789003,12.4365],[45.919444206646261,32.55158112186902,16.9696],[45.913584831646375,32.55329010624402,17.1997],[45.907237175396261,32.555914617962912,17.2777],[45.900523308208705,32.556952215619049,17.5406],[45.892954948833875,32.555975653119049,17.5985],[45.863780144146375,32.546393133587742,17.9358],[45.851328972271205,32.537665106244049,17.7246],[45.840830925396205,32.526556707806492,12.3581],[45.831431511333818,32.51361725468152,11.0205],[45.818614128521318,32.507635809369134,20.0708],[45.812022331646205,32.507086492962912,21.6653],[45.806773308208875,32.512152410931577,20.5327],[45.799327019146375,32.525946356244134,18.0813],[45.795909050396318,32.529852606244049,19.5609],[45.791026237896205,32.532538153119049,17.5003],[45.784922722271205,32.533575750775384,18.1443],[45.779185417583875,32.532904364056549,19.7319],[45.740611198833818,32.519049383587856,16.9095],[45.735606316021375,32.518744207806492,17.6343],[45.730479362896375,32.520025946087969,17.8775],[45.725230339458705,32.522650457806577,14.1534],[45.717173698833818,32.529974676556662,17.9835],[45.706065300396375,32.549200750775469,19.2398],[45.698008659771261,32.557196356244106,17.4189],[45.692393425396375,32.559820867962912,17.4658],[45.660411003521205,32.565130926556549,18.5207],[45.654185417583875,32.563910223431634,19.2275],[45.647593620708705,32.559881903119219,19.0523],[45.633555534771375,32.543158270306492,19.3079],[45.627574089458705,32.539496160931634,13.5],[45.620982292583875,32.538153387494134,18.093],[45.613047722271375,32.537909246869077,17.6512],[45.605235222271375,32.539129949994162,19.0134],[45.599009636333761,32.542059637494049,18.9049],[45.595713737896205,32.546148992962969,19.3147],[45.592661980083705,32.550787664837742,14.0],[45.589244011333705,32.554754949994134,19.2738],[45.584239128521318,32.556708074994106,19.0305],[45.574473503521318,32.554999090619106,20.1331],[45.566661003521318,32.549872137494049,15.3028],[45.552012566021375,32.537420965619162,14.0],[45.543955925396318,32.534186102337742,18.5803],[45.534678581646205,32.533209539837912,18.4392],[45.526133659771205,32.535589910931549,19.7572],[45.520396355083705,32.542059637494049,19.9363],[45.520030144146205,32.5513980164003,20.1695],[45.528697136333818,32.568426824994077,19.7722],[45.529063347271375,32.577887274212856,19.9359],[45.526744011333875,32.584479071087856,18.4268],[45.524912956646318,32.587408758587742,15.0],[45.524424675396261,32.587897039837856,15.0],[45.523081901958705,32.588934637493992,18.4698],[45.521128776958875,32.590277410931606,17.4965],[45.518565300396375,32.591498114056577,20.2265],[45.515513542583875,32.594671942181606,19.2818],[45.513560417583761,32.595709539837856,18.8495],[45.511485222271375,32.596380926556606,19.1545],[45.507212761333705,32.596991278119049,19.0634],[45.502574089458818,32.596747137493992,19.5115],[45.462046745708705,32.585821844525469,19.8481],[45.454478386333875,32.580694891400384,20.0273],[45.449961784771318,32.575323797650356,20.1114],[45.447642448833818,32.573004461712827,20.6413],[45.444590691021318,32.57141754765027,21.2105],[45.439952019146261,32.570868231244049,19.6132],[45.435191276958875,32.57160065311902,19.7722],[45.426158073833705,32.574774481244134,19.6144],[45.419688347271205,32.579535223431719,19.9928],[45.415537956646261,32.585699774212856,18.1913],[45.396861198833875,32.626898504681606,20.4618],[45.389414909771375,32.639227606244219,21.0901],[45.378672722271205,32.649359442181634,21.9578],[45.371226433208705,32.653143621869106,20.7818],[45.364512566021318,32.65399811405652,17.5963],[45.357676628521205,32.65247223515027,21.0552],[45.350352409771318,32.649176336712912,20.1463],[45.341807487896318,32.647040106244106,20.5736],[45.334605339458705,32.649176336712912,17.0804],[45.328868034771375,32.654669500775356,21.933],[45.324839714458818,32.662543035931662,21.305],[45.320078972271375,32.675299383587884,25.6706],[45.316661003521375,32.680792547650356,21.7349],[45.311656120708818,32.68604157108777,21.4229],[45.305796745708705,32.690314032025356,20.4091],[45.299937370708761,32.692999578900356,20.2997],[45.293711784771318,32.694037176556606,19.8422],[45.286509636333875,32.69348786015027,20.013],[45.270274284771318,32.690008856244162,20.6483],[45.261851433208818,32.690375067181662,21.8962],[45.255625847271375,32.694647528119049,23.2119],[45.254283073833875,32.702093817181549,23.6068],[45.257334831646375,32.710211492962912,26.477],[45.273448112896375,32.737372137494049,22.2911],[45.279063347271318,32.753241278119077,22.1493],[45.278697136333875,32.767401434369219,23.2903],[45.267222526958818,32.7755191101503,22.5013],[45.178477409771375,32.778265692181606,22.7991],[45.170298698833818,32.779791571087856,23.8384],[45.163584831646375,32.782416082806662,23.4599],[45.144786003521318,32.793158270306719,22.6771],[45.136729362896318,32.795660711712912,23.388],[45.130381706646261,32.794928289837742,23.4102],[45.117198112896205,32.78827545780652,22.5604],[45.110240105083818,32.786505438275412,22.7465],[45.103404167583875,32.787482000775242,22.8066],[45.096812370708761,32.790289617962969,23.5848],[45.090586784771318,32.793951727337912,24.2245],[45.034312370708818,32.838324285931606,19.0],[45.026744011333875,32.847845770306577,25.4809],[45.026133659771318,32.8579165710878,24.995],[45.033457878521205,32.865240789837856,25.6117],[45.055796745708761,32.872137762494134,25.0599],[45.064219597271375,32.879156805462856,24.6732],[45.065562370708875,32.88880036015027,25.3831],[45.059825066021375,32.896002508587912,26.814],[45.050669792583875,32.900397039837742,20.4118],[45.041392448833818,32.901556707806606,20.63],[45.031382683208761,32.8992984070253,25.0814],[44.991953972271375,32.8789126648378,24.8095],[44.980479362896375,32.876288153119106,24.5396],[44.969004753521261,32.877203680462912,24.2327],[44.957408073833875,32.882635809369162,25.8256],[44.948496941021318,32.890814520306719,26.6404],[44.933970573833875,32.909735418744162,27.3442],[44.925547722271375,32.918097235150384,26.7285],[44.916758659771261,32.924444891400356,28.3964],[44.907115105083818,32.92999909061902,25.3253],[44.896739128521261,32.933783270306492,25.4687],[44.875132683208705,32.935431219525356,27.5679],[44.865733269146318,32.938299871869219,26.1714],[44.858042839458875,32.944342352337912,24.8805],[44.852305534771375,32.954169012494162,25.2655],[44.848033073833705,32.965399481244134,27.1843],[44.844493034771375,32.970160223431719,23.5297],[44.839244011333875,32.973273016400356,29.3883],[44.833628776958875,32.973639227337742,21.6645],[44.829356316021205,32.97138092655652,25.4203],[44.822520378521261,32.963263250775356,21.8223],[44.814219597271318,32.958563543744162,23.1956],[44.806407097271318,32.961004949994219,27.9984],[44.784678581646318,32.981573797650356,29.7081],[44.776011589458875,32.987677313275356,33.0406],[44.766734245708818,32.989203192181606,22.0],[44.756968620708875,32.983343817181662,28.2024],[44.748911980083761,32.975348211712912,27.9407],[44.744273308208705,32.972967840619077,27.1203],[44.738169792583705,32.972296453900412,27.2841],[44.732676628521205,32.973211981244219,27.8411],[44.727793816021318,32.975409246869049,28.3137],[44.724742058208818,32.979132391400384,30.6774],[44.724131706646375,32.984564520306549,22.7887],[44.728526237896375,32.993719793744049,35.8228],[44.735972526958875,33.004278875775356,30.3323],[44.740977409771318,33.014960028119106,23.0],[44.738291862896318,33.0244204773378,28.3948],[44.733409050396205,33.027044989056492,30.0262],[44.727061394146318,33.027899481244077,33.7775],[44.720347526958875,33.02765534061902,24.0582],[44.714854362896318,33.026861883587742,26.0865],[44.710337761333705,33.025336004681492,25.9169],[44.698863151958875,33.017340399212856,23.9633],[44.688365105083875,33.01392243046277,29.6216],[44.677012566021261,33.014349676556662,28.3532],[44.665660026958818,33.017340399212856,27.825],[44.655406120708705,33.021673895306634,28.6018],[44.646250847271205,33.027044989056492,33.5198],[44.638438347271205,33.033026434369049,29.8762],[44.631968620708705,33.040350653119219,30.4755],[44.626719597271318,33.049383856244106,24.7126],[44.618174675396375,33.068976141400384,31.111],[44.612071159771375,33.078436590619162,29.8061],[44.604380730083875,33.083197332806662,26.3022],[44.599009636333875,33.082281805462856,30.7608],[44.594981316021261,33.078741766400242,30.6847],[44.591319206646205,33.074469305462856,30.5],[44.586802605083875,33.071295477337742,30.4378],[44.580943230083818,33.070929266400356,30.6719],[44.576304558208761,33.074103094525469,31.5516],[44.572764519146318,33.079169012494049,28.6889],[44.570689323833875,33.084784246869219,31.1616],[44.568492058208875,33.099188543744049,28.2663],[44.560679558208875,33.122198797650412,33.8237],[44.556162956646318,33.130133367962827,33.5252],[44.550425651958818,33.137396551556606,31.4192],[44.526988151958818,33.15888092655652,30.7063],[44.515879753521375,33.165228582806577,28.1854],[44.511851433208875,33.166754461712827,28.9863],[44.508433464458875,33.167425848431492,35.4456],[44.497813347271318,33.16803619999402,31.2833],[44.491099480083818,33.170233465619219,31.2864],[44.486704948833818,33.174261785931634,32.1007],[44.484141472271205,33.179938055462856,27.6893],[44.483286980083818,33.187018133587969,27.213],[44.484873894146205,33.199164129681662,31.1403],[44.485850456646205,33.201727606244134,29.4597],[44.488536003521205,33.206244207806577,31.8578],[44.489512566021261,33.2088687195253,36.3399],[44.490977409771205,33.22162506718152,33.3009],[44.489268425396205,33.234259344525412,34.5094],[44.483653191021318,33.244940496869162,34.1761],[44.473399284771318,33.252020574994077,34.1128],[44.467661980083818,33.254461981244049,32.4889],[44.462412956646261,33.257635809369162,32.691],[44.458018425396205,33.261847235150242,36.2592],[44.454966667583705,33.267462469525327,34.4272],[44.451670769146375,33.284064032025327,28.8625],[44.447764519146375,33.290350653119077,26.5],[44.438853386333818,33.293036199994106,37.3015],[44.434336784771205,33.292547918743992,36.8126],[44.417002800396205,33.286261297650242,31.8927],[44.412119987896375,33.285467840619162,37.2123],[44.402232292583818,33.285467840619162,35.5851],[44.393687370708875,33.287115789837827,35.0275],[44.385752800396261,33.290472723431606,28.4897],[44.379527214458818,33.295965887494162,36.4768],[44.375620964458705,33.303900457806577,35.8644],[44.375498894146375,33.31165192265027,36.0352],[44.378184441021318,33.318182684369162,34.9505],[44.383433464458705,33.323309637494049,34.8229],[44.390269401958705,33.32672760624402,35.4011],[44.376231316021375,33.349859930462827,37.8089],[44.369761589458875,33.374090887494077,37.8196],[44.366587761333818,33.379095770306719,37.2684],[44.362193230083818,33.382940985150412,31.724],[44.352549675396261,33.389715887494162,33.2666],[44.347666862896318,33.394476629681662,39.7729],[44.344493034771205,33.39996979374402,37.7875],[44.342784050396205,33.40607330936902,38.7813],[44.342906120708818,33.4129702820253,28.5],[44.348643425396318,33.435675360150412,36.6611],[44.348155144146205,33.446417547650469,37.6782],[44.341563347271318,33.456854559369162,39.2238],[44.336558464458875,33.460516668744106,37.244],[44.320201042583818,33.469305731244219,36.2481],[44.316172722271375,33.4730288757753,36.5335],[44.313120964458875,33.477362371869162,38.4868],[44.310923698833705,33.482306219525412,35.2086],[44.305186394146375,33.504278875775356,36.7086],[44.304820183208705,33.51001618046277,35.1188],[44.305186394146375,33.515875555462912,32.9886],[44.308116081646261,33.533392645306719,38.568],[44.308482292583705,33.551336981244134,36.9854],[44.309947136333875,33.557074285931662,38.1917],[44.312998894146375,33.562323309369162,37.6637],[44.326060417583761,33.575384832806662,39.1737],[44.328257683208875,33.585638739056606,33.7951],[44.319590691021375,33.60462067265027,41.757],[44.322398308208705,33.614630438275356,37.8544],[44.331919792583705,33.6225650085878,36.741],[44.342661980083875,33.626044012494077,44.3728],[44.354014519146375,33.6265933289003,35.4734],[44.366099480083761,33.62579987186902,34.1778],[44.377329948833705,33.6265933289003,40.3692],[44.385264519146318,33.631048895306719,38.3311],[44.390879753521205,33.638739324993992,38.5028],[44.407725456646375,33.699896551556606,39.3016],[44.411631706646205,33.707220770306606,38.5098],[44.425669792583818,33.725897528118992,42.2763],[44.425791862896261,33.730231024212969,39.6651],[44.423350456646375,33.73432037968152,39.6013],[44.403452995708705,33.751044012494134,38.5102],[44.396739128521375,33.7581851257753,41.4057],[44.391490105083875,33.766669012494219,41.4608],[44.389048698833818,33.775641180462884,39.989],[44.389170769146261,33.784857489056606,39.4955],[44.391123894146375,33.793890692181577,40.1123],[44.409800651958875,33.836676336712884,34.7812],[44.443980339458818,33.881354071087742,46.1677],[44.449839714458761,33.898810125775356,41.3399],[44.450816276958875,33.917547918744134,38.5078],[44.447520378521205,33.936712957806549,38.6743],[44.439829948833818,33.952215887494106,41.4957],[44.427867058208705,33.96472809452527,51.7393],[44.377696159771205,34.002569891400356,37.889],[44.331065300396318,34.020819403119049,44.9934],[44.291270378521375,34.042853094525469,41.8255],[44.270396355083875,34.047919012494049,45.3369],[44.249156120708705,34.041510321087969,38.614],[44.239024284771205,34.034857489056634,37.2541],[44.233531120708761,34.033453680462827,39.5747],[44.227427605083761,34.03491852421277,46.1222],[44.221202019146318,34.039190985150356,47.4947],[44.209727409771375,34.049505926556606,43.2684],[44.203501823833818,34.0538394226503,43.5523],[44.194834831646261,34.057135321087856,45.4832],[44.185923698833818,34.058722235150412,46.9069],[44.148448112896205,34.06085846561902,42.9545],[44.092784050396261,34.072943426556577,53.4307],[43.987803581646375,34.082464910931662,60.0283],[43.971202019146375,34.086554266400412,59.1138],[43.928477409771375,34.106940008587969,63.5995],[43.894663933208818,34.134039617962884,69.4502],[43.886607292583761,34.145697332806662,68.7629],[43.870494011333875,34.185553289837912,74.0593],[43.860240105083705,34.196966864056719,59.2052],[43.829234245708875,34.224249578900384,71.7982],[43.822642448833705,34.236700750775356,68.4867],[43.823741081646318,34.248602606244077,67.9877],[43.828745964458705,34.264654852337856,68.5763],[43.829478386333818,34.27429840702527,68.165],[43.827647331646261,34.287543035931606,69.9063],[43.824473503521318,34.294501043744106,69.7854],[43.820445183208875,34.299994207806662,68.9613],[43.803721550396318,34.338324285931662,68.7578],[43.802134636333875,34.346258856244077,79.8709],[43.798960808208818,34.3519351257753,78.6212],[43.784922722271261,34.365057684368992,70.6051],[43.781748894146318,34.373907782025412,85.7713],[43.774912956646318,34.510748602337912,94.2869],[43.769541862896318,34.530951239056634,92.5821],[43.756602409771318,34.537176824994162,80.2014],[43.739024284771318,34.539557196087912,80.9817],[43.720835808208761,34.548041082806662,84.2336],[43.716075066021261,34.554815985150412,84.4935],[43.713877800396318,34.563910223431606,84.3198],[43.713389519146205,34.586493231243992,79.7607],[43.710215691021375,34.59796784061902,85.4305],[43.696665886333875,34.615668035931662,85.8371],[43.693492058208875,34.627447821087969,86.7928],[43.695811394146205,34.656073309369134,87.3935],[43.693492058208875,34.664740301556549,89.7217],[43.688487175396318,34.6702945007753,88.4893],[43.671275261333875,34.682989813275412,89.963],[43.665049675396318,34.692633367962827,88.4782],[43.676524284771375,34.700995184369049,90.2926],[43.675791862896205,34.714056707806634,95.1408],[43.668101433208818,34.728522039837856,88.0],[43.658824089458705,34.741034246869049,91.6466],[43.651255730083875,34.745184637493992,94.8179],[43.644663933208875,34.7435366882753,94.3442],[43.640147331646205,34.744879461712912,94.1431],[43.638316276958818,34.7578189148378,95.0451],[43.635508659771375,34.768561102337856,99.7606],[43.628672722271205,34.77191803593152,99.533],[43.619761589458761,34.772406317181719,95.9385],[43.610972526958761,34.774603582806549,92.3227],[43.600352409771375,34.783270574994106,96.4831],[43.594615105083875,34.786810614056549,97.6734],[43.577281120708818,34.790716864056719,95.369],[43.576060417583705,34.7971255554628,98.6092],[43.577403191021261,34.806097723431549,96.3823],[43.576182487896318,34.81616852421277,104.5924],[43.568492058208875,34.82837555546277,99.1809],[43.564341667583818,34.836859442181606,97.3525],[43.561656120708818,34.857977606244049,105.7677],[43.558604362896318,34.8612124695253,105.2128],[43.553355339458705,34.862372137494162,99.3965],[43.545542839458705,34.867010809369219,102.8918],[43.539317253521375,34.8829409851503,103.1833],[43.540537956646375,34.902289129681606,104.2347],[43.539073112896261,34.918585516400356,120.5745],[43.525035026958818,34.925360418744106,102.8925],[43.521983269146318,34.933966375775469,106.7145],[43.530161980083875,34.952704168743992,105.7228],[43.542491081646205,34.971502996869106,107.7599],[43.552012566021205,34.979986883587742,110.932],[43.562388542583875,34.985174871869049,115.7807],[43.572642448833761,34.998114324994106,110.1849],[43.580577019146375,35.014898992962856,119.9218],[43.583628776958875,35.031866766400242,134.3846],[43.577036980083761,35.042792059369049,144.1966],[43.562022331646318,35.054083563275327,153.1347],[43.534678581646261,35.069403387494134,113.3452],[43.539927605083818,35.090155340619106,126.6471],[43.519908073833818,35.101874090619106,114.0],[43.493662956646205,35.111883856244106,118.4029],[43.480601433208818,35.127752996869219,130.23],[43.414927605083875,35.186102606244106,129.4107],[43.406993034771318,35.190924383587912,124.0137],[43.396983269146261,35.20221588749402,122.3266],[43.388194206646261,35.214728094525469,126.2623],[43.384410026958875,35.223639227337827,125.4242],[43.388804558208875,35.234564520306719,140.6912],[43.398570183208818,35.239569403118992,137.6796],[43.409922722271205,35.242621160931492,130.612],[43.418589714458818,35.247503973431606,131.3092],[43.422373894146375,35.266669012494106,127.6525],[43.401499870708705,35.274603582806606,135.9519],[43.350352409771318,35.281683660931634,138.3105],[43.356577995708875,35.288153387494219,133.285],[43.359751823833705,35.294317938275242,129.0],[43.363291862896318,35.308966375775384,139.6082],[43.362315300396375,35.313116766400356,139.2451],[43.358897331646318,35.316351629681606,135.0788],[43.356700066021205,35.320196844525469,133.0205],[43.359873894146318,35.326361395306492,138.3943],[43.363413933208761,35.328619696087912,139.3791],[43.366953972271375,35.329657293744049,140.9124],[43.369761589458818,35.330755926556606,133.1508],[43.370738151958818,35.333502508587827,132.0],[43.364756706646261,35.346258856244049,134.2037],[43.350352409771318,35.354193426556662,142.4952],[43.322398308208761,35.363592840619049,147.475],[43.311167839458875,35.371649481244077,137.6369],[43.285655144146318,35.394537664837827,142.9645],[43.280772331646205,35.402044989056634,137.1635],[43.278575066021375,35.404608465619049,141.8436],[43.273936394146205,35.4074771179628,145.106],[43.269297722271375,35.412726141400384,145.8045],[43.267100456646261,35.422247625775469,143.1592],[43.268687370708818,35.4322573914003,141.8635],[43.271128776958875,35.438177801556549,140.5],[43.271739128521318,35.443793035931719,146.0744],[43.267100456646261,35.452948309369219,157.6085],[43.275889519146375,35.472723699994162,150.2108],[43.265391472271375,35.501532293744162,148.955],[43.249156120708761,35.53162262577527,147.0849],[43.240489128521318,35.555426336712742,152.7944],[43.241221550396318,35.567389227337969,148.8213],[43.244273308208818,35.570135809369106,150.353],[43.248667839458818,35.5709292664003,149.0],[43.254038933208875,35.577093817181606,149.5],[43.262705925396261,35.59113190311902,151.0588],[43.265757683208761,35.598211981244049,156.623],[43.267100456646261,35.607245184369106,151.5948],[43.248179558208705,35.631415106244162,154.5458],[43.241221550396318,35.6458804382753,156.1503],[43.258189323833818,35.656805731244077,160.3602],[43.273203972271261,35.678778387494219,158.4953],[43.280772331646205,35.686346746869162,159.9817],[43.295176628521375,35.690130926556549,165.4554],[43.308604362896375,35.690985418744219,166.254],[43.318492058208818,35.695502020306662,160.7336],[43.322398308208761,35.709906317181662,159.5],[43.318369987896205,35.714178778119049,164.5223],[43.291636589458705,35.730414129681662,183.1231],[43.288218620708705,35.736578680462969,169.8012],[43.287486198833761,35.7448794617128,170.4754],[43.287852409771205,35.777899481244162,168.2313],[43.290293816021375,35.790350653119106,178.8758],[43.298472526958818,35.796881414837912,178.5408],[43.308983469354786,35.796093094158238,173.8528]]],
[[[43.308983469354786,35.796093094158238,173.8528],[43.308726433208818,35.79559967655652,173.8528],[43.315562370708875,35.79559967655652,168.8156],[43.308983469354786,35.796093094158238,173.8528]]]]}}