{"type":"Feature","properties":{"featurecla":"Desert","name":"SYRIAN DESERT","namealt":null,"region":"Asia","subregion":null,"min_label":4.0,"max_label":8.0,"scalerank":3},
"geometry":{"type": "Polygon","coordinates": [[[38.1470204945044,30.978899252419325,577.2595],[38.358775261333705,31.032171942181606,733.5122],[38.652232292583705,31.069403387494049,818.2971],[42.829472081885427,31.025731162864247,305.436],[42.856455925396261,31.039679266400327,315.9664],[42.950327995708705,31.110663153119106,293.4615],[43.033213737896205,31.195257879681606,292.4118],[43.251963737896205,31.461127020306606,309.1312],[43.366709831646205,31.618963934369106,280.0892],[43.457652214458761,31.786993719525356,218.9834],[43.519786003521205,31.9812075867128,179.031],[43.545054558208705,32.198004461712827,121.9384],[43.525645378521261,32.413763739056606,84.6277],[43.456919792583705,32.618353582806634,45.1197],[43.334239128521261,32.801642157025384,61.4179],[43.247569206646205,32.885992742962827,73.5677],[43.057994011333705,33.038336492962856,98.2904],[42.969126823833705,33.119452215619077,111.7373],[42.729991081646261,33.410101629681549,116.7945],[42.679820183208761,33.453802801556577,137.4136],[42.630015495708705,33.482611395306577,136.7352],[42.521983269146261,33.534918524212884,170.5559],[42.290537956646261,33.664984442181606,235.3915],[42.205699089458705,33.701483465619077,253.5782],[40.713145378521261,34.082037664837856,373.844],[40.462779167583705,34.120062567181606,387.7442],[40.218272331646205,34.124945379681606,404.6912],[40.140635612896205,34.112921453900356,436.9249],[39.989512566021261,34.070929266400327,475.5461],[39.912364128521261,34.055243231244134,509.4673],[39.373179558208705,34.009466864056634,613.9829],[38.028208855083705,33.907599188275356,818.0872],[37.745371941021205,33.853949285931549,870.1801],[37.467661980083705,33.764288641400384,786.8943],[37.227671745708761,33.615057684369049,730.7566],[37.058116081646261,33.382635809369049,787.9709],[36.960826042583761,33.123846746869077,635.0837],[36.891368034771205,32.849982000775356,903.317],[36.857920769146261,32.570563055462884,1442.5291],[36.868662956646205,32.294928289837856,1073.6243],[36.911875847271205,32.106451727337827,735.7418],[36.985606316021261,31.9384829773378,607.1898],[37.084605339458761,31.783209539837884,568.9716],[37.203990105083705,31.6329409851503,549.8924],[37.335581901958705,31.498785711712827,564.4049],[37.486704948833761,31.374029852337827,489.3824],[37.913340691021261,31.069281317181606,600.7202],[37.972788933208761,31.032721258587827,601.6802],[38.034556511333761,31.005682684369134,572.5175],[38.1470204945044,30.978899252419325,577.2595]]]}}