{"type":"Feature","properties":{"GID_2":"IRQ.2.7_1","GID_0":"IRQ","country":"Iraq","GID_1":"IRQ.2_1","province":"Al-Basrah","NL_NAME_1":"NA","county":"ShattAlArab","VARNAME_2":"NA","NL_NAME_2":"NA","TYPE_2":"Kaza","ENGTYPE_2":"District","CC_2":"NA","HASC_2":"NA","name":"Shatt_Al_Arab.county"},
"geometry":{"type": "MultiPolygon","coordinates": [[[[48.0006,30.9937,3.7543],[47.825,30.9931,2.113],[47.8265,30.9824,2.1792],[47.8263,30.954,1.9466],[47.825,30.948,1.7916],[47.8208,30.9404,1.7196],[47.8103,30.9324,1.6004],[47.7913,30.9254,1.5174],[47.7846,30.9209,1.4648],[47.7612,30.8786,0.5562],[47.7179,30.8357,0.9789],[47.6909,30.821,1.8356],[47.6828,30.8142,2.3018],[47.6641,30.7865,1.9082],[47.662,30.7773,2.2697],[47.6622,30.7752,2.6035],[47.7135,30.7497,1.4859],[47.7239,30.7384,2.5913],[47.7282,30.7242,1.0201],[47.74,30.6985,1.7806],[47.7479,30.6745,1.2981],[47.7508,30.6408,1.7421],[47.7566,30.622,1.2855],[47.7584,30.5927,2.9974],[47.7654,30.5753,4.6463],[47.7701,30.5678,2.124],[47.7781,30.5611,3.7887],[47.7942,30.5534,3.0647],[47.8288,30.5426,0.0],[47.8355,30.5381,1.7897],[47.8533,30.5152,1.265],[47.8586,30.5058,0.4072],[47.8582,30.4984,3.5697],[47.8493,30.4837,3.2946],[47.8548,30.475,2.1024],[47.8614,30.4687,2.1864],[47.868899999999996,30.4652,2.7354],[47.8927,30.4626,2.4335],[47.9101,30.4566,2.6658],[47.9322,30.4546,2.3386],[47.9459,30.4494,1.722],[47.9601,30.4475,2.448],[47.9798,30.4481,2.7417],[48.0047,30.4574,2.5345],[48.0269,30.4712,0.5496],[48.0371,30.4794,1.1732],[48.0347,30.5316,1.647],[48.0308,30.9938,4.7225],[48.0006,30.9937,3.7543]]]]}}