{"type":"Feature","properties":{"GID_2":"IRQ.18.3_1","GID_0":"IRQ","country":"Iraq","GID_1":"IRQ.18_1","province":"Wasit","NL_NAME_1":"NA","county":"AlNoamania","VARNAME_2":"NA","NL_NAME_2":"NA","TYPE_2":"Kaza","ENGTYPE_2":"District","CC_2":"NA","HASC_2":"NA","name":"Al_Noamania.county"},
"geometry":{"type": "MultiPolygon","coordinates": [[[[45.2923,32.3501,15.7068],[45.307,32.3458,15.3423],[45.3328,32.3299,14.8569],[45.3816,32.2895,15.1608],[45.4168,32.2514,14.5523],[45.4316,32.2382,14.3122],[45.527,32.1674,13.4469],[45.5554,32.1374,11.5],[45.5993,32.0824,12.4434],[45.6167,32.0912,12.4775],[45.6237,32.0984,12.2132],[45.6264,32.1062,12.1935],[45.6291,32.1377,11.5],[45.6373,32.1529,11.5],[45.6441,32.157,11.5],[45.6667,32.1593,11.7267],[45.6716,32.1619,11.8899],[45.6746,32.1666,11.8903],[45.6777,32.177,11.5551],[45.6896,32.2027,11.8187],[45.6925,32.2282,12.2019],[45.6987,32.2473,12.6472],[45.7009,32.2765,12.4702],[45.7054,32.2905,12.3504],[45.7034,32.3003,12.7739],[45.6982,32.3057,12.7184],[45.6856,32.3128,13.539],[45.683,32.3184,13.8274],[45.6851,32.3288,13.8866],[45.698,32.3629,13.7769],[45.6993,32.3838,13.9739],[45.698,32.3923,14.5859],[45.6931,32.4013,15.748],[45.6828,32.4101,15.472],[45.641,32.4314,15.3107],[45.6362,32.4378,15.315],[45.6339,32.4457,16.2604],[45.6346,32.4524,15.8464],[45.6501,32.4745,15.3546],[45.6521,32.4842,15.6448],[45.6502,32.4959,16.1203],[45.6472,32.4995,16.8361],[45.6367,32.5056,18.2872],[45.6269,32.5088,17.9356],[45.6113,32.5093,17.5376],[45.6013,32.5075,17.157],[45.5871,32.5025,17.3201],[45.5692,32.4992,16.8735],[45.5546,32.4942,18.2159],[45.518,32.4941,17.6712],[45.4926,32.5022,18.0474],[45.4845,32.5062,18.5791],[45.4646,32.5245,18.2028],[45.454,32.5415,18.0492],[45.4076,32.519,18.2972],[45.3972,32.5186,17.8874],[45.3912,32.523,17.8137],[45.3863,32.5445,18.7287],[45.3766,32.5574,18.7054],[45.3644,32.5641,18.6606],[45.3571,32.5641,19.5542],[45.3405,32.5598,20.1281],[45.3331,32.5626,19.0627],[45.327,32.5705,18.4308],[45.3222,32.5954,18.9187],[45.3193,32.5977,18.8939],[45.313,32.5967,18.6124],[45.2984,32.588,19.3305],[45.2954,32.5843,19.4035],[45.2906,32.5626,19.8346],[45.2746,32.5145,20.2275],[45.2719,32.5099,19.2598],[45.2522,32.4907,19.3372],[45.2344,32.4832,18.8875],[45.2313,32.48,18.3914],[45.2267,32.4583,18.0567],[45.2177,32.4428,18.1801],[45.2112,32.4389,18.564],[45.1907,32.4375,18.201],[45.1846,32.434,18.4251],[45.1846,32.4151,18.2676],[45.1885,32.4061,18.9426],[45.1958,32.4031,18.392],[45.2104,32.4009,19.5965],[45.2242,32.3938,16.7175],[45.2644,32.3522,14.7309],[45.2708,32.3502,15.443],[45.2923,32.3501,15.7068]]]]}}