{"type":"Feature","properties":{"GID_2":"IRQ.10.1_1","GID_0":"IRQ","country":"Iraq","GID_1":"IRQ.10_1","province":"Baghdad","NL_NAME_1":"NA","county":"Adhamiya","VARNAME_2":"NA","NL_NAME_2":"NA","TYPE_2":"Kaza","ENGTYPE_2":"District","CC_2":"NA","HASC_2":"NA","name":"Adhamiya.county"},
"geometry":{"type": "MultiPolygon","coordinates": [[[[44.2873,33.1892,30.3057],[44.3024,33.1911,30.085],[44.3389,33.1831,29.8499],[44.356,33.1813,31.7313],[44.452,33.1811,30.6355],[44.4901,33.1828,31.9735],[44.499,33.181,30.4729],[44.5036,33.1842,30.326],[44.5128,33.2034,34.022],[44.5243,33.2781,31.5435],[44.5313,33.2966,33.0197],[44.5298,33.3072,34.2977],[44.5329,33.3238,35.454],[44.5529,33.3724,35.7151],[44.5569,33.3856,36.336],[44.5593,33.4013,36.0341],[44.5593,33.4165,36.1697],[44.5568,33.4303,38.7022],[44.5527,33.4388,36.9798],[44.5455,33.4453,38.4423],[44.5393,33.4484,37.556],[44.5269,33.4506,31.9523],[44.5186,33.4497,35.4772],[44.4862,33.4381,35.7507],[44.4714,33.4352,34.5848],[44.4561,33.4345,33.6517],[44.4409,33.4359,35.4003],[44.4285,33.4391,33.6426],[44.404,33.4511,34.0978],[44.3537,33.495,34.8027],[44.3304,33.5074,34.9093],[44.316,33.5124,40.4998],[44.3044,33.5003,37.8289],[44.2942,33.4828,36.9887],[44.2642,33.4523,36.1814],[44.2568,33.4383,34.9824],[44.2518,33.4247,33.1772],[44.2577,33.4096,32.839],[44.2745,33.3811,33.2375],[44.2793,33.3691,34.4376],[44.2803,33.361,36.0843],[44.2791,33.3561,34.5039],[44.2735,33.3476,36.1846],[44.2471,33.3306,32.6917],[44.2365,33.32,34.8534],[44.2284,33.308,33.8241],[44.2241,33.295,32.8092],[44.2232,33.2864,32.1459],[44.2235,33.2531,32.3062],[44.2274,33.2417,33.2644],[44.2357,33.2254,32.3224],[44.2473,33.2152,32.0239],[44.2711,33.2047,31.0303],[44.2873,33.1892,30.3057]]]]}}