{"type":"Feature","properties":{"GID_1":"IRQ.2_1","GID_0":"IRQ","country":"Iraq","province":"Al-Basrah","VARNAME_1":"Basra|Bassora","NL_NAME_1":"NA","TYPE_1":"Muhafazah","ENGTYPE_1":"Province","CC_1":"NA","HASC_1":"IQ.BA","ISO_1":"NA","name":"Al-Basrah.province"},
"geometry":{"type": "MultiPolygon","coordinates": [[[[47.8878,30.0348,16.5803],[47.9202,30.0287,8.1064],[47.9422,30.0208,2.7363],[47.9529,30.0201,0.0],[47.9526,30.034,0.0],[47.9507,30.0343,0.0],[47.9465,30.039,0.0],[47.9465,30.0426,0.0],[47.9413,30.0462,0.0],[47.9357,30.054,0.0],[47.9282,30.0596,0.0],[47.929,30.0621,0.0],[47.9321,30.0637,2.0806],[47.9504,30.0407,0.0],[47.9529,30.0401,0.0],[47.954,30.051,0.9758],[47.9599,30.051,0.0],[47.9621,30.0488,1.0434],[47.9674,30.0401,1.8737],[47.9701,30.0224,0.5769],[47.9765,30.0071,1.6185],[47.984,30.0029,0.0961],[48.001,30.0007,0.4318],[48.0107,30.0012,0.0],[48.0174,30.0043,0.6478],[48.034,30.0196,0.7647],[48.0482,30.0282,0.3317],[48.0749,30.036,1.0525],[48.0996,30.0368,0.0],[48.1338,30.0335,0.0],[48.1415,30.0357,2.1313],[48.1674,30.0357,1.814],[48.1888,30.0335,1.8152],[48.2146,30.0263,1.6634],[48.2499,30.0118,1.5828],[48.2671,30.0024,1.621],[48.2687,29.9999,0.2523],[48.2826,29.9924,1.455],[48.3154,29.9699,0.5749],[48.3404,29.9574,1.6244],[48.3446,29.9521,1.5643],[48.3535,29.9504,1.2446],[48.3632,29.944,1.6061],[48.3674,29.939,0.9536],[48.3826,29.9346,1.3245],[48.3976,29.9268,0.8208],[48.4368,29.9163,1.2727],[48.4413,29.9118,1.4659],[48.4551,29.9132,1.4629],[48.486,29.9088,1.2569],[48.5135,29.9074,1.6748],[48.5204,29.9085,1.0123],[48.5407,29.9035,0.4691],[48.5454,29.9043,0.0],[48.5535,29.9015,0.1839],[48.5686,29.9018,0.0],[48.5566,29.9191,1.1829],[48.5048,29.9693,0.6415],[48.4846,29.9799,0.0],[48.4576,29.9972,0.2693],[48.4479,30.008,0.0],[48.4426,30.0443,1.2724],[48.4412,30.0692,0.0],[48.4292,30.0892,1.9751],[48.4122,30.1029,1.5793],[48.3935,30.1137,1.6137],[48.383,30.1273,0.2242],[48.3864,30.1358,0.0],[48.4013,30.157,1.044],[48.4129,30.169,0.8985],[48.4138,30.1754,1.0703],[48.4115,30.1882,1.5249],[48.4075,30.1982,0.0],[48.3987,30.2104,0.0],[48.363,30.242,0.0],[48.316,30.2971,1.6221],[48.2819,30.3265,0.0],[48.2673,30.3359,0.1076],[48.2558,30.3381,1.4682],[48.2427,30.3333,1.5892],[48.231,30.3234,1.6778],[48.2236,30.3192,0.0],[48.2138,30.3185,2.2557],[48.204,30.3222,2.0705],[48.1983,30.3272,1.1563],[48.1839,30.3671,0.4854],[48.1769,30.4091,0.0],[48.1705,30.4227,3.1743],[48.1427,30.4428,2.6962],[48.1174,30.4507,1.4445],[48.0903,30.4523,0.4107],[48.0861,30.4581,1.3832],[48.0739,30.4583,0.7315],[48.0423,30.4762,1.1848],[48.0369,30.4827,1.4311],[48.0347,30.5316,1.647],[48.0308,30.9938,4.7225],[47.7017,30.9925,2.6115],[47.7002,31.2371,1.312],[47.6953,31.2778,1.3497],[47.5763,31.2789,1.2058],[47.4865,31.2931,2.723],[47.4346,31.2966,2.1535],[47.4144,31.2961,2.9437],[47.3909,31.2916,1.8153],[47.3836,31.2862,1.8713],[47.3596,31.278199999999998,1.5598],[47.3469,31.2682,1.5931],[47.3336,31.2622,1.3877],[47.2692,31.2431,1.0972],[47.24,31.225,1.1929],[47.2053,31.1995,0.5675],[47.195,31.1845,0.963],[47.1755,31.1428,0.2035],[47.1809,31.115,0.4848],[47.1855,31.0617,0.6286],[47.1827,31.0079,1.32],[47.1779,30.9679,0.5878],[47.1716,30.9328,0.8388],[47.1547,30.8759,1.0573],[47.1358,30.8256,0.6856],[47.1236,30.7862,0.0],[47.1187,30.7636,1.0473],[47.1146,30.732,1.839],[47.1173,30.7208,3.4212],[47.1327,30.6786,15.1043],[47.1358,30.6647,16.6052],[47.136,30.6459,20.0405],[47.133,30.6363,21.9119],[47.129,30.6307,23.4666],[47.1234,30.6267,23.9915],[47.1142,30.6238,24.4931],[47.1039,30.6231,25.0211],[47.0842,30.6251,23.3246],[46.9489,30.6479,10.9203],[46.9069,30.6502,10.996],[46.8835,30.6465,14.581],[46.8186,30.6251,19.7429],[46.6899,30.5931,13.9692],[46.6121,30.5779,19.177],[46.585,30.5741,22.4354],[46.5629,30.5731,27.1475],[46.5429,30.5611,26.7854],[46.5478,30.5421,34.0202],[46.5607,30.4642,52.4617],[46.5828,30.3498,71.3641],[46.6143,30.238,96.3448],[46.6274,30.1786,102.7798],[46.6577,30.0662,111.334],[46.6605,30.0498,124.4283],[46.6649,29.9964,138.5265],[46.6646,29.9287,155.6211],[46.6523,29.7726,193.0187],[46.6295,29.5951,233.8481],[46.6224,29.5188,247.3559],[46.6182,29.4487,256.2696],[46.6102,29.3928,267.7799],[46.595,29.3122,266.035],[46.592,29.2816,270.5417],[46.5906,29.2366,266.3967],[46.592,29.2136,256.2467],[46.5954,29.1992,247.9424],[46.6006,29.1871,238.8978],[46.6066,29.178,226.3985],[46.6156,29.1686,214.929],[46.625,29.1664,212.6929],[46.6465,29.1842,209.5625],[46.6574,29.1909,209.059],[46.6904,29.2303,202.3287],[46.8278,29.4336,180.2038],[46.8589,29.4758,174.6095],[46.9181,29.55,152.7615],[46.93,29.5594,150.7971],[46.9403,29.5717,148.8815],[46.9814,29.6461,137.4357],[47.0478,29.7942,118.4197],[47.0967,29.9122,100.6819],[47.1136,29.9464,96.5861],[47.1289,29.9747,94.5245],[47.1419,29.9911,93.5735],[47.17,30.0153,86.524],[47.2094,30.0356,80.9557],[47.3511,30.0817,65.4501],[47.7314,30.0839,10.5495],[47.8389,30.0489,16.0143],[47.8878,30.0348,16.5803]]],
[[[47.9637,30.0432,0.4151],[47.9621,30.0443,0.0],[47.9604,30.0404,0.6393],[47.9593,30.0318,3.2581],[47.9604,30.0235,1.0498],[47.9676,30.0085,0.561],[47.9738,30.0057,0.2698],[47.971,30.0126,2.0041],[47.971,30.0176,0.737],[47.9665,30.0263,2.0716],[47.9671,30.0351,0.8355],[47.9637,30.0432,0.4151]]]]}}