{"type":"Feature","properties":{"ISO3166-1-Alpha-3":"IRQ","country":"Iraq","fill":"#F0F","id":"3222","name":"Al-Basrah"},
"geometry":{"type": "Polygon","coordinates": [[[47.67644,31.23652,1.5207],[47.67609,31.23659,1.5207],[47.53749,31.26698,1.9669],[47.39476,31.27915,1.695],[47.3497,31.27595,1.5882],[47.211,31.24494,0.6706],[47.17627,31.23094,0.3076],[47.15591,31.21623,0.3753],[47.13721,31.19125,0.3109],[47.12615,31.12981,0.302],[47.13473,31.04686,1.1606],[47.12212,30.83882,0.8445],[47.09669,30.7257,2.5932],[47.09049,30.6972,4.8314],[47.08904,30.67485,14.9481],[47.09452,30.60183,25.7924],[47.08842,30.57379,27.812],[47.05814,30.56894,23.745],[46.91944,30.59074,18.6535],[46.90115,30.59129,18.5381],[46.57466,30.51408,35.5993],[46.5913,30.45225,50.4025],[46.60742,30.35985,70.049],[46.61589,30.33164,74.9745],[46.62871,30.30642,81.4285],[46.727,30.18237,89.9539],[46.73568,30.16356,100.0235],[46.74167,30.14354,101.3869],[46.74478,30.11785,107.2018],[46.74457,30.0893,109.5401],[46.66282,29.71077,202.2149],[46.65041,29.60974,232.5932],[46.64948,29.48156,250.3516],[46.64525,29.45588,252.9759],[46.60835,29.40001,266.1534],[46.59657,29.37717,270.9956],[46.58861,29.3511,267.2142],[46.5669,29.14959,234.1326],[46.56163,29.12494,223.5236],[46.56147,29.12417,225.118],[46.71186,29.27139,195.8746],[46.77449,29.36353,191.3521],[46.83857,29.42498,172.3239],[46.85345,29.44456,171.2283],[46.88311,29.51251,162.5883],[46.95784,29.62044,142.2213],[46.97737,29.65798,137.7792],[46.97985,29.66806,137.7855],[46.98367,29.69829,136.5586],[46.98884,29.71266,133.2314],[47.02543,29.77214,135.5398],[47.11049,29.96091,99.3915],[47.1447,30.00334,94.2155],[47.1971,30.03424,82.5456],[47.35823,30.09212,62.5734],[47.41579,30.09822,62.3259],[47.67417,30.09822,17.3037],[47.73143,30.08855,9.8656],[47.94801,29.99405,6.4597],[47.9485,30.01765,3.4155],[47.94093,30.02652,4.3329],[47.94174,30.03726,3.7614],[47.94606,30.04938,3.2507],[47.9485,30.06232,2.4939],[47.94711,30.07453,5.8077],[47.93483,30.10708,0.0],[47.95167,30.08832,0.4407],[47.95851,30.06061,0.0],[47.96192,30.03034,3.891],[47.969,30.00406,0.0],[48.03826,30.03685,2.3515],[48.07635,30.04564,2.5444],[48.11915,30.04499,1.9748],[48.16578,30.03754,1.5],[48.20924,30.02448,0.5038],[48.26466,29.99396,0.0],[48.29957,29.98452,2.2389],[48.33546,29.96141,0.7146],[48.41188,29.93842,1.9733],[48.52052,29.9289,1.332],[48.54689,29.93472,0.3828],[48.55926,29.9466,0.888],[48.55494,29.95649,1.064],[48.53077,29.9562,0.0],[48.53077,29.96076,1.3181],[48.53102,29.96133,1.1642],[48.53103,29.96135,1.1642],[48.52399,29.96412,1.2485],[48.49304,29.97176,0.4332],[48.47816,29.97962,0.501],[48.46431,29.98913,0.0],[48.4578,29.99486,0.0],[48.45315,30.00143,0.0],[48.44426,30.02091,1.2646],[48.44219,30.03393,1.1823],[48.42395,30.08364,0.8101],[48.42121,30.08535,1.2255],[48.41552,30.09563,0.0],[48.39558,30.11522,1.494],[48.38307,30.13842,0.8834],[48.38111,30.14534,0.6097],[48.38328,30.15645,0.7331],[48.39113,30.16477,0.861],[48.40075,30.17227,0.7075],[48.40803,30.1809,0.8619],[48.41062,30.19154,1.3396],[48.4087,30.20234,0.1143],[48.40359,30.21252,3.3418],[48.39702,30.221,2.9878],[48.35816,30.2518,2.002],[48.32602,30.28348,0.0],[48.30571,30.31283,2.1244],[48.29636,30.31975,2.3327],[48.28427,30.32332,0.0],[48.27166,30.32383,0.7627],[48.23507,30.31851,1.6482],[48.22298,30.3181,0.3187],[48.2112,30.31965,2.4664],[48.20009,30.32394,0.7939],[48.19208,30.33128,0.5066],[48.18768,30.34084,1.0796],[48.17947,30.38486,1.2349],[48.17048,30.40667,1.423],[48.15766,30.42631,1.0853],[48.14092,30.44192,0.0],[48.13058,30.4475,3.7717],[48.11942,30.4508,1.5094],[48.01359,30.46388,0.2617],[48.01204,30.49452,1.2734],[48.01204,30.49457,1.2734],[48.01545,30.97625,3.8496],[48.01224,30.98907,3.9639],[48.00155,30.99465,3.7684],[47.67293,30.9947,3.3534],[47.67644,31.23652,1.5207]]]}}