{"type":"Feature","properties":{"featurecla":"Alkaline Lake","scalerank":5,"name":"Lake Hammar","name_abb":"L. Hammar","name_alt":null,"note":null,"delta":null,"dam_name":null,"year":-99,"admin":null,"min_zoom":4.7,"min_label":6.0},
"geometry":{"type": "MultiPolygon","coordinates": [[[[46.70543542528668,30.750567954754786,2.103],[46.687184849404531,30.750567954754786,2.3326],[46.724274729423115,30.732611742999751,1.5963],[46.743408397686665,30.727018824584235,1.6067],[46.7622477018231,30.72407518331292,1.2762],[46.760481517060327,30.728490645219892,1.7756],[46.758126604043269,30.739382117923782,1.4742],[46.756066055153326,30.743797579830755,1.2444],[46.769901169128531,30.743797579830755,1.906],[46.769901169128531,30.750567954754786,1.735],[46.748706951975038,30.758221422060188,2.1342],[46.731928196728546,30.757632693805931,2.9496],[46.70543542528668,30.750567954754786,2.103]]],
[[[47.603246013038273,30.712006254100515,0.7819],[47.581757431757666,30.716716080134631,0.5849],[47.571749051435205,30.730256829982693,0.769],[47.578519426359236,30.728196281092778,0.6721],[47.592648904461555,30.72584136807572,0.6279],[47.599124915258443,30.72407518331292,0.5999],[47.599124915258443,30.730256829982693,1.0846],[47.582051795884809,30.735555384271066,1.0089],[47.566450497146832,30.73496665601678,0.0998],[47.540840818086366,30.730256829982693,0.0],[47.532304258399563,30.732317378872608,0.0],[47.528477524746847,30.741737030940811,0.0],[47.520529693314273,30.743797579830755,0.0],[47.498452383779409,30.744680672212127,0.6238],[47.48932709583832,30.743797579830755,0.648],[47.42662753675927,30.730256829982693,0.0],[47.398074216427517,30.734377927762523,0.8224],[47.379529276418225,30.758221422060188,-0.1577],[47.437519009463159,30.758221422060188,0.4006],[47.448704846294163,30.761165063331504,0.5109],[47.482556720914289,30.775883269688109,0.4796],[47.492859465363921,30.781770552230739,0.5773],[47.514642410771643,30.799138035731488,0.6734],[47.514053682517385,30.804730954147004,0.5242],[47.503456573940639,30.81267878557955,0.5131],[47.455180857091051,30.819449160503581,0.4894],[47.403667134843005,30.819449160503581,-1.0],[47.393953118647659,30.815328062723751,-1.0],[47.378646184036825,30.7926620249346,-0.1337],[47.350387227832186,30.759104514441589,0.4624],[47.34067321163684,30.7499792265005,0.5048],[47.324188820517463,30.743797579830755,0.6282],[47.312119891305059,30.744091943957869,0.3413],[47.295635500185682,30.747329949356327,0.3898],[47.279739837320591,30.7526285036447,0.4788],[47.269437092870959,30.758221422060188,0.9718],[47.255601978895783,30.753217231898958,0.8602],[47.241178136666321,30.757338329678788,0.5],[47.228226115072545,30.762636883967161,1.0184],[47.218217734750056,30.761165063331504,0.9833],[47.207620626173309,30.757632693805931,1.217],[47.202322071884964,30.764403068729962,1.588],[47.205854441410537,30.773528356671051,1.6997],[47.221750104275628,30.778532546832281,0.5705],[47.192313691562475,30.809440780181092,0.4615],[47.173768751553183,30.816505519232265,0.5119],[47.153457626781091,30.805908410655519,0.4005],[47.14668725185706,30.81444497034235,0.7559],[47.136090143280313,30.819154796376438,0.559],[47.123726849940795,30.818860432249323,0.945],[47.111952284855533,30.81267878557955,0.3694],[47.104593181677245,30.816211155105123,-0.5],[47.099294627388872,30.817977339867923,-0.5],[47.091935524210584,30.819449160503581,-0.3593],[47.091935524210584,30.827102627809012,0.9182],[47.115190290253963,30.825925171300469,0.9359],[47.122255029305137,30.830634997334585,0.2869],[47.113129741364048,30.837111008131473,0.0],[47.088697518812126,30.840054649402788,0.8045],[47.077217317853979,30.832401182097385,0.7786],[47.061910383243145,30.817388611613666,0.5],[47.043659807360967,30.807085867164062,0.6302],[47.023643046716018,30.81267878557955,0.7549],[47.027469780368733,30.814739334469465,0.4834],[47.028352872750133,30.814739334469465,0.4834],[47.030413421640048,30.819449160503581,1.2657],[47.012457209885014,30.830929361461727,1.2394],[46.996561547019923,30.845353203691161,1.3573],[46.98037152002766,30.857422132903565,1.3306],[46.961532215891253,30.860660138302023,2.0456],[46.961532215891253,30.868019241480312,1.756],[46.968302590815284,30.868019241480312,1.7944],[46.968302590815284,30.874200888150085,1.5398],[46.948874558424592,30.878910714184173,2.1102],[46.922970515236983,30.894806377049292,1.7871],[46.906486124117635,30.90216548022758,1.7181],[46.905603031736234,30.895689469430692,2.5566],[46.900304477447861,30.881559991328373,2.2667],[46.895005923159488,30.888330366252404,1.4473],[46.892945374269573,30.896572561812093,2.0305],[46.89441719490523,30.905697849753153,1.7928],[46.900304477447861,30.915117501821385,2.1052],[46.862625869174991,30.910407675787269,1.232],[46.845258385674242,30.911290768168669,1.2574],[46.838193646623068,30.9189442354741,1.2751999999999999],[46.831128907571923,30.932190621195019,1.2199],[46.817293793596718,30.932779349449277,1.3392],[46.806991049147115,30.924242789762445,1.552],[46.81081778279983,30.908935855151611,1.4705],[46.804341772002942,30.89539510530355,1.3671],[46.795216484061854,30.89716129006635,1.0996],[46.78991792977348,30.908052762770211,1.5271],[46.796688304697511,30.922476604999673,1.6771],[46.796688304697511,30.928952615796561,1.6205],[46.78579683199365,30.92218224087253,2.0436],[46.780792641832392,30.911585132295784,1.6243],[46.774905359289761,30.904226029117496,1.6525],[46.7622477018231,30.908935855151611,1.3639],[46.749001316102181,30.895689469430692,1.1615],[46.726629642440173,30.890096551015176,1.4408],[46.6804144744805,30.888624730379519,1.5662],[46.691305947184361,30.875967072912857,2.5641],[46.726629642440173,30.864192507827596,2.8383],[46.735166202127004,30.846825024326819,3.1182],[46.723980365296,30.844175747182646,2.7785],[46.70631851766808,30.832106817970242,2.9633],[46.694249588455676,30.827102627809012,3.541],[46.694249588455676,30.819449160503581,3.0182],[46.697193229726992,30.819154796376438,3.1733],[46.707790338303738,30.819449160503581,2.8028],[46.716032533863427,30.810323872562492,3.0591],[46.779320821196734,30.825042078919097,1.3616],[46.8040474078758,30.827102627809012,2.2342],[46.8040474078758,30.819449160503581,2.0028],[46.798748853587426,30.815033698596608,1.9757],[46.78991792977348,30.805319682401262,1.388],[46.782853190722335,30.799138035731488,1.5332],[46.789329201519223,30.7917789325532,1.1764],[46.796688304697511,30.784714193502055,0.8095],[46.80993469041843,30.791484568426085,0.5],[46.823475440266492,30.792073296680343,1.3089],[46.85173439647113,30.784714193502055,1.2572],[46.85173439647113,30.778532546832281,1.6331],[46.837604918368811,30.774705813179565,2.0316],[46.819943070740919,30.76587488936562,1.6172],[46.8031643154944,30.754689052534616,1.0446],[46.790212293900623,30.743797579830755,1.316],[46.798748853587426,30.736732840779581,1.2645],[46.808462869782772,30.722897726804405,0.7327],[46.817588157723861,30.717304808388889,1.1464],[46.828479630427722,30.714949895371831,1.3034],[46.848202026945557,30.714655531244716,0.6089],[46.858504771395161,30.709651341083458,1.671],[46.898243928557946,30.721425906168747,1.284],[46.910018493643207,30.729373737601293,0.9731],[46.906486124117635,30.743797579830755,1.2727],[46.872339885370337,30.758221422060188,1.0067],[46.8449640215471,30.764403068729962,1.253],[46.859387863776561,30.779121275086538,1.5823],[46.883231358074227,30.7917789325532,1.4198],[46.908252308880407,30.797371850968716,1.1548],[46.9267972488897,30.792367660807457,1.0704],[46.934156352067987,30.779415639213681,1.2087],[46.925031064126927,30.766169253492762,0.5],[46.93445071619513,30.758221422060188,0.8448],[46.946225281280391,30.755277780788873,1.6446],[46.9703631397052,30.75586650904313,1.3041],[46.98213770479046,30.750567954754786,0.6571],[46.97801660701063,30.74674122110207,1.3164],[46.973012416849372,30.736732840779581,0.987],[46.968302590815284,30.730256829982693,0.954],[46.976839150502087,30.723486455058662,1.0778],[46.985081346061776,30.719659721405947,1.766],[46.993912269875722,30.719954085533089,1.6163],[47.002743193689668,30.72407518331292,1.5802],[46.990379900350149,30.732906107126865,0.6922],[47.005392470833868,30.741737030940811,1.7936],[47.031885242275706,30.748213041737728,1.0282],[47.068092029912918,30.752922867771815,1.5923],[47.084282056905153,30.762342519840047,1.305],[47.095467893736156,30.764403068729962,1.3389],[47.1051819099315,30.761459427458647,1.6383],[47.10488754580436,30.755277780788873,1.6741],[47.099000263261729,30.748213041737728,1.0131],[47.091935524210584,30.743797579830755,1.0772],[47.091935524210584,30.737615933160981,0.7575],[47.119900116288079,30.736732840779581,0.5],[47.165820920120609,30.715244259498974,1.6629],[47.190841870926818,30.709651341083458,0.0],[47.362456157044591,30.704352786795113,0.0],[47.388948928486428,30.700231689015254,-0.0006],[47.399840401190289,30.685807846785792,-0.6363],[47.400723493571689,30.668440363285043,0.2295],[47.404255863097262,30.657843254708297,1.0296],[47.412498058656951,30.651955972165666,0.0],[47.427804993267813,30.648129238512951,0.0],[47.440757014861589,30.648717966767208,0.0],[47.451942851692593,30.651661608038523,1.5148],[47.461362503760824,30.652839064547067,1.6805],[47.468721606939113,30.648129238512951,0.6534],[47.475491981863144,30.648129238512951,1.6153],[47.479907443770117,30.659315075343955,0.262],[47.490504552346863,30.662553080742413,0.0],[47.5169973237887,30.661964352488127,0.0],[47.517291687915844,30.66402490137807,0.0],[47.5187635085515,30.668734727412158,0.0],[47.522884606331331,30.673444553446274,0.2783],[47.53024370950962,30.676093830590446,0.0],[47.530538073636762,30.673738917573417,0.0],[47.538191540942194,30.66402490137807,0.0],[47.540840818086366,30.661964352488127,0.4207],[47.567039225401089,30.66402490137807,0.8854],[47.633271154005712,30.682569841387362,0.8134],[47.624440230191766,30.704647150922227,0.876],[47.603246013038273,30.712006254100515,0.7819]]]]}}