{"type":"Feature","properties":{"GID_2":"IRQ.3.3_1","GID_0":"IRQ","country":"Iraq","GID_1":"IRQ.3_1","province":"Al-Muthannia","NL_NAME_1":"NA","county":"AsSamawah","VARNAME_2":"NA","NL_NAME_2":"NA","TYPE_2":"Kaza","ENGTYPE_2":"District","CC_2":"NA","HASC_2":"NA","name":"As_Samawah.county"},
"geometry":{"type": "MultiPolygon","coordinates": [[[[45.4778,31.3405,7.9318],[45.4628,31.3497,8.0582],[45.4549,31.3513,8.7606],[45.4274,31.3448,9.5523],[45.3388,31.3445,9.8581],[45.3235,31.3454,10.0668],[45.3043,31.3518,9.7642],[45.2582,31.3535,9.6296],[45.248,31.3588,10.2558],[45.2378,31.3703,10.5016],[45.235,31.3778,9.9087],[45.232,31.396,10.8497],[45.2247,31.405,9.9822],[45.214,31.4088,10.0707],[45.1949,31.408,9.93],[45.1886,31.4034,11.396],[45.184,31.3818,10.2454],[45.1709,31.3516,10.2815],[45.1711,31.338,10.5265],[45.1757,31.3242,10.8731],[45.1756,31.3175,11.2988],[45.1587,31.2904,11.9787],[45.1511,31.2818,12.1256],[45.1412,31.2747,19.1213],[45.1263,31.2733,23.1779],[45.119,31.2751,24.6576],[45.1013,31.2865,17.1177],[45.0947,31.2868,14.4562],[45.047,31.2705,13.8191],[45.0432,31.2671,14.7283],[45.03,31.2453,17.8373],[45.037,31.2271,18.4443],[45.0465,31.2103,23.5629],[45.0602,31.1992,26.041],[45.0705,31.1855,29.3642],[45.0822,31.1743,28.2247],[45.105,31.1641,23.5568],[45.1195,31.1482,22.4339],[45.1451,31.144,24.5392],[45.1532,31.1404,23.1494],[45.1744,31.1233,29.4173],[45.2012,31.1086,29.0944],[45.2232,31.084,35.5343],[45.2528,31.0719,30.6741],[45.2846,31.0556,24.3552],[45.3059,31.0335,27.5131],[45.3189,31.027,25.5456],[45.3492,31.0214,21.7733],[45.3526,31.038,20.5564],[45.3541,31.0799,12.7962],[45.3604,31.0989,10.8845],[45.3632,31.1244,9.5006],[45.3711,31.1404,10.4739],[45.3893,31.1619,8.7833],[45.3928,31.1706,8.7649],[45.3945,31.2483,9.6748],[45.399,31.2546,9.2877],[45.4223,31.2629,8.8391],[45.4536,31.265,8.5084],[45.462,31.2683,8.486],[45.4654,31.2766,8.6203],[45.4678,31.2998,9.5917],[45.4794,31.3275,7.5091],[45.4797,31.3353,7.4307],[45.4778,31.3405,7.9318]]]]}}