{"type":"Feature","properties":{"GID_2":"IRQ.9.3_1","GID_0":"IRQ","country":"Iraq","GID_1":"IRQ.9_1","province":"Babil","NL_NAME_1":"NA","county":"AlHillah","VARNAME_2":"NA","NL_NAME_2":"NA","TYPE_2":"Kaza","ENGTYPE_2":"District","CC_2":"NA","HASC_2":"NA","name":"Al_Hillah.county"},
"geometry":{"type": "MultiPolygon","coordinates": [[[[44.4647,32.1477,22.1008],[44.4719,32.1578,21.5438],[44.479,32.173,20.1093],[44.4855,32.1784,19.6565],[44.5002,32.1845,19.4367],[44.5055,32.1889,19.5018],[44.5077,32.1955,19.8157],[44.5071,32.2025,19.5111],[44.4909,32.2506,20.1768],[44.4881,32.2551,20.1205],[44.4765,32.2664,20.1642],[44.4588,32.2739,21.0915],[44.4543,32.2802,22.2384],[44.4509,32.3063,25.3682],[44.4472,32.3161,25.2927],[44.4432,32.3384,26.6288],[44.4351,32.3623,26.9439],[44.429,32.3711,27.774],[44.4135,32.3875,26.7011],[44.4075,32.3965,26.291],[44.406,32.4041,26.367],[44.4071,32.4149,27.3533],[44.4128,32.4242,27.298],[44.4174,32.427,28.6688],[44.4043,32.4482,27.6362],[44.3859,32.4632,30.6644],[44.3681,32.4849,26.01],[44.3529,32.4931,25.7252],[44.3023,32.5093,27.2906],[44.292,32.5109,28.7462],[44.2713,32.511,27.3454],[44.2664,32.5099,27.7609],[44.2573,32.5041,33.9208],[44.2432,32.502,30.7421],[44.2314,32.4965,27.9743],[44.2257,32.4911,27.564],[44.2552,32.4601,28.7751],[44.2635,32.4472,29.6104],[44.2713,32.4305,27.1357],[44.28,32.3906,26.6058],[44.2867,32.3133,25.2438],[44.2892,32.2995,24.3781],[44.2977,32.2919,25.0911],[44.3042,32.2823,24.183],[44.3075,32.2739,23.9924],[44.3077,32.2535,23.0787],[44.304,32.241,30.3839],[44.284,32.2094,31.9795],[44.278,32.1929,34.6211],[44.2764,32.1625,38.9781],[44.278,32.1421,41.8613],[44.2829,32.1272,43.2825],[44.2947,32.1098,41.6904],[44.3079,32.0965,41.0089],[44.315,32.0927,38.5758],[44.3207,32.092,38.1088],[44.3329,32.0954,33.579],[44.3508,32.1037,26.2949],[44.3975,32.1381,23.3787],[44.4265,32.1533,22.1158],[44.4382,32.1539,22.2012],[44.4647,32.1477,22.1008]]]]}}