{"type":"Feature","properties":{"GID_2":"IRQ.8.4_1","GID_0":"IRQ","country":"Iraq","GID_1":"IRQ.8_1","province":"At-Ta'mim","NL_NAME_1":"NA","county":"Kirkuk","VARNAME_2":"NA","NL_NAME_2":"NA","TYPE_2":"Kaza","ENGTYPE_2":"District","CC_2":"NA","HASC_2":"NA","name":"Kirkuk.county"},
"geometry":{"type": "MultiPolygon","coordinates": [[[[44.0774,35.7669,385.3681],[44.0808,35.7581,390.86],[44.0863,35.7501,377.6327],[44.1038,35.737,328.3105],[44.1078,35.7304,282.3964],[44.1064,35.7205,275.3974],[44.0914,35.6924,251.2293],[44.0846,35.6882,232.8959],[44.0573,35.6867,259.0512],[44.0467,35.6831,241.2665],[44.0394,35.6743,231.62],[44.035,35.6521,226.2271],[44.0306,35.6457,225.2554],[44.0244,35.6413,230.2488],[43.986,35.6374,220.4353],[43.9504,35.6196,214.1718],[43.939,35.6086,211.4503],[43.9302,35.5945,208.1971],[43.9196,35.589,207.2763],[43.9067,35.578,227.4852],[43.8954,35.5731,237.2753],[43.8865,35.5652,212.9378],[43.8789,35.5551,205.575],[43.8775,35.5506,203.1796],[43.8774,35.5394,198.3601],[43.8911,35.4992,215.4068],[43.8929,35.4884,216.7346],[43.892,35.4659,219.8548],[43.8851,35.442,221.2379],[43.8856,35.433,217.2124],[43.8894,35.4245,216.2483],[43.8972,35.4177,214.5992],[43.9243,35.4032,214.631],[43.9359,35.3917,213.4858],[43.9462,35.3781,212.3375],[43.983,35.3579,210.1017],[43.9967,35.3401,207.4458],[44.0093,35.3302,208.1039],[44.0217,35.328,207.075],[44.0643,35.3277,211.2363],[44.0761,35.3234,210.873],[44.0877,35.312,212.245],[44.1008,35.2923,215.9646],[44.1227,35.2744,215.0565],[44.1301,35.2595,213.7727],[44.1295,35.2536,213.2462],[44.1237,35.2494,211.3372],[44.0887,35.2477,204.9281],[44.0819,35.2457,203.4224],[44.064,35.2245,198.1642],[44.04,35.2006,191.9694],[44.0313,35.1942,188.4059],[44.0096,35.1823,182.4724],[43.9991,35.1691,183.0742],[43.9911,35.1625,181.6628],[43.9695,35.1506,179.0777],[43.9665,35.147,178.5302],[43.9646,35.1404,177.5908],[43.9631,35.1068,174.2165],[43.9593,35.0971,176.1347],[43.9337,35.0601,168.2629],[43.9221,35.0377,162.0041],[43.9098,35.0201,167.2294],[43.8977,34.9987,180.4951],[43.8941,34.9957,181.8287],[43.8761,34.9882,191.7035],[43.868,34.981,198.1652],[43.8617,34.9723,207.3015],[43.8569,34.958,231.5452],[43.8437,34.9293,279.6188],[43.8532,34.9224,274.0884],[43.9409,34.8788,265.923],[43.9581,34.8739,268.1058],[43.9794,34.8733,260.4061],[43.984,34.8795,275.8531],[43.9865,34.8896,249.9468],[43.9881,34.936,176.3114],[43.9906,34.9438,172.7526],[43.9988,34.9579,163.9084],[44.013,34.966,156.4345],[44.0208,34.9683,156.3008],[44.0554,34.9693,161.2923],[44.0641,34.9725,164.1734],[44.0724,34.9863,163.9558],[44.0794,35.0051,162.9267],[44.0933,35.0153,165.8135],[44.1218,35.0423,169.0273],[44.1388,35.0529,172.0671],[44.1567,35.0683,175.8792],[44.1664,35.0745,177.479],[44.1833,35.1009,182.6225],[44.2255,35.1338,191.9057],[44.2432,35.1858,204.5317],[44.243899999999996,35.3027,234.1576],[44.245,35.3114,237.4236],[44.2476,35.3165,237.1954],[44.2647,35.326,246.7535],[44.2873,35.3297,250.0181],[44.3112,35.3378,256.4472],[44.3202,35.3452,257.686],[44.3278,35.3558,271.3617],[44.333,35.3584,267.9759],[44.3672,35.3618,286.9649],[44.3891,35.3792,293.0624],[44.3966,35.3825,297.5017],[44.4107,35.3837,299.2769],[44.4752,35.3831,328.2777],[44.4869,35.3856,353.1385],[44.4901,35.3887,381.8028],[44.4921,35.3953,412.1187],[44.4907,35.4102,407.9514],[44.4827,35.4265,381.3939],[44.4642,35.4481,395.1861],[44.4553,35.4647,405.5922],[44.4545,35.4745,420.8147],[44.4591,35.482,445.6534],[44.4819,35.5087,500.7117],[44.5106,35.5136,535.2438],[44.5259,35.5308,591.3533],[44.5531,35.5411,576.8019],[44.5947,35.5438,627.2075],[44.6124,35.5487,629.8388],[44.6296,35.5437,675.2379],[44.6388,35.5432,697.0762],[44.6477,35.5448,692.7865],[44.6599,35.5497,695.5753],[44.6762,35.5507,710.7634],[44.6766,35.5771,628.6371],[44.681,35.6021,744.0455],[44.6892,35.622,662.9895],[44.7103,35.6541,753.271],[44.7146,35.6682,767.2714],[44.7134,35.6808,776.0702],[44.7097,35.6894,760.9047],[44.7051,35.695,756.3544],[44.6569,35.7265,767.8723],[44.64,35.7453,677.0111],[44.6255,35.768,740.7061],[44.5924,35.8273,626.1099],[44.5863,35.8436,437.9357],[44.5836,35.8566,352.6564],[44.5716,35.8622,329.0994],[44.5624,35.8637,349.2316],[44.5393,35.8615,363.8601],[44.4935,35.8487,343.5906],[44.4773,35.8481,388.8353],[44.4219,35.8508,303.1171],[44.4037,35.8466,304.5317],[44.3314,35.8197,301.1134],[44.3111,35.8142,371.1101],[44.2922,35.8112,402.0309],[44.2759,35.8118,379.5641],[44.2639,35.8148,362.6617],[44.246,35.8237,318.3254],[44.2374,35.8305,281.7159],[44.1517,35.8311,315.2751],[44.1375,35.8298,315.7651],[44.1242,35.8238,314.4213],[44.1209,35.8196,313.0223],[44.1117,35.795,271.8635],[44.105,35.7842,283.964],[44.0896,35.7727,337.0374],[44.0774,35.7669,385.3681]]]]}}