{"type":"Feature","properties":{"GID_2":"IRQ.13.4_1","GID_0":"IRQ","country":"Iraq","GID_1":"IRQ.13_1","province":"Diyala","NL_NAME_1":"NA","county":"BaladRuz","VARNAME_2":"NA","NL_NAME_2":"NA","TYPE_2":"Kaza","ENGTYPE_2":"District","CC_2":"NA","HASC_2":"NA","name":"Balad_Ruz.county"},
"geometry":{"type": "MultiPolygon","coordinates": [[[[45.7473,33.6489,170.9564],[45.7101,33.6744,154.3434],[45.6831,33.7005,137.6136],[45.662,33.7262,145.9717],[45.659,33.754,173.4023],[45.6543,33.7648,205.0744],[45.6442,33.7774,289.3798],[45.6168,33.7973,221.6517],[45.6105,33.8097,201.556],[45.5976,33.8253,283.6032],[45.5872,33.8438,262.4365],[45.5535,33.8825,318.2649],[45.5414,33.9013,336.9544],[45.5247,33.9318,239.9607],[45.5163,33.9385,267.6027],[45.5062,33.9409,272.6557],[45.4812,33.9327,235.3273],[45.4717,33.9325,214.1822],[45.4586,33.9349,198.7272],[45.4446,33.9413,184.3224],[45.4313,33.9579,169.6002],[45.4128,33.9716,138.9167],[45.4234,33.9765,141.3065],[45.4126,33.9786,121.5269],[45.4044,33.9823,125.5616],[45.3943,33.9912,159.6391],[45.3891,33.9983,144.671],[45.3846,34.0138,170.6432],[45.3822,34.0372,205.3804],[45.3743,34.0532,220.692],[45.3678,34.0586,227.479],[45.3622,34.0591,235.5961],[45.3571,34.0574,236.8965],[45.3529,34.0532,227.718],[45.3447,34.0326,200.2343],[45.3441,33.997,184.679],[45.3424,33.9823,168.3524],[45.3343,33.9671,153.3785],[45.3307,33.9641,141.7228],[45.3009,33.9598,124.4672],[45.279,33.9423,104.5027],[45.2716,33.939,100.8233],[45.2251,33.9373,81.5323],[45.2024,33.9305,65.5188],[45.16,33.9302,59.424],[45.1603,33.9065,51.3132],[45.1582,33.8958,49.6633],[45.1518,33.8872,47.8975],[45.1278,33.871,45.9828],[45.1157,33.8669,45.3931],[45.0893,33.8664,46.1719],[45.0769,33.8643,47.9394],[45.0688,33.858,45.6755],[45.0554,33.8394,44.8072],[45.0352,33.8284,42.2068],[45.0189,33.8265,41.5754],[44.9673,33.8269,41.8795],[44.9525,33.8257,42.016],[44.9444,33.8219,42.0083],[44.923,33.8052,47.9019],[44.8848,33.801,44.6755],[44.8645,33.7902,43.8548],[44.8511,33.7716,44.8235],[44.8432,33.7648,47.0171],[44.8002,33.7425,45.4379],[44.7595,33.7033,42.2604],[44.7504,33.6907,40.4793],[44.7505,33.6842,40.1225],[44.7648,33.6626,42.1644],[44.7668,33.6442,42.83],[44.7752,33.6255,42.319],[44.7748,33.6122,42.0429],[44.7735,33.6092,41.8202],[44.7672,33.6048,41.3225],[44.7416,33.6008,41.1154],[44.7306,33.5883,41.1263],[44.7223,33.5817,41.3597],[44.6997,33.5733,41.9203],[44.6877,33.5717,41.2311],[44.6933,33.5486,40.6346],[44.6897,33.5354,39.8454],[44.6905,33.5293,39.7283],[44.6935,33.5263,39.2064],[44.7077,33.5201,38.2791],[44.7095,33.5124,38.6383],[44.7018,33.4886,40.7126],[44.6972,33.4824,39.624],[44.6872,33.477,38.8755],[44.664,33.475,37.4635],[44.6591,33.4724,37.5721],[44.6564,33.4676,37.7024],[44.6551,33.4102,35.0351],[44.6535,33.401,34.433],[44.6483,33.3873,35.1281],[44.6447,33.3523,36.0766],[44.6471,33.3349,35.9426],[44.6477,33.3057,35.6478],[44.6426,33.3017,35.0848],[44.6355,33.3004,35.0001],[44.5538,33.3003,33.0304],[44.5313,33.2966,33.0197],[44.5243,33.2781,31.5435],[44.5128,33.2034,34.022],[44.5066,33.1883,29.8015],[44.499,33.181,30.4729],[44.4992,33.1645,34.4807],[44.502,33.1554,31.958],[44.5072,33.149,30.3269],[44.5343,33.1247,29.8639],[44.5454,33.1083,31.0722],[44.5587,33.0612,29.9581],[44.5819,33.0529,31.1218],[44.6463,33.019,29.1899],[44.6622,33.0157,28.3608],[44.6727,33.0164,27.0],[44.6825,33.0194,28.3484],[44.6905,33.0248,28.7104],[44.6991,33.0342,28.4271],[44.7129,33.0544,27.1556],[44.7257,33.068,27.3809],[44.7804,33.1042,27.9388],[44.8172,33.136,28.903199999999998],[44.8385,33.144,29.4516],[44.8505,33.1455,28.2718],[44.882,33.1405,28.2437],[44.963,33.1184,30.7409],[45.3299,33.0418,20.373],[45.4082,33.0241,20.293],[45.42,33.0207,20.1935],[45.4376,33.0122,19.9324],[45.5006,33.029,20.5267],[45.5187,33.0369,20.8539],[45.5357,33.0483,21.8023],[45.5878,33.0977,25.0863],[45.6156,33.1285,26.5482],[45.6351,33.1567,29.3786],[45.6655,33.2077,35.7677],[45.6875,33.2332,38.7822],[45.7305,33.2694,45.0364],[45.8265,33.3419,62.0621],[45.8595,33.3638,78.508],[45.9047,33.3866,113.4547],[45.9212,33.4008,138.2143],[45.9322,33.4141,180.525],[45.9445,33.4344,159.2665],[45.9503,33.4517,181.0748],[45.9514,33.4647,200.002],[45.9477,33.485,301.7966],[45.9203,33.4838,301.5957],[45.8787,33.4869,212.9857],[45.874,33.4879,187.2477],[45.8713,33.4909,180.2479],[45.8724,33.4948,183.3907],[45.8788,33.4996,181.8591],[45.9379,33.5318,311.4482],[45.9502,33.5467,522.2529],[45.9516,33.5523,503.0271],[45.95,33.5648,479.039],[45.9385,33.5818,476.6469],[45.9285,33.5905,530.822],[45.9063,33.601,602.0241],[45.9102,33.623,392.5126],[45.907,33.6261,370.4971],[45.9008,33.6273,393.4318],[45.8794,33.6242,359.4035],[45.8629,33.6238,309.8668],[45.8434,33.6256,287.1399],[45.8169,33.6171,204.6255],[45.7822,33.5965,155.1996],[45.7659,33.59,136.2579],[45.7594,33.591,129.2281],[45.7552,33.5935,127.4381],[45.7543,33.6022,136.6872],[45.7748,33.6137,167.3744],[45.7772,33.6162,174.3608],[45.7772,33.6229,182.3006],[45.7668,33.6355,197.3948],[45.7473,33.6489,170.9564]]]]}}