{"type":"Feature","properties":{"GID_2":"IRQ.14.3_1","GID_0":"IRQ","country":"Iraq","GID_1":"IRQ.14_1","province":"Karbala'","NL_NAME_1":"NA","county":"Karbala","VARNAME_2":"NA","NL_NAME_2":"NA","TYPE_2":"Kaza","ENGTYPE_2":"District","CC_2":"NA","HASC_2":"NA","name":"Karbala.county"},
"geometry":{"type": "MultiPolygon","coordinates": [[[[43.7507,32.7031,26.9088],[43.7567,32.6891,26.5341],[43.7581,32.6804,26.3362],[43.7584,32.6381,25.1968],[43.7567,32.6281,28.5049],[43.7514,32.6137,18.5],[43.7485,32.5882,21.4407],[43.7433,32.5738,21.8482],[43.7416,32.5532,23.9459],[43.7283,32.5148,34.14],[43.7244,32.4924,40.1939],[43.7161,32.4687,41.9116],[43.7086,32.4598,45.7551],[43.6979,32.4522,47.2512],[43.6953,32.4471,48.5023],[43.6932,32.4094,47.1849],[43.687,32.3903,44.7219],[43.6852,32.3698,44.039],[43.6789,32.3504,45.4495],[43.676,32.325,50.9701],[43.672,32.3154,54.5606],[43.6679,32.2931,64.6416],[43.6547,32.2551,83.3889],[43.6528,32.2258,89.5431],[43.6466,32.2068,94.1563],[43.6449,32.1862,96.6621],[43.6312,32.1471,108.0824],[43.626,32.127,115.8033],[43.6215,32.1208,119.2717],[43.6442,32.0983,157.5569],[43.6614,32.0888,147.4933],[43.6667,32.095,145.0918],[43.6756,32.1002,146.4941],[43.7185,32.1177,136.2297],[44.0535,32.2296,90.2522],[44.1453,32.2621,65.2016],[44.1653,32.2717,61.0056],[44.1561,32.2931,58.7901],[44.1439,32.3128,61.6451],[44.1322,32.3238,60.785],[44.092,32.3501,68.1747],[44.0872,32.3563,69.9593],[44.0709,32.388,70.4702],[44.0624,32.4093,68.4361],[44.0616,32.4803,47.4722],[44.0597,32.4905,49.8059],[44.054,32.5035,50.2054],[44.0513,32.5155,50.7151],[44.0554,32.5306,38.355],[44.0633,32.5391,34.7381],[44.1004,32.5537,26.5075],[44.1151,32.5684,28.173],[44.1271,32.5752,30.3585],[44.1418,32.5861,27.6282],[44.161,32.6233,30.8726],[44.1615,32.6285,32.5192],[44.1588,32.6349,26.7037],[44.157,32.6488,28.3211],[44.1535,32.6536,32.0327],[44.143,32.656,33.8085],[44.1403,32.6588,33.2336],[44.1314,32.6771,31.805],[44.1303,32.6907,31.2022],[44.1077,32.6908,29.2272],[44.0943,32.6947,30.6159],[44.0895,32.694,29.3326],[44.0663,32.6979,28.3436],[43.9702,32.7249,24.3837],[43.9225,32.7325,30.5705],[43.8684,32.7306,33.8331],[43.8164,32.7242,20.3581],[43.78,32.7151,28.5563],[43.7507,32.7031,26.9088]]]]}}