{"type":"Feature","properties":{"GID_1":"IRQ.3_1","GID_0":"IRQ","country":"Iraq","province":"Al-Muthannia","VARNAME_1":"Al-Muthanna","NL_NAME_1":"NA","TYPE_1":"Muhafazah","ENGTYPE_1":"Province","CC_1":"NA","HASC_1":"IQ.MU","ISO_1":"NA","name":"Al-Muthannia.province"},
"geometry":{"type": "MultiPolygon","coordinates": [[[[46.5478,30.5421,34.0202],[46.5429,30.5611,26.7854],[46.5242,30.5747,29.1292],[46.5005,30.5981,24.69],[46.4535,30.6533,23.1818],[46.4037,30.7176,15.8689],[46.3886,30.7343,13.7172],[46.3805,30.7409,12.5463],[46.3599,30.7504,11.4886],[46.3309,30.7575,11.1057],[46.2971,30.7614,15.8211],[46.2447,30.7643,19.2507],[46.2077,30.769,4.4414],[46.1456,30.771,4.4255],[45.9728,30.7872,5.4604],[45.893,30.7955,5.6458],[45.7805,30.8114,5.009],[45.7331,30.8191,7.4167],[45.7087,30.8248,9.5786],[45.674,30.8397,16.9165],[45.6525,30.8535,12.7605],[45.6446,30.8896,10.4693],[45.642,30.9099,5.4708],[45.6432,30.9376,5.1503],[45.6499,30.9617,5.4041],[45.6564,30.9731,5.1384],[45.6884,31.0152,5.766],[45.7124,31.058,6.6208],[45.7198,31.0659,6.5578],[45.7261,31.0701,6.661],[45.7642,31.0837,8.1829],[45.7692,31.0879,8.1018],[45.7728,31.0941,7.8728],[45.7742,31.1012,7.3079],[45.7737,31.1084,7.2148],[45.7686,31.1215,6.9352],[45.7455,31.1509,6.5059],[45.7382,31.1624,6.1154],[45.7339,31.1734,7.1902],[45.7317,31.1895,6.2615],[45.7332,31.2012,6.9596],[45.7412,31.2245,7.2291],[45.7695,31.2745,6.6306],[45.7721,31.2839,6.536],[45.7719,31.2938,6.2378],[45.7682,31.3029,6.6755],[45.7563,31.3132,6.7802],[45.7335,31.3242,7.1783],[45.7304,31.3228,7.5558],[45.7234,31.3245,7.1297],[45.7172,31.3298,7.1744],[45.7135,31.3383,7.0402],[45.7128,31.3448,6.9837],[45.7161,31.3589,6.6548],[45.7214,31.3677,6.3702],[45.753,31.4004,6.0255],[45.767,31.4179,6.558],[45.7779,31.4371,6.3398],[45.7806,31.4453,7.2871],[45.782,31.4559,6.9245],[45.7806,31.4717,6.471],[45.7684,31.5114,7.3791],[45.7668,31.5236,7.5017],[45.7689,31.5333,7.2135],[45.7871,31.5619,8.8791],[45.7898,31.5768,7.7363],[45.7882,31.588,7.2392],[45.785,31.5962,7.0856],[45.7779,31.6072,7.7091],[45.7661,31.6194,8.1881],[45.755,31.6188,7.5266],[45.7357,31.6116,7.1777],[45.7022,31.6115,7.984],[45.5741,31.6453,7.8069],[45.4179,31.6741,11.7883],[45.3772,31.6789,11.0311],[45.3053,31.6831,11.9851],[45.258,31.6827,13.2103],[45.1828,31.6768,13.8638],[45.1415,31.6692,14.1173],[45.0471,31.6452,15.832],[45.0311,31.6368,15.4643],[45.0269,31.6321,14.7272],[45.0244,31.6214,14.6308],[45.0281,31.6108,14.6563],[45.0585,31.5711,13.2482],[45.0648,31.5584,12.7257],[45.0676,31.5466,13.0029],[45.0681,31.5344,12.3933],[45.0665,31.5224,12.1976],[45.0625,31.5108,11.6311],[45.0559,31.4993,10.7881],[45.0281,31.4659,12.6773],[45.0076,31.4183,12.0869],[44.985,31.3828,12.7444],[44.9768,31.3663,13.5033],[44.9696,31.3463,15.3975],[44.9646,31.3246,14.6812],[44.9582,31.2613,24.4893],[44.942,31.2576,24.5051],[44.9243,31.2567,25.5647],[44.8953,31.2581,32.6543],[44.8767,31.2626,36.9327],[44.851,31.2774,33.2306],[44.8104,31.3094,39.4486],[44.743899999999996,31.3548,36.1149],[44.7001,31.3728,52.2519],[44.6627,31.3814,50.5689],[44.655,31.3462,58.4123],[44.6347,31.2792,72.6481],[44.553,31.0548,151.2931],[44.5479,31.0336,159.4232],[44.5342,30.9385,185.163],[44.521,30.8951,191.9401],[44.507,30.8639,201.1816],[44.4928,30.8432,205.1284],[44.4694,30.8149,213.2013],[44.4457,30.7912,222.1344],[44.4289,30.7768,230.963],[44.3929,30.7533,236.022],[44.2615,30.687,257.4533],[44.2435,30.6735,265.3268],[44.2202,30.6447,276.4938],[44.1993,30.6114,285.1602],[44.183,30.5795,299.8918],[44.1389,30.4773,319.6144],[44.0707,30.3321,346.0969],[44.0601,30.3064,353.4065],[44.055,30.2859,333.7999],[44.0537,30.2722,339.7913],[44.0527,30.2158,367.1637],[44.0508,30.1882,367.2412],[44.0479,30.1752,354.269],[44.0376,30.1529,348.4471],[44.0107,30.1102,350.9956],[43.9809,30.0694,374.2419],[43.9199,30.0036,401.5329],[43.8845,29.9579,420.2441],[43.8202,29.8673,415.6045],[44.5134,29.3545,370.2346],[44.5342,29.3344,363.8759],[44.6776,29.225,393.0219],[44.7065,29.2049,380.0257],[44.7152,29.196,358.0183],[44.7269,29.1917,353.8741],[44.7633,29.1918,373.632],[44.7707,29.1896,375.9474],[44.7974,29.1872,364.6644],[44.8336,29.187,362.7645],[44.9056,29.1823,359.3234],[44.9783,29.1747,367.9688],[45.0291,29.1723,356.7485],[45.0367,29.1699,358.4101],[45.0527,29.1684,359.3597],[45.1228,29.1637,349.4876],[45.3743,29.142,344.1203],[45.5185,29.1348,338.271],[45.6926,29.1223,310.3968],[45.8195,29.1081,327.1332],[45.9867,29.0984,324.8472],[46.2203,29.0777,310.9588],[46.2727,29.0703,305.7992],[46.2796,29.0714,305.8446],[46.4245,29.0586,304.4079],[46.4779,29.0712,279.0195],[46.4989,29.0816,256.396],[46.5135,29.086,244.8282],[46.5229,29.0914,235.8949],[46.5426,29.098,222.3494],[46.6156,29.1686,214.929],[46.6066,29.178,226.3985],[46.6006,29.1871,238.8978],[46.5954,29.1992,247.9424],[46.592,29.2136,256.2467],[46.5906,29.2366,266.3967],[46.592,29.2816,270.5417],[46.595,29.3122,266.035],[46.6102,29.3928,267.7799],[46.6182,29.4487,256.2696],[46.6224,29.5188,247.3559],[46.6295,29.5951,233.8481],[46.6523,29.7726,193.0187],[46.6646,29.9287,155.6211],[46.6649,29.9964,138.5265],[46.6605,30.0498,124.4283],[46.6577,30.0662,111.334],[46.6274,30.1786,102.7798],[46.6143,30.238,96.3448],[46.5828,30.3498,71.3641],[46.5607,30.4642,52.4617],[46.5478,30.5421,34.0202]]]]}}