{"type":"Feature","properties":{"ISO3166-1-Alpha-3":"IRQ","country":"Iraq","fill":"#000","id":"3223","name":"Al-Muthannia"},
"geometry":{"type": "Polygon","coordinates": [[[45.71311,31.63719,8.7072],[45.53606,31.68672,10.1277],[45.29205,31.7276,12.7339],[45.22011,31.72964,13.3004],[45.20988,31.71458,13.0531],[45.04803,31.68148,16.1813],[45.02488,31.6792,16.368],[45.03625,31.66926,15.9148],[45.04586,31.66473,15.7857],[45.06364,31.65908,15.3817],[45.07046,31.65561,15.4787],[45.07666,31.6467,15.1084],[45.08131,31.63512,14.9026],[45.08803,31.62512,14.7159],[45.11015,31.61637,14.2964],[45.1086,31.6014,14.1755],[45.0932,31.56546,13.4321],[45.06209,31.51327,11.7939],[44.99935,31.36669,13.8987],[44.97827,31.26264,20.2776],[44.89724,31.3,16.9613],[44.72691,31.40746,27.3911],[44.65126,31.05493,137.6658],[44.62707,31.00694,153.6479],[44.57943,30.93434,181.7186],[44.53302,30.89801,191.0709],[44.49406,30.85863,198.0073],[44.44538,30.79308,223.2587],[44.43856,30.78897,225.2141],[44.3782,30.76714,235.7409],[44.3287,30.73606,244.3768],[44.31299,30.72241,248.2748],[44.27195,30.67624,265.4746],[44.2364,30.61529,277.6034],[44.05636,30.16697,368.2627],[43.83684,29.8333,445.8242],[43.82401,29.81398,451.7921],[43.89006,29.76738,396.1797],[44.00463,29.68661,397.6534],[44.11915,29.60582,422.9113],[44.23366,29.52499,396.0983],[44.32895,29.45779,390.6171],[44.4243,29.39053,373.0667],[44.51974,29.32333,375.0291],[44.61488,29.25607,380.7215],[44.69182,29.20184,392.7461],[44.69823,29.19972,389.6],[44.70464,29.1975,384.0384],[44.71089,29.19527,362.062],[44.71746,29.1931,356.5727],[44.80892,29.18589,358.6522],[44.88871,29.17951,360.3962],[44.96829,29.17326,371.4348],[45.04782,29.1669,360.3527],[45.12746,29.16062,347.8077],[45.22998,29.15246,357.8721],[45.33241,29.14437,344.3963],[45.43493,29.13621,332.5925],[45.53741,29.12812,331.2227],[45.63988,29.12003,312.1046],[45.74241,29.11187,313.1749],[45.84493,29.10375,329.2044],[45.94736,29.09564,323.4886],[46.02363,29.0896,319.0923],[46.0997,29.08357,318.6352],[46.17592,29.07748,311.7288],[46.25214,29.07146,306.7266],[46.35746,29.06314,304.5196],[46.40118,29.07128,303.9279],[46.42732,29.07614,304.5591],[46.4449,29.07941,301.9515],[46.48861,29.08758,270.2849],[46.53244,29.09574,228.1819],[46.56147,29.12417,225.118],[46.56163,29.12494,223.5236],[46.5669,29.14959,234.1326],[46.58861,29.3511,267.2142],[46.59657,29.37717,270.9956],[46.60835,29.40001,266.1534],[46.64525,29.45588,252.9759],[46.64948,29.48156,250.3516],[46.65041,29.60974,232.5932],[46.66282,29.71077,202.2149],[46.74457,30.0893,109.5401],[46.74478,30.11785,107.2018],[46.74167,30.14354,101.3869],[46.73568,30.16356,100.0235],[46.727,30.18237,89.9539],[46.62871,30.30642,81.4285],[46.61589,30.33164,74.9745],[46.60742,30.35985,70.049],[46.5913,30.45225,50.4025],[46.57466,30.51408,35.5993],[46.54158,30.50726,42.6251],[46.52825,30.50775,46.1864],[46.51523,30.51641,43.8516],[46.50448,30.52938,42.6261],[46.46314,30.60276,25.9584],[46.37136,30.7335,15.7614],[46.21065,30.78231,9.5111],[45.71982,30.83763,5.267],[45.70598,30.97731,5.1919],[45.71176,30.99919,5.0204],[45.7159,31.02888,5.4269],[45.72137,31.0473,5.6312],[45.72613,31.07294,6.861],[45.73378,31.08645,7.4189],[45.74897,31.08792,7.6376],[45.76912,31.08177,8.2071],[45.78142,31.0834,7.7577],[45.78845,31.09368,7.1883],[45.79434,31.12441,6.7747],[45.79558,31.14192,7.0415],[45.79228,31.15208,6.6785],[45.78628,31.15461,6.9375],[45.77822,31.15779,6.8356],[45.76633,31.16595,7.1499],[45.76251,31.16962,7.2639],[45.74318,31.17637,5.161],[45.74081,31.18706,6.2808],[45.75207,31.21923,6.7332],[45.80953,31.33561,5.6899],[45.75445,31.33762,6.4168],[45.72644,31.34186,6.8708],[45.72386,31.35586,6.3812],[45.73491,31.37429,7.5037],[45.80375,31.44824,6.7601],[45.80716,31.45979,5.9813],[45.80592,31.47301,7.3636],[45.7991,31.50358,6.5306],[45.79383,31.51495,7.5588],[45.78814,31.52154,7.5402],[45.78235,31.5227,7.0093],[45.77708,31.52448,7.6123],[45.77367,31.53027,6.9707],[45.77336,31.53924,7.1575],[45.77967,31.56084,8.211],[45.78463,31.56864,10.2425],[45.79031,31.57236,8.9915],[45.79589,31.57053,7.7269],[45.80116,31.56771,7.2294],[45.81119,31.56097,6.9992],[45.81553,31.56009,7.4548],[45.81946,31.56143,7.4726],[45.82163,31.56632,7.5717],[45.82256,31.57363,6.9779],[45.82111,31.58694,7.3744],[45.82173,31.60094,8.8277],[45.82297,31.60572,8.1091],[45.81739,31.6204,8.5849],[45.78576,31.65153,9.0163],[45.7775,31.64388,9.0097],[45.75579,31.63768,9.4957],[45.71311,31.63719,8.7072]]]}}