{"type":"Feature","properties":{"GID_2":"IRQ.18.4_1","GID_0":"IRQ","country":"Iraq","GID_1":"IRQ.18_1","province":"Wasit","NL_NAME_1":"NA","county":"AsSuwayrah","VARNAME_2":"NA","NL_NAME_2":"NA","TYPE_2":"Kaza","ENGTYPE_2":"District","CC_2":"NA","HASC_2":"NA","name":"As_Suwayrah.county"},
"geometry":{"type": "MultiPolygon","coordinates": [[[[44.4825,32.9296,27.8126],[44.484,32.9248,28.3762],[44.4935,32.9134,27.1621],[44.5281,32.8907,26.46],[44.5357,32.8832,25.4805],[44.5421,32.8732,25.2429],[44.5535,32.8401,25.0665],[44.5606,32.8034,25.3636],[44.5645,32.7941,25.757],[44.5705,32.7872,25.8433],[44.5877,32.778,27.3279],[44.6008,32.7752,27.1573],[44.6724,32.7706,24.446],[44.7143,32.7589,23.4091],[44.7329,32.7513,23.7756],[44.7533,32.7402,24.9473],[44.7938,32.708,25.2059],[44.8008,32.7042,24.0518],[44.8398,32.6934,23.1336],[44.8655,32.6815,22.0237],[44.8888,32.6648,21.9208],[44.9234,32.6322,22.1933],[44.9518,32.6014,21.668],[45.0187,32.523,21.6683],[45.0342,32.5074,21.0964],[45.078,32.4744,19.1836],[45.0945,32.4656,19.2515],[45.1623,32.4431,18.8103],[45.1846,32.434,18.4251],[45.1907,32.4375,18.201],[45.2075,32.4382,17.9944],[45.2146,32.4403,18.2937],[45.2204,32.446,18.0973],[45.2251,32.454,18.0027],[45.2313,32.48,18.3914],[45.2344,32.4832,18.8875],[45.2522,32.4907,19.3372],[45.2719,32.5099,19.2598],[45.2746,32.5145,20.2275],[45.2906,32.5626,19.8346],[45.2954,32.5843,19.4035],[45.3013,32.59,19.123],[45.3163,32.5978,18.7618],[45.3193,32.5977,18.8939],[45.3222,32.5954,18.9187],[45.327,32.5705,18.4308],[45.3331,32.5626,19.0627],[45.3405,32.5598,20.1281],[45.3571,32.5641,19.5542],[45.3644,32.5641,18.6606],[45.3766,32.5574,18.7054],[45.3863,32.5445,18.7287],[45.3899,32.5261,18.4018],[45.3943,32.5198,17.7749],[45.4005,32.5181,18.1218],[45.4076,32.519,18.2972],[45.4525,32.5414,18.0492],[45.4533,32.5501,18.293],[45.4583,32.5615,19.021],[45.4626,32.5843,20.2014],[45.468,32.5983,19.0814],[45.4695,32.684,17.3468],[45.4753,32.6945,16.6705],[45.4876,32.7028,16.3487],[45.492,32.7095,16.1623],[45.4937,32.7548,17.0625],[45.497,32.7688,17.6157],[45.471,32.7754,18.1674],[45.4582,32.7822,18.7045],[45.4539,32.7891,18.28],[45.4524,32.8273,17.9719],[45.4471,32.8414,18.0133],[45.4455,32.8504,18.5411],[45.4451,32.9716,19.2889],[45.4388,32.9944,19.5231],[45.4376,33.0122,19.9324],[45.42,33.0207,20.1935],[45.3299,33.0418,20.373],[44.963,33.1184,30.7409],[44.882,33.1405,28.2437],[44.8505,33.1455,28.2718],[44.8385,33.144,29.4516],[44.8269,33.1405,28.6975],[44.8089,33.1301,28.9653],[44.7804,33.1042,27.9388],[44.7257,33.068,27.3809],[44.7129,33.0544,27.1556],[44.6991,33.0342,28.4271],[44.6905,33.0248,28.7104],[44.6825,33.0194,28.3484],[44.6727,33.0164,27.0],[44.6622,33.0157,28.3608],[44.6463,33.019,29.1899],[44.5819,33.0529,31.1218],[44.5587,33.0612,29.9581],[44.5536,33.0396,32.0843],[44.5536,33.0097,35.3461],[44.5492,32.9985,26.5789],[44.5417,32.9911,29.0634],[44.5145,32.9808,29.4719],[44.4984,32.9687,27.8436],[44.4884,32.9531,27.728],[44.4825,32.9296,27.8126]]]]}}