{"type":"Feature","properties":{"GID_2":"IRQ.15.4_1","GID_0":"IRQ","country":"Iraq","GID_1":"IRQ.15_1","province":"Maysan","NL_NAME_1":"NA","county":"AlMijaralKabir","VARNAME_2":"NA","NL_NAME_2":"NA","TYPE_2":"Kaza","ENGTYPE_2":"District","CC_2":"NA","HASC_2":"NA","name":"Al_Mijaral_Kabir.county"},
"geometry":{"type": "MultiPolygon","coordinates": [[[[47.3596,31.278199999999998,1.5598],[47.355,31.2845,1.6358],[47.3521,31.3,1.7985],[47.3521,31.4179,0.8452],[47.3502,31.4331,2.9053],[47.3346,31.4652,3.1933],[47.3289,31.4729,3.7396],[47.301,31.5006,4.7455],[47.2786,31.5162,5.2256],[47.2728,31.5269,4.6316],[47.2722,31.5575,4.7545],[47.2734,31.5749,5.745],[47.2764,31.5856,4.7708],[47.2659,31.6259,5.3862],[47.2637,31.6444,4.0842],[47.2583,31.6584,3.6586],[47.2573,31.6658,4.455],[47.2586,31.6731,4.7841],[47.2638,31.6844,6.1061],[47.2647,31.6933,6.2766],[47.2533,31.7097,6.6267],[47.247,31.7281,6.4496],[47.2438,31.7317,6.2379],[47.2246,31.7407,5.9251],[47.2083,31.7415,5.4241],[47.1865,31.7395,3.9175],[47.1809,31.7373,3.9543],[47.1906,31.7138,4.057],[47.1891,31.7052,3.7954],[47.1678,31.6895,6.7792],[47.1509,31.6792,5.5566],[47.1309,31.66,5.9535],[47.1228,31.6488,5.314],[47.1196,31.6234,5.0619],[47.1135,31.604,5.0016],[47.1106,31.5786,4.4371],[47.0742,31.4733,3.1711],[47.0725,31.4634,2.8482],[47.0729,31.368,1.0979],[47.0791,31.3492,0.8114],[47.082,31.3313,0.6631],[47.086,31.3216,2.6128999999999998],[47.09,31.2994,1.0543],[47.0939,31.2897,0.8107],[47.1058,31.2355,0.2034],[47.1416,31.1638,0.361],[47.1435,31.1429,0.3006],[47.1541,31.1429,0.4093],[47.1636,31.1463,0.371],[47.1755,31.1428,0.2035],[47.1997,31.1925,0.7164],[47.2118,31.2053,0.8586],[47.24,31.225,1.1929],[47.2692,31.2431,1.0972],[47.3336,31.2622,1.3877],[47.3469,31.2682,1.5931],[47.3596,31.278199999999998,1.5598]]]]}}