{"type":"Feature","properties":{"GID_2":"IRQ.17.7_1","GID_0":"IRQ","country":"Iraq","GID_1":"IRQ.17_1","province":"Salaad-Din","NL_NAME_1":"NA","county":"Tikrit","VARNAME_2":"NA","NL_NAME_2":"NA","TYPE_2":"Kaza","ENGTYPE_2":"District","CC_2":"NA","HASC_2":"NA","name":"Tikrit.county"},
"geometry":{"type": "MultiPolygon","coordinates": [[[[43.9794,34.8733,260.4061],[43.9581,34.8739,268.1058],[43.9409,34.8788,265.923],[43.8532,34.9224,274.0884],[43.8437,34.9293,279.6188],[43.8012,34.9488,300.6397],[43.6753,35.0118,398.4066],[43.6469,35.0241,310.4011],[43.5955,35.0396,185.6561],[43.564,35.0442,110.5],[43.5363,35.0454,169.4051],[43.5191,35.0329,150.4248],[43.5072,35.0191,143.4129],[43.4862,34.9999,138.6198],[43.4781,34.9888,139.3948],[43.477,34.9841,132.6045],[43.478,34.9745,128.5758],[43.4904,34.9488,115.2236],[43.4937,34.9321,109.7236],[43.4932,34.9266,108.588],[43.4699,34.9012,125.4508],[43.4458,34.8533,137.5049],[43.4366,34.8245,149.3271],[43.4364,34.7666,148.818],[43.4384,34.7599,149.4198],[43.4478,34.7505,147.6632],[43.4501,34.7455,148.4423],[43.4503,34.7386,147.6116],[43.4459,34.7224,152.5474],[43.4503,34.705,158.8932],[43.4527,34.6831,167.6544],[43.4554,34.6783,166.7236],[43.4601,34.6753,166.096],[43.4948,34.6649,147.5404],[43.4998,34.6608,146.1875],[43.4983,34.6474,150.0204],[43.4796,34.612,144.5214],[43.4707,34.6043,139.3863],[43.445,34.5906,132.7839],[43.4317,34.5743,128.8085],[43.4101,34.559,128.4715],[43.3921,34.5529,134.0284],[43.3767,34.5449,132.51],[43.3734,34.5414,130.935],[43.3613,34.5205,123.7035],[43.3546,34.5162,124.9922],[43.3327,34.5138,128.5088],[43.3136,34.508,130.8092],[43.2931,34.5061,126.4735],[43.2736,34.5001,120.048],[43.2531,34.4982,135.8658],[43.202,34.4842,131.0029],[43.1728,34.4823,113.8125],[43.1536,34.4764,92.3759],[43.1282,34.4735,69.4629],[43.1129,34.4654,57.6364],[43.1035,34.4529,64.3607],[43.0945,34.4456,59.8159],[43.082,34.4434,48.5303],[43.032,34.4436,63.275],[43.0159,34.4417,69.4469],[42.9954,34.4305,83.9086],[42.9835,34.4157,87.11],[43.0001,34.4122,79.0264],[43.0739,34.4109,53.1975],[43.0882,34.4057,60.7259],[43.1105,34.4016,59.0767],[43.1489,34.3883,63.9951],[43.2124,34.3873,70.0505],[43.2223,34.3856,70.1933],[43.2365,34.3804,81.2458],[43.2657,34.3786,92.7248],[43.3005,34.3642,129.0902],[43.3884,34.3631,123.8312],[43.3981,34.3614,123.0083],[43.4125,34.3561,120.3267],[43.4652,34.3545,117.3843],[43.4841,34.3484,113.4998],[43.5099,34.3451,107.7829],[43.5188,34.3377,104.7575],[43.5266,34.3245,105.7079],[43.5323,34.319,103.9776],[43.5426,34.3157,104.4995],[43.5531,34.318,107.0026],[43.566,34.3245,102.884],[43.5722,34.3295,103.2125],[43.5886,34.3578,98.6212],[43.5921,34.3608,99.0199],[43.6218,34.3651,102.6978],[43.6475,34.377,111.2005],[43.6699,34.3809,121.438],[43.694,34.3886,111.0057],[43.7094,34.3966,97.7263],[43.7291,34.4234,79.5298],[43.757,34.477,79.8227],[43.7597,34.4804,83.0465],[43.7638,34.4822,78.261],[43.7708,34.4826,76.7324],[43.7847,34.5109,94.4225],[43.7899,34.5289,95.0211],[43.7966,34.5411,95.3006],[43.8001,34.5445,94.4875],[43.822,34.5562,93.256],[43.8396,34.5686,91.9694],[43.8556,34.5764,91.5932],[43.8842,34.5851,89.027],[43.9067,34.587,83.5487],[43.9166,34.5924,82.7565],[43.9211,34.5987,83.036],[43.923,34.6081,84.2457],[43.9238,34.6644,96.3636],[43.93,34.6837,101.0997],[43.9331,34.7092,107.701],[43.9405,34.7181,111.6948],[43.9511,34.7218,115.0422],[43.9666,34.7215,116.3891],[43.9754,34.718,116.646],[43.9846,34.7082,114.6487],[43.9947,34.7068,113.6321],[44.0078,34.7114,116.8739],[44.0304,34.7154,121.8275],[44.0545,34.7229,126.9285],[44.0596,34.7271,131.3616],[44.0602,34.734,134.1531],[44.0578,34.7487,141.189],[44.0493,34.764,159.4201],[44.0423,34.7682,161.2799],[44.0248,34.7719,156.0867],[44.0211,34.7777,153.8388],[44.026,34.7944,176.8501],[44.0285,34.8352,210.9881],[44.0313,34.8453,267.8324],[44.0037,34.8578,253.4409],[43.993,34.8663,263.8018],[43.9794,34.8733,260.4061]]]]}}