{"type":"Feature","properties":{"GID_2":"IRQ.11.1_1","GID_0":"IRQ","country":"Iraq","GID_1":"IRQ.11_1","province":"Dhi-Qar","NL_NAME_1":"NA","county":"AnNasiriyah","VARNAME_2":"NA","NL_NAME_2":"NA","TYPE_2":"Kaza","ENGTYPE_2":"District","CC_2":"NA","HASC_2":"NA","name":"An_Nasiriyah.county"},
"geometry":{"type": "MultiPolygon","coordinates": [[[[45.6525,30.8535,12.7605],[45.674,30.8397,16.9165],[45.7087,30.8248,9.5786],[45.7331,30.8191,7.4167],[45.7805,30.8114,5.009],[45.893,30.7955,5.6458],[45.9728,30.7872,5.4604],[46.1456,30.771,4.4255],[46.2077,30.769,4.4414],[46.2076,30.8001,16.8458],[46.2101,30.811,12.0107],[46.2275,30.8265,5.0365],[46.2357,30.853,4.389],[46.2497,30.8631,3.5931],[46.2618,30.8775,3.3315],[46.266,30.8917,3.4755],[46.2861,30.9333,2.8976],[46.29,30.9476,2.5857],[46.3102,30.9891,5.8115],[46.3118,30.9991,4.6717],[46.3128,31.0308,4.8788],[46.316,31.0389,4.7865],[46.3246,31.0469,3.289],[46.3408,31.0546,5.1392],[46.3497,31.0559,3.4161],[46.3633,31.0543,3.9043],[46.3775,31.049,2.7709],[46.4165,31.0459,2.9673],[46.4233,31.0466,2.6095],[46.4416,31.0551,2.871],[46.4615,31.0562,3.9562],[46.4868,31.0553,3.8621],[46.4946,31.0528,3.6546],[46.5067,31.0461,3.4457],[46.5159,31.0335,2.0587],[46.5246,31.0256,3.2777],[46.5406,31.0177,3.3484],[46.5646,31.0098,3.3986],[46.5901,31.0069,3.2099],[46.6095,31.0007,3.1767],[46.657,30.9996,2.6251],[46.6669,30.9979,1.6818],[46.681399999999996,30.9927,5.0605],[46.7252,30.9908,1.5738],[46.745,30.9838,1.6044],[46.7552,30.9899,1.633],[46.7898,30.9924,1.1725],[46.833,31.0068,2.1912],[46.8783,31.0082,1.7698],[46.8861,31.0108,1.9335],[46.8984,31.0188,1.2162],[46.9094,31.0375,2.0054],[46.93,31.049,1.6572],[46.9419,31.0679,1.7935],[46.9439,31.0823,1.9193],[46.9439,31.0976,1.6042],[46.9417,31.1212,1.0534],[46.9357,31.1351,1.2133],[46.8773,31.1345,1.9605],[46.8409,31.1378,2.1551],[46.8078,31.1468,1.9094],[46.7961,31.1525,1.8968],[46.7805,31.1639,2.4004],[46.7624,31.1847,3.1871],[46.75,31.2076,3.585],[46.7459,31.225,3.0821],[46.7427,31.2772,3.3403],[46.7405,31.2897,4.2018],[46.7364,31.3018,4.0918],[46.7298,31.3138,4.0509],[46.7155,31.3303,4.2763],[46.6926,31.3495,4.7567],[46.6704,31.3657,4.8473],[46.6127,31.4029,4.5854],[46.5923,31.3858,5.3442],[46.572,31.377,4.1903],[46.5574,31.3733,3.6354],[46.5412,31.3656,5.7458],[46.5302,31.3546,6.0555],[46.5223,31.3385,5.8853],[46.5133,31.3095,4.4602],[46.5119,31.2328,5.547],[46.5045,31.2153,4.998],[46.4993,31.21,5.4187],[46.4932,31.2097,5.1679],[46.4897,31.2113,4.9872],[46.4421,31.2435,4.9311],[46.4366,31.2492,5.027],[46.4287,31.262,4.3276],[46.423,31.2674,5.8803],[46.4162,31.2704,4.9711],[46.3895,31.2734,4.9641],[46.3654,31.2815,5.3904],[46.3529,31.2918,6.0994],[46.3409,31.3082,3.7331],[46.3328,31.3121,3.8313],[46.326,31.3124,4.1406],[46.3226,31.3103,4.2759],[46.3149,31.2986,4.5908],[46.2984,31.2509,8.1338],[46.2942,31.2313,6.7974],[46.2943,31.2242,6.6855],[46.2968,31.2158,7.3286],[46.3122,31.1818,6.8745],[46.3117,31.1684,6.4423],[46.3073,31.1622,5.6119],[46.3006,31.1602,6.4712],[46.2651,31.1587,6.2875],[46.2578,31.1557,6.0628],[46.2436,31.1462,5.8449],[46.2311,31.144,6.5082],[46.1116,31.1444,4.1578],[46.1014,31.1461,3.8169],[46.0869,31.1511,3.7664],[46.0613,31.1539,4.1878],[46.046,31.1619,4.6075],[46.0429,31.1655,4.3405],[46.0347,31.1888,4.1957],[46.031,31.2114,4.1536],[46.0213,31.2365,4.0921],[45.9986,31.2502,4.424],[45.9892,31.2626,5.047],[45.9801,31.2698,5.1843],[45.958,31.274,5.089],[45.9384,31.2837,5.3597],[45.9146,31.3061,5.4543],[45.9013,31.3208,5.7486],[45.8989,31.3281,5.4579],[45.9011,31.3347,5.8278],[45.9102,31.343,5.132],[45.9333,31.3558,5.8755],[45.9398,31.3655,5.6052],[45.9431,31.3746,5.8275],[45.9405,31.3829,5.7061],[45.9328,31.3897,5.2295],[45.9087,31.3982,5.4625],[45.8941,31.3981,5.8174],[45.8788,31.3902,5.8174],[45.8754,31.3867,6.372],[45.8573,31.3523,5.3542],[45.8518,31.3464,6.0786],[45.8304,31.3416,5.9668],[45.8048,31.3306,5.7207],[45.798,31.3306,5.9519],[45.7772,31.337,7.0057],[45.7672,31.3364,6.1916],[45.7448,31.3316,7.1035],[45.7335,31.3242,7.1783],[45.763,31.3085,6.8637],[45.7682,31.3029,6.6755],[45.7719,31.2938,6.2378],[45.7721,31.2839,6.536],[45.7695,31.2745,6.6306],[45.7412,31.2245,7.2291],[45.7332,31.2012,6.9596],[45.7317,31.1895,6.2615],[45.7339,31.1734,7.1902],[45.7382,31.1624,6.1154],[45.7455,31.1509,6.5059],[45.7686,31.1215,6.9352],[45.7737,31.1084,7.2148],[45.7742,31.1012,7.3079],[45.7728,31.0941,7.8728],[45.7692,31.0879,8.1018],[45.7642,31.0837,8.1829],[45.7261,31.0701,6.661],[45.7198,31.0659,6.5578],[45.7124,31.058,6.6208],[45.6884,31.0152,5.766],[45.6564,30.9731,5.1384],[45.6499,30.9617,5.4041],[45.6432,30.9376,5.1503],[45.642,30.9099,5.4708],[45.6446,30.8896,10.4693],[45.6525,30.8535,12.7605]]]]}}