{"type":"Feature","properties":{"GID_2":"IRQ.2.2_1","GID_0":"IRQ","country":"Iraq","GID_1":"IRQ.2_1","province":"Al-Basrah","NL_NAME_1":"NA","county":"AlFaw","VARNAME_2":"NA","NL_NAME_2":"NA","TYPE_2":"Kaza","ENGTYPE_2":"District","CC_2":"NA","HASC_2":"NA","name":"Al_Faw.county"},
"geometry":{"type": "MultiPolygon","coordinates": [[[[47.9624,30.044,0.0],[47.9593,30.0332,3.716],[47.9604,30.0235,1.0498],[47.9676,30.0085,0.561],[47.9738,30.0057,0.2698],[47.971,30.0126,2.0041],[47.971,30.0176,0.737],[47.9665,30.0263,2.0716],[47.9663,30.0385,1.406],[47.9637,30.044,0.0],[47.9624,30.044,0.0]]],
[[[48.3499,30.2573,1.3504],[48.3331,30.2771,1.6944],[48.3108,30.264,1.7006],[48.2882,30.2463,1.6758],[48.2507,30.2271,1.9776],[48.2331,30.2219,1.8483],[48.2075,30.2098,1.7685],[48.1851,30.2059,2.1305],[48.171,30.2008,2.2705],[48.1417,30.1991,2.2237],[48.1275,30.194,2.2848],[48.118,30.1923,2.3857],[48.0108,30.192,2.2088],[47.982,30.1845,2.0648],[47.9148,30.1841,1.7908],[47.9049,30.1826,2.8456],[47.8906,30.1773,5.4583],[47.8686,30.1764,2.6646],[47.8684,30.1373,2.8782],[47.8738,30.1254,3.0961],[47.8881,30.108,3.2228],[47.906,30.0779,3.1593],[47.9171,30.0456,9.6182],[47.9202,30.0287,8.1064],[47.9422,30.0208,2.7363],[47.9529,30.0201,0.0],[47.9526,30.034,0.0],[47.9507,30.0343,0.0],[47.9465,30.039,0.0],[47.9465,30.0426,0.0],[47.9413,30.0462,0.0],[47.9357,30.054,0.0],[47.9282,30.0596,0.0],[47.929,30.0621,0.0],[47.9321,30.0637,2.0806],[47.9504,30.0407,0.0],[47.9529,30.0401,0.0],[47.954,30.051,0.9758],[47.9599,30.051,0.0],[47.9621,30.0488,1.0434],[47.9676,30.0393,1.8737],[47.9685,30.0285,0.6318],[47.9729,30.0179,0.0],[47.974,30.0107,0.3002],[47.9785,30.0054,0.0],[47.984,30.0029,0.0961],[48.001,30.0007,0.4318],[48.0107,30.0012,0.0],[48.0204,30.0063,1.1917],[48.0313,30.0174,0.3222],[48.0449,30.0265,1.0594],[48.0749,30.036,1.0525],[48.0996,30.0368,0.0],[48.1338,30.0335,0.0],[48.1415,30.0357,2.1313],[48.1829,30.0346,1.7564],[48.2146,30.0263,1.6634],[48.2499,30.0118,1.5828],[48.2671,30.0024,1.621],[48.2687,29.9999,0.2523],[48.2826,29.9924,1.455],[48.3154,29.9699,0.5749],[48.3404,29.9574,1.6244],[48.3446,29.9521,1.5643],[48.3535,29.9504,1.2446],[48.3632,29.944,1.6061],[48.3674,29.939,0.9536],[48.3826,29.9346,1.3245],[48.3976,29.9268,0.8208],[48.4368,29.9163,1.2727],[48.4413,29.9118,1.4659],[48.4551,29.9132,1.4629],[48.486,29.9088,1.2569],[48.5135,29.9074,1.6748],[48.5204,29.9085,1.0123],[48.5407,29.9035,0.4691],[48.5454,29.9043,0.0],[48.5535,29.9015,0.1839],[48.5686,29.9018,0.0],[48.5566,29.9191,1.1829],[48.5048,29.9693,0.6415],[48.4846,29.9799,0.0],[48.4576,29.9972,0.2693],[48.4479,30.008,0.0],[48.4426,30.0443,1.2724],[48.4412,30.0692,0.0],[48.4292,30.0892,1.9751],[48.4122,30.1029,1.5793],[48.3935,30.1137,1.6137],[48.383,30.1273,0.2242],[48.3864,30.1358,0.0],[48.4013,30.157,1.044],[48.4129,30.169,0.8985],[48.4138,30.1754,1.0703],[48.4115,30.1882,1.5249],[48.4075,30.1982,0.0],[48.3987,30.2104,0.0],[48.363,30.242,0.0],[48.3499,30.2573,1.3504]]]]}}