{"type":"Feature","properties":{"GID_2":"IRQ.5.2_1","GID_0":"IRQ","country":"Iraq","GID_1":"IRQ.5_1","province":"An-Najaf","NL_NAME_1":"NA","county":"AlManathera","VARNAME_2":"NA","NL_NAME_2":"NA","TYPE_2":"Kaza","ENGTYPE_2":"District","CC_2":"NA","HASC_2":"NA","name":"Al_Manathera.county"},
"geometry":{"type": "MultiPolygon","coordinates": [[[[44.4642,31.9322,22.9861],[44.4544,31.9357,25.3562],[44.4377,31.9362,27.9432],[44.4327,31.9351,18.5067],[44.4213,31.9287,15.227],[44.3963,31.9283,14.5342],[44.3872,31.9352,13.8589],[44.376,31.9368,13.1369],[44.3615,31.9419,13.0898],[44.3541,31.9416,12.6356],[44.341,31.9322,12.128],[44.3266,31.915,13.0876],[44.3199,31.9131,13.5441],[44.285,31.9113,12.9511],[44.2782,31.9071,13.4476],[44.2699,31.892,15.7336],[44.2588,31.8566,25.0601],[44.2616,31.8495,28.7454],[44.2753,31.8362,27.3396],[44.2895,31.8186,28.3492],[44.305,31.8108,27.5653],[44.3344,31.8061,27.0719],[44.3398,31.8003,27.3557],[44.3503,31.7825,27.8002],[44.3635,31.772,27.5224],[44.3702,31.764,26.2808],[44.378,31.7481,25.112],[44.382,31.7337,22.3131],[44.4017,31.6921,19.8189],[44.4034,31.6821,21.5496],[44.4045,31.6506,26.1459],[44.414,31.6146,37.0348],[44.4201,31.6099,36.7203],[44.4357,31.6065,34.2903],[44.4618,31.608,25.2342],[44.4731,31.6063,19.0182],[44.4816,31.6021,17.4146],[44.4874,31.597,18.2731],[44.4949,31.6699,15.7225],[44.5029,31.7067,16.8863],[44.5192,31.753,19.1574],[44.5215,31.7677,20.532],[44.5214,31.7775,18.5671],[44.5198,31.787,20.6967],[44.5136,31.8035,18.6435],[44.5018,31.8238,19.2322],[44.4848,31.8472,19.0212],[44.4734,31.8692,19.3279],[44.4686,31.8885,17.1473],[44.4642,31.9322,22.9861]]]]}}