{"type":"Feature","properties":{"GID_2":"IRQ.6.4_1","GID_0":"IRQ","country":"Iraq","GID_1":"IRQ.6_1","province":"Arbil","NL_NAME_1":"NA","county":"Makhmur","VARNAME_2":"NA","NL_NAME_2":"NA","TYPE_2":"Kaza","ENGTYPE_2":"District","CC_2":"NA","HASC_2":"NA","name":"Makhmur.county"},
"geometry":{"type": "MultiPolygon","coordinates": [[[[43.5829,36.1824,231.0036],[43.541,36.1203,222.5115],[43.5256,36.0943,217.9845],[43.4982,36.0393,226.5577],[43.4841,36.0221,210.8568],[43.4676,36.009,215.0504],[43.4453,35.9961,211.9023],[43.4285,35.9912,214.0578],[43.3821,35.9831,203.6899],[43.3641,35.9744,203.3131],[43.3597,35.9701,205.2196],[43.3586,35.9673,211.2946],[43.3606,35.9628,215.5805],[43.3678,35.9569,204.6467],[43.4108,35.9331,204.179],[43.419,35.9259,213.6605],[43.4263,35.9151,226.7232],[43.4297,35.9055,215.6157],[43.4307,35.8964,249.934],[43.4258,35.8798,227.6248],[43.4103,35.8561,202.5628],[43.3905,35.8315,212.1586],[43.3646,35.8088,230.2126],[43.3576,35.8007,237.6989],[43.3496,35.7858,233.2262],[43.3445,35.767,210.8955],[43.3422,35.7491,216.0228],[43.3436,35.6871,196.6549],[43.3419,35.6721,192.821],[43.3682,35.6472,192.0744],[43.3809,35.6311,194.366],[43.3862,35.6169,194.0783],[43.3955,35.5813,208.3474],[43.4175,35.5438,196.9664],[43.4217,35.5199,188.551],[43.4214,35.4565,194.9819],[43.4394,35.4516,193.6362],[43.4896,35.4463,184.9785],[43.5282,35.4385,177.6553],[43.5398,35.4387,177.6989],[43.5478,35.441,179.1391],[43.5971,35.4723,189.8237],[43.6644,35.5067,215.2727],[43.6903,35.5177,210.9921],[43.7372,35.5319,209.9644],[43.7405,35.577,226.9249],[43.7437,35.593,232.7172],[43.7481,35.6034,235.4701],[43.7678,35.6379,262.9135],[43.7717,35.6486,277.6529],[43.7722,35.6599,289.5108],[43.7673,35.689,610.8434],[43.7677,35.6992,675.1447],[43.7708,35.7097,456.5193],[43.7804,35.725,340.9853],[43.7939,35.7381,294.7545],[43.8145,35.7535,268.2307],[43.8419,35.771,293.74],[43.8558,35.7826,303.3565],[43.8977,35.8349,371.7468],[43.8944,35.8436,378.197],[43.8891,35.8507,398.032],[43.8601,35.8679,385.8289],[43.8498,35.8852,385.3214],[43.8337,35.8986,388.9723],[43.8234,35.9123,416.4637],[43.7934,35.9331,404.7048],[43.7674,35.9467,374.7765],[43.7559,35.9576,385.4395],[43.7463,35.971,383.6714],[43.7354,35.9786,368.5356],[43.7281,35.9877,349.6965],[43.7261,35.9974,388.5787],[43.7261,36.0079,345.292],[43.7292,36.0211,315.4475],[43.7403,36.0401,289.2134],[43.764,36.0605,287.6178],[43.7692,36.0887,294.7052],[43.7842,36.1014,297.6865],[43.7879,36.1072,302.2669],[43.7884,36.1138,305.3183],[43.7817,36.1417,338.8389],[43.7789,36.1465,340.0625],[43.7741,36.1492,339.6824],[43.7203,36.1616,308.0947],[43.7074,36.168,310.4417],[43.6858,36.1861,324.0689],[43.6783,36.1895,321.777],[43.656,36.1898,293.2689],[43.6257,36.1763,257.1674],[43.6154,36.1746,252.7564],[43.5969,36.1764,235.8481],[43.5829,36.1824,231.0036]]]]}}