{"type":"Feature","properties":{"GID_2":"IRQ.7.5_1","GID_0":"IRQ","country":"Iraq","GID_1":"IRQ.7_1","province":"As-Sulaymaniyah","NL_NAME_1":"NA","county":"Kalar","VARNAME_2":"NA","NL_NAME_2":"NA","TYPE_2":"Kaza","ENGTYPE_2":"District","CC_2":"NA","HASC_2":"NA","name":"Kalar.county"},
"geometry":{"type": "MultiPolygon","coordinates": [[[[44.9105,34.9001,439.6497],[44.9104,34.8817,453.8488],[44.9123,34.8705,442.4604],[44.9184,34.8522,448.1292],[44.9284,34.8434,437.713],[44.9529,34.8302,412.6876],[44.9799,34.8235,410.5613],[45.0301,34.828,408.0803],[45.0462,34.8246,413.3167],[45.0538,34.8194,403.6049],[45.0764,34.7904,391.3474],[45.0855,34.7812,386.7253],[45.0939,34.7755,383.6307],[45.1038,34.7713,380.9684],[45.1368,34.76,403.0871],[45.1503,34.7516,386.1376],[45.1643,34.7389,377.9819],[45.1745,34.7233,362.8224],[45.1801,34.7017,317.8589],[45.1783,34.6286,309.0166],[45.1805,34.5999,244.4065],[45.1833,34.5858,219.8976],[45.1925,34.5669,209.3116],[45.2056,34.5531,201.7841],[45.2134,34.5486,206.1807],[45.231,34.5614,194.2217],[45.2647,34.5918,213.9413],[45.2902,34.6124,213.3069],[45.3132,34.6274,224.5356],[45.3648,34.6535,282.3165],[45.3742,34.6602,294.4665],[45.3885,34.6763,294.0081],[45.4115,34.7125,305.0444],[45.4455,34.7837,314.6253],[45.4872,34.8511,492.9695],[45.4988,34.8673,470.9193],[45.5117,34.8819,380.132],[45.5482,34.911,427.3645],[45.5557,34.9187,368.3091],[45.5619,34.9274,393.5726],[45.5677,34.942,385.8494],[45.5689,34.9546,406.4566],[45.5621,35.007,584.0338],[45.5442,35.0166,685.1356],[45.5392,35.0228,745.0804],[45.531,35.0401,906.7008],[45.5301,35.0733,993.0966],[45.5283,35.0823,897.5602],[45.5024,35.1148,999.2363],[45.471,35.1009,920.9118],[45.4285,35.1035,799.3815],[45.3993,35.113,855.205],[45.373,35.1334,787.9927],[45.3426,35.1469,760.749],[45.3334,35.1345,791.4363],[45.3058,35.1058,648.4742],[45.3007,35.098,617.5046],[45.2946,35.0804,563.2106],[45.2858,35.073,604.8824],[45.2684,35.0709,576.2437],[45.1395,35.0716,494.6432],[45.128,35.0693,550.7258],[45.1248,35.0661,537.7734],[45.1229,35.0594,527.9805],[45.122,35.0246,479.7411],[45.1188,35.0168,498.7948],[45.1133,35.0113,507.7604],[45.1064,35.0084,513.1042],[45.0794,35.0056,491.2278],[45.0553,34.9978,453.4254],[45.0298,34.9856,459.4043],[44.9921,34.9735,432.7206],[44.9753,34.9531,461.4255],[44.956,34.94,599.8643],[44.9503,34.9345,647.754],[44.9322,34.9062,591.693],[44.9241,34.902,510.4407],[44.9105,34.9001,439.6497]]]]}}