{"type":"Feature","properties":{"GID_2":"IRQ.12.2_1","GID_0":"IRQ","country":"Iraq","GID_1":"IRQ.12_1","province":"Dihok","NL_NAME_1":"NA","county":"Dahuk","VARNAME_2":"NA","NL_NAME_2":"NA","TYPE_2":"Kaza","ENGTYPE_2":"District","CC_2":"NA","HASC_2":"NA","name":"Dahuk.county"},
"geometry":{"type": "MultiPolygon","coordinates": [[[[43.0455,37.0968,608.6888],[43.0404,37.0946,617.6334],[43.029,37.0935,707.6572],[42.9982,37.0944,699.6151],[42.991,37.0917,658.6661],[42.9824,37.0804,696.7228],[42.9772,37.0789,699.798],[42.9602,37.084,644.5609],[42.9457,37.0859,621.2075],[42.924,37.0823,616.1113],[42.9029,37.0849,547.9252],[42.8841,37.0707,652.4031],[42.8543,37.067,647.8822],[42.8457,37.0616,542.5495],[42.8412,37.056,568.9874],[42.8418,37.0388,708.7656],[42.8468,37.0203,1135.3572],[42.8415,36.9973,1227.1132],[42.8523,36.9891,1246.6407],[42.8634,36.9688,1237.1725],[42.8655,36.9374,711.3099],[42.868899999999996,36.929,656.2466],[42.8774,36.9257,654.6311],[42.9006,36.9236,934.5031],[42.9162,36.9158,867.5702],[42.9192,36.9122,821.7469],[42.9214,36.9005,729.8308],[42.9215,36.8229,470.4671],[42.9239,36.8149,464.5111],[42.9322,36.801,435.7319],[42.941,36.7979,434.0032],[42.9755,36.7967,461.8271],[42.9943,36.7904,466.109],[43.0345,36.7893,506.9347],[43.044,36.7877,516.0944],[43.0582,36.7825,533.0201],[43.0877,36.7807,541.67],[43.1126,36.7697,675.5042],[43.1207,36.7576,823.3284],[43.1311,36.7586,847.4321],[43.1427,36.7669,734.032],[43.1522,36.7707,827.1596],[43.1714,36.7833,776.5262],[43.1847,36.7894,719.2146],[43.1929,36.8005,857.83],[43.204,36.8086,988.4241],[43.2469,36.8516,632.4937],[43.2536,36.8644,674.1524],[43.2628,36.8733,816.8616],[43.2688,36.889,1030.1693],[43.2528,36.9038,898.355],[43.2354,36.9256,1237.191],[43.2245,36.9306,1076.9775],[43.2099,36.9343,886.1729],[43.2037,36.9389,884.877],[43.2011,36.9451,903.7039],[43.1909,36.9919,1104.5598],[43.1813,37.0049,1148.4998],[43.1613,37.0248,1129.3654],[43.1381,37.042,1107.3306],[43.1272,37.0553,1024.9038],[43.1209,37.0606,950.8572],[43.0925,37.075,874.5176],[43.0559,37.0877,666.816],[43.0482,37.0927,648.3029],[43.0455,37.0968,608.6888]]]]}}