{"type":"Feature","properties":{"GID_2":"IRQ.9.2_1","GID_0":"IRQ","country":"Iraq","GID_1":"IRQ.9_1","province":"Babil","NL_NAME_1":"NA","county":"AlHashimiyah","VARNAME_2":"NA","NL_NAME_2":"NA","TYPE_2":"Kaza","ENGTYPE_2":"District","CC_2":"NA","HASC_2":"NA","name":"Al_Hashimiyah.county"},
"geometry":{"type": "MultiPolygon","coordinates": [[[[45.1565,32.3902,18.3968],[45.1395,32.3999,19.2311],[45.1235,32.4209,18.7714],[45.1164,32.4256,18.9767],[45.1047,32.4294,19.5076],[45.0655,32.432,20.8141],[45.0045,32.4613,21.3555],[44.9937,32.4605,21.823],[44.9681,32.4482,21.4171],[44.9394,32.439,22.1264],[44.8833,32.4381,22.9495],[44.8543,32.4307,22.47],[44.6863,32.4306,24.9715],[44.6778,32.4317,24.1673],[44.6727,32.4344,22.896],[44.6652,32.4451,22.8936],[44.6563,32.4524,23.3336],[44.626,32.4565,23.9747],[44.6136,32.4628,24.3233],[44.6088,32.4661,24.3638],[44.5987,32.4801,24.5467],[44.5925,32.4847,24.4859],[44.5684,32.4932,25.5148],[44.557,32.4949,28.4664],[44.5461,32.4936,25.8966],[44.5409,32.4895,25.7701],[44.5415,32.4687,24.0601],[44.5475,32.4467,23.731],[44.5454,32.4401,23.0398],[44.537,32.4324,24.9777],[44.4885,32.4086,27.1962],[44.4755,32.4068,26.8977],[44.4579,32.4086,24.8098],[44.4174,32.427,28.6688],[44.4092,32.4199,25.905],[44.4071,32.4149,27.3533],[44.406,32.4041,26.367],[44.4101,32.3918,27.5586],[44.429,32.3711,27.774],[44.4351,32.3623,26.9439],[44.4432,32.3384,26.6288],[44.4461,32.3204,25.8966],[44.4519,32.3019,23.1256],[44.4535,32.2836,22.9042],[44.4556,32.2772,21.803],[44.4588,32.2739,21.0915],[44.4765,32.2664,20.1642],[44.4881,32.2551,20.1205],[44.4909,32.2506,20.1768],[44.5071,32.2025,19.5111],[44.5077,32.1955,19.8157],[44.5055,32.1889,19.5018],[44.5002,32.1845,19.4367],[44.4855,32.1784,19.6565],[44.479,32.173,20.1093],[44.4719,32.1578,21.5438],[44.4647,32.1477,22.1008],[44.4789,32.1373,22.2193],[44.5076,32.1261,20.2628],[44.5334,32.1094,21.912],[44.5673,32.0976,21.3289],[44.5774,32.0915,21.3997],[44.5844,32.0837,22.0453],[44.6024,32.0817,22.6586],[44.6529,32.0697,20.0952],[44.6805,32.0651,20.2263],[44.7015,32.0648,21.4863],[44.7237,32.07,20.2324],[44.7451,32.0829,20.5912],[44.7514,32.0903,20.5092],[44.7571,32.1034,21.6573],[44.7583,32.1199,20.5015],[44.7535,32.1586,21.7252],[44.7591,32.1701,22.1493],[44.7675,32.176,21.0976],[44.7766,32.1782,24.1952],[44.7879,32.1777,22.4002],[44.8119,32.1732,22.5239],[44.8332,32.172,22.3987],[44.8419,32.1736,22.5708],[44.856,32.1797,23.7907],[44.9317,32.2278,20.9369],[45.035,32.3157,20.0293],[45.0495,32.3249,19.6009],[45.1025,32.3506,20.338],[45.1304,32.3661,18.0142],[45.1444,32.3758,17.9692],[45.1518,32.3828,18.0946],[45.1565,32.3902,18.3968]]]]}}