{"type":"Feature","properties":{"GID_2":"IRQ.1.8_1","GID_0":"IRQ","country":"Iraq","GID_1":"IRQ.1_1","province":"Al-Anbar","NL_NAME_1":"NA","county":"Hit","VARNAME_2":"NA","NL_NAME_2":"NA","TYPE_2":"Kaza","ENGTYPE_2":"District","CC_2":"NA","HASC_2":"NA","name":"Hit.county"},
"geometry":{"type": "MultiPolygon","coordinates": [[[[42.127,33.8263,263.0404],[42.1244,33.8173,272.2154],[42.1244,33.8089,277.4554],[42.1288,33.7942,266.764],[42.1327,33.7712,269.9203],[42.1436,33.751,287.5639],[42.1661,33.734,271.7839],[42.1748,33.7186,260.9306],[42.178,33.7086,258.4281],[42.1795,33.6807,278.6575],[42.1885,33.6514,282.1422],[42.2083,33.6099,295.6489],[42.2127,33.5878,292.4572],[42.2326,33.5621,286.3467],[42.2405,33.5461,278.194],[42.2485,33.5221,278.0629],[42.2528,33.4988,281.3052],[42.2489,33.4615,286.7114],[42.2461,33.4511,294.7656],[42.2697,33.4416,270.6704],[42.3055,33.4303,278.2894],[42.3116,33.4256,277.1141],[42.314,33.414,263.9551],[42.3141,33.382,286.6836],[42.3157,33.372,277.83],[42.3422,33.3177,270.6649],[42.3475,33.3002,276.6575],[42.3553,33.2841,280.3998],[42.3678,33.2667,277.4899],[42.3821,33.2379,283.9882],[42.3954,33.1967,283.8642],[42.4021,33.1818,285.4894],[42.4042,33.1784,285.9198],[42.4148,33.1728,283.6284],[42.4376,33.1527,276.8377],[42.448,33.152,272.6194],[42.4551,33.1552,266.9135],[42.475,33.1748,251.1864],[42.4846,33.1882,250.7998],[42.5018,33.1977,243.1166],[42.5115,33.1985,233.623],[42.5353,33.1917,222.4668],[42.5687,33.1923,213.5884],[42.5762,33.1957,210.3578],[42.5981,33.2131,194.9663],[42.6331,33.2212,180.3735],[42.6505,33.2163,182.7986],[42.6798,33.2139,173.4252],[42.6936,33.2095,169.8976],[42.7015,33.2111,163.473],[42.7163,33.2296,157.0505],[42.7422,33.2481,145.5432],[42.7598,33.2676,134.7212],[42.7674,33.2869,129.7128],[42.7662,33.2934,130.6319],[42.76,33.3038,134.7401],[42.76,33.3102,132.0524],[42.7644,33.3176,127.4801],[42.7809,33.3355,119.616],[42.79,33.3522,117.1889],[42.7954,33.3778,107.9947],[42.8107,33.4256,91.5945],[42.8174,33.431399999999996,91.2848],[42.8249,33.4327,91.6763],[42.8357,33.4287,87.5713],[42.8524,33.4075,99.4171],[42.8586,33.4023,99.4191],[42.8656,33.3993,99.2283],[42.8795,33.399,96.0486],[42.931,33.4137,91.9419],[42.9519,33.4144,90.4146],[42.9643,33.4122,96.3419],[42.982,33.3998,93.3148],[42.9947,33.3935,100.2449],[43.0008,33.3922,101.9521],[43.0056,33.394,100.628],[43.0315,33.4268,77.1594],[43.0393,33.4429,70.5233],[43.0431,33.4573,61.7104],[43.0528,33.4764,52.7029],[43.0636,33.4876,52.4601],[43.0828,33.5005,52.4274],[43.0874,33.5098,53.9389],[43.0826,33.5274,53.499],[43.0805,33.548,68.9868],[43.0743,33.5674,79.4367],[43.0727,33.62,85.03],[43.0666,33.6393,92.2816],[43.0647,33.6598,95.4773],[43.0586,33.6792,111.0969],[43.0568,33.6997,101.7554],[43.0506,33.7193,86.5753],[43.0498,33.8299,80.8336],[43.0481,33.8403,79.171],[43.043,33.8549,74.2667],[43.042,33.9258,83.698],[43.0348,33.9546,72.1301],[43.0352,33.9637,69.0989],[43.0402,33.9777,63.8112],[43.0455,34.0043,62.2118],[43.0625,34.0246,51.5472],[43.0325,34.0667,55.1462],[43.0244,34.0741,69.2177],[43.006,34.0861,68.4102],[42.9953,34.097,70.1699],[42.991,34.1064,78.4935],[42.9885,34.1178,77.1592],[42.9819,34.1677,80.0128],[42.9757,34.1988,85.7207],[42.9717,34.2108,80.7274],[42.9625,34.2288,97.4315],[42.9374,34.2607,107.377],[42.9295,34.2751,113.5384],[42.9266,34.2891,108.6607],[42.9261,34.3227,109.9434],[42.928,34.3859,115.5808],[42.9315,34.4198,109.401],[42.9315,34.4373,111.5925],[42.9293,34.4498,106.8754],[42.9258,34.4577,108.2837],[42.9208,34.4635,112.788],[42.9118,34.4671,117.2771],[42.9019,34.4666,118.5368],[42.8927,34.463,124.0132],[42.877,34.4543,125.1166],[42.8106,34.4095,154.5547],[42.7802,34.392,164.3113],[42.7575,34.3879,172.738],[42.7077,34.3881,192.6001],[42.702,34.3742,207.2343],[42.6977,34.3454,211.231],[42.6856,34.3115,210.6406],[42.6816,34.2812,201.5592],[42.6716,34.262,199.9639],[42.6551,34.2489,211.1772],[42.6517,34.2442,219.9499],[42.6209,34.1842,218.9101],[42.6183,34.1728,225.3773],[42.6204,34.1567,217.9079],[42.618,34.1258,202.3134],[42.6134,34.1195,191.8271],[42.6011,34.1144,197.7605],[42.5979,34.1111,185.5968],[42.593,34.0901,171.8568],[42.5891,34.0803,173.7857],[42.5851,34.058,160.1753],[42.5772,34.034,154.2934],[42.537,33.9542,119.7287],[42.525,33.9366,112.5935],[42.5231,33.9268,107.5596],[42.5225,33.9004,79.9999],[42.5205,33.8906,103.5939],[42.5084,33.8729,107.4176],[42.5019,33.8601,132.9225],[42.4998,33.8522,143.2522],[42.5008,33.8425,114.9],[42.5048,33.8327,113.813],[42.5065,33.8228,124.2065],[42.5057,33.8144,131.92],[42.503,33.8096,149.0699],[42.4982,33.8069,159.7993],[42.4896,33.8057,163.5276],[42.4367,33.8072,155.3842],[42.4295,33.8034,161.3043],[42.4235,33.7932,183.4208],[42.4132,33.7875,186.9586],[42.4003,33.7761,186.7336],[42.3828,33.7714,197.249],[42.3709,33.7742,196.8722],[42.3339,33.7883,201.9235],[42.3246,33.79,204.5128],[42.3001,33.7892,210.0346],[42.2858,33.784,215.776],[42.2769,33.7825,219.9574],[42.2635,33.7839,225.9113],[42.2482,33.7921,231.258],[42.2332,33.8099,238.3834],[42.2264,33.813,240.2342],[42.2087,33.817,232.4012],[42.1993,33.8265,234.5745],[42.1942,33.829,235.153],[42.181,33.8304,247.5581],[42.1494,33.8301,254.3477],[42.1376,33.8292,256.3707],[42.127,33.8263,263.0404]]]]}}