{"type":"Feature","properties":{"GID_1":"IRQ.6_1","GID_0":"IRQ","country":"Iraq","province":"Arbil","VARNAME_1":"Arbela|Erbil|Irbil","NL_NAME_1":"NA","TYPE_1":"Muhafazah","ENGTYPE_1":"Province","CC_1":"NA","HASC_1":"IQ.AR","ISO_1":"IQ-AR","name":"Arbil.province"},
"geometry":{"type": "MultiPolygon","coordinates": [[[[43.8558,35.7826,303.3565],[43.8977,35.8349,371.7468],[43.9092,35.8326,380.8786],[43.9358,35.8314,406.9132],[43.9519,35.8288,428.8142],[43.9665,35.8212,428.1207],[43.9982,35.7962,422.647],[44.0185,35.784,421.6838],[44.0439,35.774,454.235],[44.0774,35.7669,385.3681],[44.0896,35.7727,337.0374],[44.105,35.7842,283.964],[44.1117,35.795,271.8635],[44.1209,35.8196,313.0223],[44.1242,35.8238,314.4213],[44.1375,35.8298,315.7651],[44.1517,35.8311,315.2751],[44.2374,35.8305,281.7159],[44.246,35.8237,318.3254],[44.2639,35.8148,362.6617],[44.2759,35.8118,379.5641],[44.2922,35.8112,402.0309],[44.3111,35.8142,371.1101],[44.3314,35.8197,301.1134],[44.4037,35.8466,304.5317],[44.4219,35.8508,303.1171],[44.4773,35.8481,388.8353],[44.4935,35.8487,343.5906],[44.5393,35.8615,363.8601],[44.5526,35.8637,327.7091],[44.5716,35.8622,329.0994],[44.5787,35.8596,338.6519],[44.585,35.854,363.5085],[44.6414,35.8575,556.2496],[44.7129,35.8586,457.331],[44.7532,35.8615,379.5035],[44.8413,35.8626,412.8105],[44.8807,35.8656,495.3902],[44.8894,35.8707,641.4633],[44.8939,35.8763,606.4874],[44.896,35.8832,458.44],[44.8952,35.8932,390.7433],[44.892,35.9001,442.3068],[44.8849,35.9081,532.9613],[44.826,35.9474,594.3467],[44.7774,35.9868,608.4215],[44.7425,36.0183,609.1484],[44.7249,36.0314,628.4265],[44.698,36.0483,613.2151],[44.6934,36.0534,605.7651],[44.6745,36.0574,565.8611],[44.6627,36.063,569.4133],[44.6529,36.0698,547.3915],[44.6068,36.1121,866.5116],[44.5992,36.1212,973.5801],[44.5951,36.1311,1058.9171],[44.5943,36.1411,1091.4504],[44.5961,36.1511,749.6544],[44.6054,36.1663,744.4017],[44.6285,36.1897,606.7725],[44.6326,36.1962,625.7019],[44.6359,36.2097,642.7747],[44.6353,36.216,621.2343],[44.6305,36.2264,642.5575],[44.6254,36.2319,670.2465],[44.6158,36.2375,697.2746],[44.6028,36.2412,708.2999],[44.5578,36.2491,1007.5013],[44.526,36.2611,795.2007],[44.5113,36.2969,839.9769],[44.5065,36.3213,1218.7983],[44.5066,36.337,1366.0537],[44.5089,36.3449,1297.6154],[44.5136,36.3517,1656.5386],[44.5383,36.3688,1097.4634],[44.5824,36.4062,1026.7018],[44.603,36.4172,1126.6062],[44.6124,36.4194,1233.213],[44.632,36.4208,1847.8821],[44.7352,36.4196,1185.1544],[44.7512,36.4231,1047.3848],[44.7597,36.4278,1345.0032],[44.7662,36.4363,1372.5925],[44.7781,36.4361,1329.0894],[44.7861,36.4323,1628.3127],[44.7963,36.4387,1968.9969],[44.8163,36.4423,1593.1077],[44.8893,36.4337,1186.6401],[44.9042,36.4335,1196.6381],[44.9133,36.435,1213.3799],[44.924,36.4394,1493.8273],[44.9369,36.4506,2034.8599],[44.9648,36.4953,2249.7314],[44.98,36.5127,2628.9543],[44.999,36.5222,2936.2668],[45.0189,36.5278,3373.4988],[45.0149,36.5364,3367.043],[45.016,36.5432,3284.2158],[45.0194,36.547,3203.8176],[45.0369,36.556,3129.7373],[45.0518,36.5678,3137.821],[45.0544,36.5748,2707.667],[45.0424,36.5886,2542.2339],[45.0411,36.5942,2440.3545],[45.0483,36.6062,2585.3684],[45.0553,36.6125,2443.3354],[45.0617,36.6138,2403.4883],[45.0626,36.6186,2308.9622],[45.0736,36.6252,2257.3872],[45.0743,36.6271,2440.1196],[45.0778,36.6422,2332.2646],[45.0766,36.6607,1767.4696],[45.0791,36.6718,1842.6309],[45.0723,36.6907,2158.4688],[45.0475,36.7293,2701.2642],[45.0323,36.7402,2982.843],[45.0262,36.7425,3041.2053],[44.9963,36.7467,2778.3044],[44.9846,36.7546,2914.478],[44.9739,36.7652,2902.0552],[44.9564,36.7748,3177.2593],[44.939,36.776,2891.8423],[44.9114,36.7732,3433.2349],[44.8852,36.7737,2723.1877],[44.8662,36.7794,3176.9839],[44.8608,36.7841,3107.8691],[44.8557,36.793,2963.6807],[44.8517,36.8049,2893.6963],[44.8522,36.8152,2771.0806],[44.8599,36.8344,2830.0269],[44.878,36.8556,2905.5833],[44.8995,36.8686,3080.1384],[44.9075,36.8717,3097.8889],[44.9241,36.9074,2870.28],[44.9247,36.9163,2951.7861],[44.9157,36.9342,2711.5256],[44.8932,36.9582,2521.4568],[44.9068,36.9959,2042.3252],[44.9169,37.0048,1992.4584],[44.9219,37.0147,2417.1409],[44.9206,37.0205,2212.1169],[44.9146,37.0286,2034.8843],[44.8867,37.0352,2108.3662],[44.8779,37.0434,1990.2046],[44.8691,37.0488,2084.0286],[44.8546,37.0467,2247.2354],[44.8366,37.0393,1977.675],[44.8218,37.0476,2132.4214],[44.8082,37.0661,2427.4031],[44.7992,37.0729,2502.7646],[44.7964,37.0779,2309.2925],[44.7944,37.0904,2696.4761],[44.7773,37.1109,2383.845],[44.7756,37.1158,2450.1616],[44.7772,37.1215,2614.0901],[44.7868,37.135,2889.6604],[44.805,37.1481,2781.4885],[44.7711,37.1675,2716.3237],[44.7633,37.1674,2571.377],[44.7547,37.1632,2377.8943],[44.7338,37.1709,2344.3232],[44.7185,37.1744,2251.6836],[44.6785,37.1752,2210.5605],[44.6523,37.1856,2095.1951],[44.645,37.1875,2069.6995],[44.6377,37.1867,2149.3613],[44.6265,37.1815,2081.3059],[44.6035,37.1658,1992.8158],[44.5862,37.1604,1960.4124],[44.5771,37.1526,2117.4348],[44.5639,37.1375,1771.6736],[44.554,37.1231,1514.0159],[44.5381,37.1211,1310.637],[44.5277,37.1161,1263.3977],[44.5221,37.1099,1381.604],[44.5197,37.0999,1257.9341],[44.5114,37.0935,1186.5642],[44.4566,37.07,932.697],[44.4261,37.0633,841.4097],[44.4058,37.0558,853.6919],[44.3709,37.0566,725.6682],[44.3578,37.0531,708.6931],[44.3507,37.0493,750.327],[44.3482,37.046,718.1821],[44.3486,37.0434,696.2048],[44.3648,37.0308,713.6493],[44.3651,37.0264,686.2347],[44.3613,37.0203,721.0061],[44.3428,37.0053,727.9665],[44.3235,36.9825,849.9489],[44.32,36.9671,624.3445],[44.3033,36.9749,682.4161],[44.2822,36.9752,758.8485],[44.2771,36.9768,924.699],[44.2688,36.983,1041.3374],[44.2604,37.0033,1196.9055],[44.2435,37.0267,1674.0114],[44.2427,37.0341,1794.9813],[44.2482,37.046,1335.8701],[44.2469,37.0501,1215.8929],[44.2423,37.055,1114.5402],[44.2241,37.0655,1349.3481],[44.2149,37.0733,1387.7889],[44.2056,37.087,1714.0079],[44.2023,37.0981,2394.542],[44.2027,37.1048,2362.6768],[44.2085,37.115,2305.3423],[44.2173,37.1252,2197.0469],[44.2335,37.1398,2046.743],[44.2423,37.1567,1789.6313],[44.2563,37.1539,1693.2184],[44.2686,37.1552,1644.7404],[44.2817,37.1622,1765.2065],[44.2901,37.175,1194.1696],[44.2903,37.1844,973.5555],[44.2791,37.2039,1424.8534],[44.2821,37.2267,1610.886],[44.2789,37.2363,1537.4364],[44.2678,37.2515,1587.3729],[44.2374,37.2791,1947.434],[44.2156,37.2842,2458.644],[44.1945,37.2914,1784.4493],[44.1799,37.2995,1784.9399],[44.1683,37.3007,1561.4302],[44.1563,37.306,1690.0973],[44.1418,37.3157,1498.9587],[44.112,37.3125,1390.059],[44.0941,37.3131,1196.8513],[44.075,37.3165,1006.1855],[44.0615,37.3221,955.956],[44.0367,37.3213,1062.2214],[44.033,37.325,929.7321],[44.0298,37.3247,1038.6827],[44.0232,37.3178,946.8226],[44.029,37.311,1270.126],[44.0348,37.2983,1731.2952],[44.0424,37.2697,1850.9299],[44.0477,37.2248,1762.9675],[44.0487,37.1962,1359.7495],[44.0476,37.1824,996.606],[44.0433,37.1642,1053.7816],[44.0281,37.1356,1248.7135],[44.0164,37.1195,1007.6143],[44.0032,37.1053,1163.3418],[43.9725,37.0808,820.1815],[43.9275,37.0489,1145.5115],[43.8954,37.0294,1261.9751],[43.8266,36.9956,666.9805],[43.8182,36.99,798.7211],[43.8124,36.9841,1111.7454],[43.8128,36.9817,1300.8442],[43.8205,36.9716,1508.2549],[43.8289,36.9645,1280.5146],[43.8488,36.9527,1264.7828],[43.8865,36.9361,1241.8507],[43.9523,36.9132,934.379],[43.9728,36.9027,861.4701],[43.9954,36.8798,536.0702],[44.0298,36.8347,962.8639],[44.0424,36.825,846.5903],[44.0641,36.817,713.4724],[44.1225,36.8009,700.329],[44.1845,36.7759,1522.1594],[44.2063,36.7636,1049.5942],[44.2272,36.7483,825.6198],[44.2428,36.732,578.5684],[44.2582,36.704,787.1423],[44.2589,36.6956,849.5784],[44.2392,36.6524,525.7147],[44.2195,36.6313,519.3737],[44.2024,36.6179,465.676],[44.1513,36.5874,448.1013],[44.1342,36.5805,598.8019],[44.1119,36.5757,390.1246],[44.0941,36.5738,497.4574],[44.056399999999996,36.5742,570.4493],[44.0106,36.5782,530.8301],[43.9995,36.5778,412.543],[43.9812,36.5726,367.62],[43.9693,36.5652,345.9935],[43.9072,36.5118,352.4749],[43.8383,36.4466,347.9345],[43.8259,36.4295,293.0977],[43.7977,36.3726,276.7106],[43.7762,36.3458,281.0522],[43.7543,36.3144,300.9378],[43.7461,36.3056,294.2642],[43.737,36.2979,300.5988],[43.7232,36.2904,294.128],[43.711,36.286,295.5099],[43.7032,36.2782,308.9706],[43.6678,36.2572,301.0398],[43.6302,36.2288,251.0357],[43.5942,36.199,238.6098],[43.5863,36.19,236.3221],[43.5829,36.1824,231.0036],[43.541,36.1203,222.5115],[43.5256,36.0943,217.9845],[43.4982,36.0393,226.5577],[43.4841,36.0221,210.8568],[43.4676,36.009,215.0504],[43.4453,35.9961,211.9023],[43.4285,35.9912,214.0578],[43.3821,35.9831,203.6899],[43.3641,35.9744,203.3131],[43.3597,35.9701,205.2196],[43.3586,35.9673,211.2946],[43.3606,35.9628,215.5805],[43.3678,35.9569,204.6467],[43.4108,35.9331,204.179],[43.419,35.9259,213.6605],[43.4263,35.9151,226.7232],[43.4297,35.9055,215.6157],[43.4307,35.8964,249.934],[43.4289,35.8875,246.0228],[43.4258,35.8798,227.6248],[43.4103,35.8561,202.5628],[43.3905,35.8315,212.1586],[43.3646,35.8088,230.2126],[43.3576,35.8007,237.6989],[43.3496,35.7858,233.2262],[43.3445,35.767,210.8955],[43.3422,35.7491,216.0228],[43.3436,35.6871,196.6549],[43.3419,35.6721,192.821],[43.3682,35.6472,192.0744],[43.3809,35.6311,194.366],[43.3862,35.6169,194.0783],[43.3955,35.5813,208.3474],[43.4175,35.5438,196.9664],[43.4217,35.5199,188.551],[43.4214,35.4565,194.9819],[43.4394,35.4516,193.6362],[43.4896,35.4463,184.9785],[43.5282,35.4385,177.6553],[43.5398,35.4387,177.6989],[43.5567,35.4455,180.4042],[43.5971,35.4723,189.8237],[43.6644,35.5067,215.2727],[43.6903,35.5177,210.9921],[43.7372,35.5319,209.9644],[43.7405,35.577,226.9249],[43.7437,35.593,232.7172],[43.7481,35.6034,235.4701],[43.7678,35.6379,262.9135],[43.7717,35.6486,277.6529],[43.7722,35.6599,289.5108],[43.7673,35.689,610.8434],[43.7677,35.6992,675.1447],[43.7708,35.7097,456.5193],[43.7804,35.725,340.9853],[43.7939,35.7381,294.7545],[43.8145,35.7535,268.2307],[43.8419,35.771,293.74],[43.8558,35.7826,303.3565]]]]}}