{"type":"Feature","properties":{"ISO3166-1-Alpha-3":"IRQ","country":"Iraq","fill":"#FF0","id":"3050","name":"Arbil"},
"geometry":{"type": "Polygon","coordinates": [[[44.28482,36.96917,565.5491],[44.24327,36.97777,873.3555],[44.23428,36.98366,645.0763],[44.22777,36.99413,706.6144],[44.18746,37.06694,1855.3613],[44.18002,37.08761,2001.0021],[44.18064,37.10892,2096.5271],[44.18922,37.12921,1571.2983],[44.20596,37.14662,1477.739],[44.21878,37.15262,2017.6226],[44.2302,37.15432,2074.0391],[44.24012,37.15797,1819.6243],[44.24834,37.16967,1184.0552],[44.24963,37.17944,1011.152],[44.24854,37.19192,854.5435],[44.24353,37.21383,1319.8765],[44.235,37.23677,1989.795],[44.22317,37.25406,2123.5356],[44.20689,37.26752,2658.4048],[44.18447,37.27917,2370.2458],[44.08804,37.31116,1285.8026],[44.06902,37.31373,946.5719],[44.06432,37.2994,983.071],[44.06773,37.29455,902.3796],[44.07093,37.29333,962.5325],[44.07331,37.2917,969.2803],[44.07548,37.28741,866.3626],[44.0762,37.28581,871.2267],[44.07775,37.28452,850.761],[44.07982,37.28354,926.9485],[44.0821,37.28266,851.1182],[44.08396,37.28132,870.8082],[44.08695,37.28002,845.4086],[44.0883,37.27744,864.6998],[44.0883,37.27413,860.8539],[44.0793,37.25959,837.7947],[44.07651,37.25302,834.4911],[44.07589,37.24902,793.2384],[44.0762,37.2453,798.9778],[44.07796,37.23956,810.0227],[44.07889,37.23359,775.8728],[44.08075,37.23073,774.7645],[44.08334,37.22897,911.7836],[44.08706,37.22793,840.9976],[44.09326,37.22778,864.0433],[44.09512,37.22716,865.4937],[44.09667,37.22571,828.614],[44.09936,37.21427,758.8599],[44.09946,37.21039,874.8237],[44.09853,37.20768,808.0165],[44.08757,37.20388,832.9399],[44.07672,37.19688,917.1733],[44.06897,37.19065,776.4667],[44.05698,37.17781,850.8502],[44.05388,37.17223,820.5226],[44.05326,37.1683,707.7991],[44.05781,37.1614,701.5228],[44.05574,37.15856,687.9538],[44.05047,37.15538,723.6611],[44.03755,37.15125,710.2249],[44.01678,37.14236,750.0422],[44.0112,37.13835,756.916],[43.99621,37.1214,773.3735],[43.99249,37.1159,670.4949],[43.9867,37.11156,647.457],[43.97864,37.10758,654.1644],[43.96066,37.10076,752.0164],[43.95208,37.09836,640.1262],[43.94774,37.09595,628.6396],[43.94949,37.09285,644.502],[43.95166,37.09068,623.4415],[43.95135,37.08867,683.7684],[43.94681,37.08624,717.6895],[43.90939,37.07415,697.5439],[43.89193,37.06608,622.509],[43.88614,37.06205,622.2986],[43.88273,37.05611,601.4926],[43.87839,37.04528,568.6891],[43.87446,37.04032,620.4806],[43.86981,37.03668,628.4595],[43.86164,37.03503,689.3157],[43.848,37.0296,675.576],[43.82816,37.01185,554.8188],[43.89172,36.98418,808.0894],[43.91466,36.98009,531.5693],[43.92045,36.98118,528.3735],[43.92603,36.97997,573.6335],[43.9313,36.97666,534.7831],[43.95352,36.95932,560.6796],[43.97378,36.9493,509.5127],[43.98773,36.94036,508.528],[44.00055,36.93503,513.0356],[44.00654,36.93116,581.8784],[44.01171,36.92503,619.6506],[44.01295,36.92015,531.6749],[44.01574,36.91521,565.6826],[44.02039,36.90886,556.5814],[44.01977,36.90604,505.0011],[44.01729,36.90447,488.4599],[44.01326,36.90377,487.6155],[44.01057,36.90237,493.8493],[44.01047,36.90046,509.9947],[44.01275,36.89857,497.8315],[44.02908,36.89912,478.3206],[44.0328,36.89989,494.7775],[44.03714,36.89886,502.0493],[44.04117,36.89607,547.121],[44.04758,36.88814,491.1613],[44.04799,36.88349,472.4081],[44.04706,36.87933,479.2062],[44.04561,36.87664,468.6655],[44.04654,36.87382,466.9001],[44.05481,36.86325,462.3303],[44.05853,36.86134,475.2642],[44.06618,36.86207,459.7938],[44.07062,36.86307,460.4488],[44.07496,36.8632,458.6624],[44.08416,36.8616,456.7354],[44.11413,36.85933,454.8332],[44.11755,36.85809,454.0958],[44.1223,36.8555,453.2494],[44.12571,36.85033,461.1885],[44.13036,36.84615,453.1556],[44.13749,36.84209,451.6456],[44.23175,36.80884,425.5532],[44.2486,36.79819,458.6697],[44.25697,36.79414,433.0984],[44.26245,36.78987,446.732],[44.26431,36.78589,429.8296],[44.26524,36.77737,414.8961],[44.26617,36.77282,420.5671],[44.27661,36.76414,409.8832],[44.27971,36.75675,413.1717],[44.2857,36.74548,410.3856],[44.28839,36.7445,422.6374],[44.29066,36.74517,411.9885],[44.29314,36.74714,403.6509],[44.29552,36.74802,405.112],[44.29779,36.74776,410.771],[44.29996,36.7461,416.843],[44.30182,36.74311,450.6652],[44.30265,36.73944,401.6885],[44.30213,36.73463,428.1082],[44.29707,36.72585,416.3935],[44.26131,36.6875,461.7061],[44.23309,36.66722,444.4055],[44.21728,36.64727,374.9163],[44.20023,36.64257,380.8489],[44.19258,36.63825,378.7009],[44.16529,36.61841,366.7469],[44.14803,36.60983,371.0111],[44.13532,36.60084,400.3605],[44.12499,36.59932,372.6766],[44.12106,36.60079,361.5774],[44.11982,36.60374,366.3812],[44.12013,36.60647,356.1627],[44.11848,36.60839,359.5345],[44.11486,36.61022,363.0768],[44.10928,36.61149,358.3212],[44.10421,36.61174,358.1951],[44.09884,36.6104,358.2616],[44.08881,36.60663,356.159],[44.0852,36.60634,351.7532],[44.08137,36.60668,355.6939],[44.07796,36.60557,355.0104],[44.07527,36.60306,353.9305],[44.07372,36.59769,358.943],[44.07341,36.59381,354.7671],[44.07186,36.59035,353.0639],[44.06876,36.58911,358.0865],[44.06215,36.59079,351.05],[44.05905,36.59374,344.2817],[44.05812,36.59733,347.1285],[44.05905,36.60123,343.8597],[44.06101,36.60495,343.9951],[44.06225,36.60828,346.3483],[44.06163,36.61071,345.1014],[44.05946,36.6118,345.4691],[44.05502,36.6119,346.4714],[44.05037,36.61133,341.116],[44.04489,36.60976,344.7927],[44.04024,36.60926,343.5007],[44.03538,36.61009,336.9601],[44.03135,36.612,341.5561],[44.02825,36.61464,345.5615],[44.0269,36.61743,336.92],[44.02577,36.62084,336.7915],[44.02391,36.6236,341.0429],[44.02194,36.62391,341.4998],[44.01957,36.62213,340.2537],[44.01926,36.61702,335.057],[44.0205,36.6134,335.5609],[44.02411,36.6087,337.7048],[44.02298,36.60634,337.9648],[44.01822,36.60585,349.3077],[44.01512,36.60678,334.4462],[44.01244,36.60854,327.4984],[44.00706,36.60632,344.0214],[43.99869,36.60076,330.5707],[43.97337,36.57743,325.1346],[43.96934,36.56883,328.9835],[43.96655,36.5648,323.308],[43.96262,36.56015,318.0872],[43.9527,36.55358,348.3338],[43.94577,36.54627,323.0093],[43.93172,36.53769,328.4428],[43.92552,36.53609,318.596],[43.92045,36.53723,315.111],[43.91776,36.54074,314.7222],[43.91466,36.54345,315.2096],[43.91146,36.54565,308.5638],[43.90846,36.54524,312.4424],[43.90588,36.54252,317.8859],[43.90464,36.53526,308.2361],[43.90557,36.52312,308.1317],[43.9035,36.51687,306.149],[43.89885,36.51129,306.0588],[43.88986,36.50862,305.3675],[43.88355,36.50844,307.5855],[43.85834,36.51098,296.5],[43.8542,36.50891,302.8439],[43.85182,36.50467,307.6929],[43.85245,36.49496,301.0077],[43.85451,36.49059,300.1282],[43.85679,36.48728,293.9371],[43.85823,36.48374,294.4543],[43.85865,36.48,290.6589],[43.85865,36.47566,291.8557],[43.85741,36.47033,301.5761],[43.854,36.46553,302.3892],[43.84459,36.45966,297.446],[43.83663,36.4561,288.9625],[43.8294,36.45403,285.0399],[43.82216,36.45408,285.6313],[43.811,36.45568,285.6566],[43.80749,36.45542,286.0568],[43.8047,36.45289,286.2594],[43.80408,36.44912,288.963],[43.80842,36.43997,280.1996],[43.80997,36.43085,283.903],[43.811,36.41615,280.7107],[43.80377,36.3962,276.4417],[43.78671,36.37277,273.2319],[43.74475,36.33207,265.776],[43.72863,36.31998,262.2772],[43.71013,36.31037,257.3279],[43.70227,36.30742,259.165],[43.68811,36.29375,253.6532],[43.66548,36.28572,250.6941],[43.65762,36.27988,250.7437],[43.64967,36.27115,249.9079],[43.63799,36.25484,244.9848],[43.629,36.245,243.9661],[43.59747,36.22182,237.7027],[43.5922,36.21531,235.962],[43.58683,36.20366,234.3543],[43.57536,36.18407,233.4484],[43.55593,36.17244,229.1081],[43.54755,36.17146,227.9362],[43.54404,36.16836,224.485],[43.53898,36.15945,225.6589],[43.5367,36.15229,223.9636],[43.53401,36.14578,223.3934],[43.51262,36.11353,213.5],[43.51045,36.10513,216.7892],[43.51014,36.09844,214.2087],[43.51169,36.0787,212.1379],[43.51045,36.07387,210.0575],[43.50756,36.06873,214.8436],[43.4934,36.05157,208.3698],[43.48255,36.0433,205.728],[43.35294,35.99912,188.479],[43.34478,35.98884,184.5],[43.35098,35.96367,184.8961],[43.36162,35.95481,204.1808],[43.37795,35.95308,203.3951],[43.39087,35.95295,211.9189],[43.39428,35.94582,208.2039],[43.39439,35.92724,198.0155],[43.38539,35.85789,209.1591],[43.37454,35.83781,196.7756],[43.3672,35.83192,215.3925],[43.35935,35.83055,220.1275],[43.35222,35.8306,207.8821],[43.34664,35.82781,199.8702],[43.34137,35.8213,208.3066],[43.31976,35.78087,200.1817],[43.31584,35.76911,195.514],[43.31666,35.76063,186.5338],[43.3179,35.75495,179.4232],[43.33434,35.72345,177.6368],[43.32783,35.69609,198.5995],[43.32566,35.69172,196.2684],[43.32162,35.68578,192.2213],[43.32287,35.68203,195.8762],[43.32555,35.67873,192.2446],[43.3302,35.67449,187.6754],[43.33496,35.66844,191.3239],[43.33992,35.65886,187.9023],[43.34395,35.64635,186.781],[43.34199,35.63852,188.162],[43.33919,35.63201,188.2513],[43.34023,35.62806,189.4465],[43.34292,35.6254,189.294],[43.34757,35.62385,192.9052],[43.35222,35.62317,188.2486],[43.35759,35.62069,189.0613],[43.36379,35.61527,193.8291],[43.37154,35.60343,199.8687],[43.37506,35.58824,205.8619],[43.3794,35.51044,184.1153],[43.37888,35.5014,188.7723],[43.37764,35.49497,191.7069],[43.3734,35.48163,188.1479],[43.37237,35.46939,182.4287],[43.37123,35.46404,182.6028],[43.36865,35.46091,183.0509],[43.36627,35.46008,181.4394],[43.35821,35.45822,181.764],[43.40327,35.43476,182.9689],[43.41289,35.43107,182.0014],[43.43387,35.42634,179.8488],[43.44451,35.42603,179.3577],[43.45464,35.42763,180.4842],[43.47448,35.44215,190.5314],[43.48988,35.44608,184.9785],[43.53267,35.44771,181.9878],[43.55221,35.45032,183.1964],[43.56802,35.45763,181.5597],[43.5767,35.46949,184.8645],[43.58838,35.49845,202.529],[43.59809,35.50928,204.0829],[43.61163,35.51434,207.4783],[43.63396,35.51388,215.8182],[43.66734,35.51618,208.9385],[43.69979,35.5322,212.4494],[43.72108,35.53372,208.8242],[43.73194,35.53737,215.3531],[43.74186,35.54809,216.7565],[43.75209,35.57796,230.6047],[43.75767,35.60284,239.684],[43.76449,35.61454,248.0383],[43.77968,35.62979,267.076],[43.7926,35.63958,306.5755],[43.80108,35.6487,352.1178],[43.8017,35.65987,359.9494],[43.79767,35.66901,408.405],[43.79147,35.67806,483.1819],[43.76945,35.69831,668.1761],[43.76304,35.70289,718.2501],[43.76232,35.70929,636.7086],[43.76852,35.7179,390.3074],[43.82971,35.76001,284.457],[43.90185,35.82368,356.5616],[43.91187,35.84577,407.5412],[43.92727,35.84812,438.0969],[43.94991,35.84128,461.5254],[44.05543,35.77986,426.0276],[44.09284,35.78105,314.4317],[44.11413,35.78425,265.4884],[44.12344,35.789,304.2939],[44.13222,35.80384,308.7],[44.14679,35.83564,315.1086],[44.16984,35.84293,309.6269],[44.18658,35.84564,311.4136],[44.24147,35.83691,273.6758],[44.26338,35.8335,278.8577],[44.28229,35.82564,280.4945],[44.28808,35.82461,281.0025],[44.29624,35.82507,281.7613],[44.30606,35.82714,282.1649],[44.32043,35.83347,302.7555],[44.32621,35.83768,290.0684],[44.33107,35.84394,288.1151],[44.3349,35.84409,287.9934],[44.3472,35.83898,290.8659],[44.35309,35.83758,290.5048],[44.368899999999996,35.83546,293.9889],[44.37334,35.83378,294.7201],[44.37644,35.83314,295.8104],[44.37944,35.8336,295.5697],[44.38461,35.84223,300.0442],[44.38802,35.84435,297.4282],[44.40673,35.85089,299.0542],[44.41231,35.85365,301.1828],[44.41665,35.85717,303.0861],[44.42192,35.86016,302.1312],[44.42936,35.86089,304.5808],[44.44187,35.85918,305.0934],[44.45055,35.85923,306.5698],[44.47194,35.86941,311.9973],[44.49396,35.86381,314.72],[44.49664,35.86099,312.9222],[44.49954,35.8597,314.9793],[44.50408,35.86024,314.9723],[44.51277,35.86427,316.8167],[44.51876,35.86564,318.4977],[44.5261,35.86347,334.9515],[44.53023,35.8599,328.617],[44.53664,35.8522,321.1484],[44.54047,35.85027,322.9588],[44.54408,35.85086,331.03],[44.54594,35.85551,332.9346],[44.54532,35.85892,323.8628],[44.54408,35.86213,326.3026],[44.54315,35.86549,326.3628],[44.54377,35.86869,324.6476],[44.5476,35.87094,327.7985],[44.55152,35.87171,330.5649],[44.56207,35.86613,328.8962],[44.5661,35.86551,331.8094],[44.57106,35.86985,343.4628],[44.57509,35.87443,331.8948],[44.58098,35.87952,334.6685],[44.58935,35.88512,338.3629],[44.59297,35.89003,349.3079],[44.59669,35.89763,336.328],[44.59958,35.90094,337.223],[44.60423,35.90352,336.0183],[44.61498,35.90783,337.9243],[44.61829,35.90734,340.4771],[44.62139,35.90378,349.3325],[44.62139,35.89417,344.1667],[44.62728,35.88569,345.9999],[44.64557,35.89259,346.2124],[44.64847,35.8922,346.4262],[44.65312,35.89042,345.3044],[44.65591,35.88716,346.9156],[44.65994,35.88388,351.0424],[44.66366,35.8844,351.1368],[44.67462,35.88957,354.0464],[44.678959999999996,35.88946,349.8231],[44.68185,35.88791,353.6139],[44.68361,35.88574,351.8531],[44.68392,35.88337,350.801],[44.68371,35.88091,352.9924],[44.68402,35.87799,353.7606],[44.68774,35.87381,355.9919],[44.6927,35.87313,354.5435],[44.69849,35.87386,359.3654],[44.72237,35.87985,357.35],[44.73012,35.87954,357.4479],[44.73529,35.8783,359.2161],[44.74035,35.87161,363.4524],[44.74614,35.86755,363.1025],[44.75141,35.86719,363.5803],[44.75709,35.86895,364.8988],[44.76257,35.87189,365.0082],[44.77105,35.87443,367.0061],[44.77735,35.87401,363.2061],[44.78179,35.87257,366.851],[44.78613,35.86864,364.7949],[44.78986,35.86409,368.9457],[44.79792,35.85887,371.9427],[44.80257,35.85846,371.4048],[44.80567,35.86068,372.7142],[44.8065,35.86396,369.4214],[44.80743,35.8706,371.1092],[44.80908,35.87375,372.7849],[44.81187,35.87696,373.7252],[44.81611,35.88016,374.7027],[44.81921,35.88027,372.6394],[44.82293,35.87921,376.1736],[44.82603,35.87719,373.2957],[44.82789,35.87443,373.5815],[44.82892,35.85954,375.6801],[44.83099,35.85414,380.9214],[44.83347,35.85275,378.5409],[44.83647,35.8535,378.6766],[44.84608,35.86133,383.1183],[44.86138,35.86567,382.0888],[44.86696,35.87195,387.2234],[44.86592,35.87443,388.3769],[44.85507,35.89073,394.3456],[44.85569,35.89339,389.2989],[44.85859,35.89476,392.3747],[44.86654,35.89603,394.2225],[44.87006,35.89582,392.7022],[44.87626,35.8936,391.4263],[44.87967,35.89324,396.9407],[44.89042,35.89445,396.6147],[44.89528,35.8938,395.649],[44.89869,35.89215,393.0814],[44.90334,35.88817,406.8086],[44.90551,35.88678,397.213],[44.90778,35.88559,401.4219],[44.90964,35.88339,394.6694],[44.91491,35.8806,403.6588],[44.92442,35.8784,516.7399],[44.94726,35.87789,495.2158],[44.95791,35.87913,540.914],[44.96504,35.88122,405.533],[44.97145,35.88543,415.44],[44.97341,35.88822,404.4713],[44.97558,35.89414,406.5074],[44.97713,35.89644,407.9756],[44.97765,35.89871,403.9222],[44.97734,35.90145,411.7632],[44.97589,35.90429,406.1313],[44.96928,35.91091,477.648],[44.90148,35.9383,951.2479],[44.87678,35.95241,976.1209],[44.84525,35.97643,1201.9214],[44.77198,36.04821,1045.2783],[44.76236,36.0546,1022.2075],[44.75048,36.06093,1075.6409],[44.72764,36.06894,990.1086],[44.62738,36.12679,987.1527],[44.62201,36.13596,819.8149],[44.61767,36.14862,707.4934],[44.63917,36.16268,595.3908],[44.64692,36.16898,599.6224],[44.6525,36.17578,566.6982],[44.65767,36.18389,566.4294],[44.66542,36.18867,625.5571],[44.68867,36.19743,560.993],[44.69797,36.20596,804.473],[44.69518,36.21425,813.6888],[44.6895,36.22179,862.9347],[44.63937,36.27089,1101.2142],[44.62945,36.27761,992.0222],[44.61891,36.27797,1141.8352],[44.6124,36.27409,1241.264],[44.60268,36.26513,1025.049],[44.54512,36.33608,1434.7642],[44.53953,36.34778,1370.4138],[44.53985,36.36897,1046.9922],[44.57281,36.39253,892.241],[44.58398,36.40571,1026.7018],[44.6032,36.42382,1204.3209],[44.63379,36.44261,2322.9561],[44.65467,36.44811,2209.2771],[44.67121,36.44617,1980.6388],[44.69984,36.4394,2174.5713],[44.74552,36.44527,1641.1632],[44.78924,36.45462,1953.8728],[44.84112,36.47566,1061.0891],[44.86324,36.47961,1650.1495],[44.8837,36.48,2102.3406],[44.92638,36.47139,2553.6179],[44.9609,36.4694,2298.5339],[44.97527,36.47377,2325.5645],[44.98643,36.48023,2562.5796],[44.99997,36.49676,2347.8718],[45.00545,36.50661,2572.2661],[45.00948,36.51609,3116.0146],[45.00952,36.5162,3116.0146],[45.00591,36.5187,3024.5596],[44.99139,36.53374,2842.8179],[44.99341,36.54966,3311.1667],[44.99785,36.55209,3225.8892],[45.01025,36.55601,3422.7241],[45.01325,36.55792,3296.7539],[45.01418,36.57901,2323.0176],[45.02488,36.61317,2770.0818],[45.04431,36.64934,2045.3159],[45.04591,36.66805,1743.2852],[45.03527,36.6896,2177.9407],[45.01098,36.72556,2615.6143],[44.9962,36.74169,2596.5461],[44.97946,36.74902,3010.1313],[44.96643,36.74933,3111.4971],[44.95475,36.75233,2917.0547],[44.94442,36.75827,2634.7285],[44.93522,36.76711,2780.6953],[44.92271,36.7759,3456.5266],[44.90825,36.77786,3321.0347],[44.87724,36.77646,2910.7771],[44.85119,36.78122,3053.3066],[44.83125,36.79192,2909.8213],[44.82339,36.80933,2731.1406],[44.83414,36.83403,2674.6992],[44.86964,36.86897,2657.9016],[44.88344,36.88685,2861.668],[44.88882,36.91093,2728.7429],[44.88406,36.93335,2619.8894],[44.87486,36.94966,2621.4253],[44.86918,36.96736,2324.0925],[44.87476,36.99402,1876.8551],[44.88571,37.00508,1888.1433],[44.88737,37.01593,1771.3755],[44.88075,37.02492,2164.9575],[44.85895,37.03412,2296.469],[44.84758,37.04404,2248.1304],[44.8406,37.0472,2384.7451],[44.83094,37.04684,2244.0698],[44.8112,37.04193,2537.8765],[44.8019,37.04353,2530.9668],[44.7973,37.04849,2548.6721],[44.79223,37.06373,2393.54],[44.78836,37.07024,2552.7939],[44.78112,37.07448,2630.1016],[44.77363,37.07634,2475.3528],[44.76655,37.07895,2065.7295],[44.76066,37.08564,2130.7295],[44.7527,37.10332,2493.3699],[44.75254,37.11314,2909.3088],[44.76614,37.14192,2890.1367],[44.75384,37.15915,2440.9546],[44.73379,37.16724,2289.6321],[44.62893,37.17902,2151.0864],[44.61028,37.17835,1906.4292],[44.57824,37.16641,1822.7874],[44.53938,37.14368,2137.6807],[44.50341,37.11662,1839.2212],[44.47923,37.092,1107.3538],[44.45442,37.07634,965.0515],[44.42807,37.06477,805.6116],[44.34311,37.04244,708.9457],[44.33515,37.03115,897.2577],[44.33164,37.01547,795.2416],[44.31614,36.99413,811.8276],[44.31614,36.99402,811.8276],[44.31598,36.99397,811.8276],[44.31588,36.99397,811.8276],[44.30663,36.97723,700.8802],[44.29722,36.96994,589.5604],[44.28482,36.96917,565.5491]]]}}