{"type":"Feature","properties":{"GID_1":"IRQ.8_1","GID_0":"IRQ","country":"Iraq","province":"At-Ta'mim","VARNAME_1":"Kirkuk|Tamin","NL_NAME_1":"NA","TYPE_1":"Muhafazah","ENGTYPE_1":"Province","CC_1":"NA","HASC_1":"IQ.TS","ISO_1":"NA","name":"At-Ta'mim.province"},
"geometry":{"type": "MultiPolygon","coordinates": [[[[44.6777,35.5329,770.7546],[44.6758,35.5448,718.7734],[44.6782,35.591,722.621],[44.681,35.6021,744.0455],[44.6892,35.622,662.9895],[44.7133,35.6608,756.5173],[44.7146,35.6682,767.2714],[44.7134,35.6808,776.0702],[44.7097,35.6894,760.9047],[44.7051,35.695,756.3544],[44.6569,35.7265,767.8723],[44.64,35.7453,677.0111],[44.6255,35.768,740.7061],[44.5924,35.8273,626.1099],[44.5863,35.8436,437.9357],[44.585,35.854,363.5085],[44.5787,35.8596,338.6519],[44.5624,35.8637,349.2316],[44.5526,35.8637,327.7091],[44.5393,35.8615,363.8601],[44.4935,35.8487,343.5906],[44.4773,35.8481,388.8353],[44.4219,35.8508,303.1171],[44.4037,35.8466,304.5317],[44.3314,35.8197,301.1134],[44.3111,35.8142,371.1101],[44.2922,35.8112,402.0309],[44.2759,35.8118,379.5641],[44.2639,35.8148,362.6617],[44.246,35.8237,318.3254],[44.2374,35.8305,281.7159],[44.1517,35.8311,315.2751],[44.1375,35.8298,315.7651],[44.1242,35.8238,314.4213],[44.1209,35.8196,313.0223],[44.1117,35.795,271.8635],[44.105,35.7842,283.964],[44.0896,35.7727,337.0374],[44.0774,35.7669,385.3681],[44.0439,35.774,454.235],[44.0185,35.784,421.6838],[43.9982,35.7962,422.647],[43.9665,35.8212,428.1207],[43.9519,35.8288,428.8142],[43.9358,35.8314,406.9132],[43.9092,35.8326,380.8786],[43.8977,35.8349,371.7468],[43.8558,35.7826,303.3565],[43.8419,35.771,293.74],[43.8145,35.7535,268.2307],[43.7939,35.7381,294.7545],[43.7804,35.725,340.9853],[43.7708,35.7097,456.5193],[43.7677,35.6992,675.1447],[43.7673,35.689,610.8434],[43.7722,35.6599,289.5108],[43.7717,35.6486,277.6529],[43.7678,35.6379,262.9135],[43.7481,35.6034,235.4701],[43.7437,35.593,232.7172],[43.7405,35.577,226.9249],[43.7372,35.5319,209.9644],[43.6903,35.5177,210.9921],[43.6644,35.5067,215.2727],[43.5971,35.4723,189.8237],[43.5478,35.441,179.1391],[43.5398,35.4387,177.6989],[43.5282,35.4385,177.6553],[43.4896,35.4463,184.9785],[43.4394,35.4516,193.6362],[43.4214,35.4565,194.9819],[43.4152,35.4535,190.8887],[43.3938,35.4366,184.4023],[43.3777,35.4281,188.0801],[43.3594,35.4254,173.0309],[43.3227,35.4237,160.7558],[43.3142,35.4218,151.8046],[43.2965,35.4128,149.7373],[43.2834,35.4027,139.1144],[43.2791,35.3959,143.2299],[43.2771,35.3847,299.7635],[43.2932,35.337,221.3074],[43.3156,35.3242,230.7716],[43.3364,35.3093,237.4255],[43.3491,35.2954,131.4733],[43.3693,35.267,172.3111],[43.3822,35.2448,202.0514],[43.3865,35.235,137.3759],[43.3901,35.2203,127.7292],[43.3946,35.1899,127.5203],[43.3983,35.1754,190.4969],[43.4028,35.1659,228.8884],[43.4121,35.152,290.9489],[43.4324,35.1325,257.3785],[43.5363,35.0454,169.4051],[43.564,35.0442,110.5],[43.5955,35.0396,185.6561],[43.6469,35.0241,310.4011],[43.6753,35.0118,398.4066],[43.8012,34.9488,300.6397],[43.8437,34.9293,279.6188],[43.8532,34.9224,274.0884],[43.9409,34.8788,265.923],[43.9581,34.8739,268.1058],[43.9794,34.8733,260.4061],[43.993,34.8663,263.8018],[44.0037,34.8578,253.4409],[44.0533,34.8339,286.4283],[44.09,34.8116,268.1596],[44.1384,34.7758,264.4854],[44.1566,34.7599,248.7639],[44.1949,34.7214,172.9188],[44.2263,34.7003,146.9192],[44.2353,34.6967,142.5877],[44.25,34.695,153.6323],[44.2601,34.6974,172.1463],[44.2691,34.7033,194.648],[44.2814,34.7168,199.9132],[44.296,34.7414,145.7625],[44.3134,34.7837,121.3188],[44.3289,34.8161,145.1943],[44.3682,34.8843,172.4258],[44.394,34.9235,176.3356],[44.4336,34.9674,187.9087],[44.4503,34.9908,193.6773],[44.456,35.0062,197.4154],[44.4586,35.0213,199.7],[44.4614,35.0737,211.4479],[44.4659,35.0882,215.8976],[44.4739,35.0995,217.6221],[44.4824,35.1062,232.8985],[44.4933,35.1108,263.0634],[44.5074,35.112,240.1454],[44.5174,35.12,239.6633],[44.5721,35.1522,300.7228],[44.6082,35.1783,350.1477],[44.6223,35.1957,323.0878],[44.6781,35.3013,488.1536],[44.681399999999996,35.3165,516.3401],[44.6747,35.3558,587.0551],[44.6784,35.3724,579.0812],[44.6882,35.3882,636.777],[44.7175,35.4144,803.7438],[44.7242,35.4222,867.8209],[44.7313,35.436,872.1275],[44.7329,35.4438,897.8695],[44.7307,35.4576,896.8958],[44.7258,35.4664,882.3147],[44.6905,35.506,864.475],[44.6841,35.5161,828.3521],[44.6777,35.5329,770.7546]]]]}}