{"type":"Feature","properties":{"ISO3166-1-Alpha-3":"IRQ","country":"Iraq","fill":"#00F","id":"3049","name":"At-Ta'mim"},
"geometry":{"type": "Polygon","coordinates": [[[44.62728,35.88569,345.9999],[44.62139,35.89417,344.1667],[44.62139,35.90378,349.3325],[44.61829,35.90734,340.4771],[44.61498,35.90783,337.9243],[44.60423,35.90352,336.0183],[44.59958,35.90094,337.223],[44.59669,35.89763,336.328],[44.59297,35.89003,349.3079],[44.58935,35.88512,338.3629],[44.58098,35.87952,334.6685],[44.57509,35.87443,331.8948],[44.57106,35.86985,343.4628],[44.5661,35.86551,331.8094],[44.56207,35.86613,328.8962],[44.55152,35.87171,330.5649],[44.5476,35.87094,327.7985],[44.54377,35.86869,324.6476],[44.54315,35.86549,326.3628],[44.54408,35.86213,326.3026],[44.54532,35.85892,323.8628],[44.54594,35.85551,332.9346],[44.54408,35.85086,331.03],[44.54047,35.85027,322.9588],[44.53664,35.8522,321.1484],[44.53023,35.8599,328.617],[44.5261,35.86347,334.9515],[44.51876,35.86564,318.4977],[44.51277,35.86427,316.8167],[44.50408,35.86024,314.9723],[44.49954,35.8597,314.9793],[44.49664,35.86099,312.9222],[44.49396,35.86381,314.72],[44.47194,35.86941,311.9973],[44.45055,35.85923,306.5698],[44.44187,35.85918,305.0934],[44.42936,35.86089,304.5808],[44.42192,35.86016,302.1312],[44.41665,35.85717,303.0861],[44.41231,35.85365,301.1828],[44.40673,35.85089,299.0542],[44.38802,35.84435,297.4282],[44.38461,35.84223,300.0442],[44.37944,35.8336,295.5697],[44.37644,35.83314,295.8104],[44.37334,35.83378,294.7201],[44.368899999999996,35.83546,293.9889],[44.35309,35.83758,290.5048],[44.3472,35.83898,290.8659],[44.3349,35.84409,287.9934],[44.33107,35.84394,288.1151],[44.32621,35.83768,290.0684],[44.32043,35.83347,302.7555],[44.30606,35.82714,282.1649],[44.29624,35.82507,281.7613],[44.28808,35.82461,281.0025],[44.28229,35.82564,280.4945],[44.26338,35.8335,278.8577],[44.24147,35.83691,273.6758],[44.18658,35.84564,311.4136],[44.16984,35.84293,309.6269],[44.14679,35.83564,315.1086],[44.13222,35.80384,308.7],[44.12344,35.789,304.2939],[44.11413,35.78425,265.4884],[44.09284,35.78105,314.4317],[44.05543,35.77986,426.0276],[43.94991,35.84128,461.5254],[43.92727,35.84812,438.0969],[43.91187,35.84577,407.5412],[43.90185,35.82368,356.5616],[43.82971,35.76001,284.457],[43.76852,35.7179,390.3074],[43.76232,35.70929,636.7086],[43.76304,35.70289,718.2501],[43.76945,35.69831,668.1761],[43.79147,35.67806,483.1819],[43.79767,35.66901,408.405],[43.8017,35.65987,359.9494],[43.80108,35.6487,352.1178],[43.7926,35.63958,306.5755],[43.77968,35.62979,267.076],[43.76449,35.61454,248.0383],[43.75767,35.60284,239.684],[43.75209,35.57796,230.6047],[43.74186,35.54809,216.7565],[43.73194,35.53737,215.3531],[43.72108,35.53372,208.8242],[43.69979,35.5322,212.4494],[43.66734,35.51618,208.9385],[43.63396,35.51388,215.8182],[43.61163,35.51434,207.4783],[43.59809,35.50928,204.0829],[43.58838,35.49845,202.529],[43.5767,35.46949,184.8645],[43.56802,35.45763,181.5597],[43.55221,35.45032,183.1964],[43.53267,35.44771,181.9878],[43.48988,35.44608,184.9785],[43.47448,35.44215,190.5314],[43.45464,35.42763,180.4842],[43.44451,35.42603,179.3577],[43.43387,35.42634,179.8488],[43.41289,35.43107,182.0014],[43.40327,35.43476,182.9689],[43.35821,35.45822,181.764],[43.33992,35.44996,179.8591],[43.32338,35.42748,168.3642],[43.31449,35.42675,154.7718],[43.3084,35.42877,150.6137],[43.30281,35.43603,150.7038],[43.30271,35.44065,150.1933],[43.30178,35.44507,148.7897],[43.29785,35.4505,149.9883],[43.29661,35.45331,149.3504],[43.29599,35.45657,150.6205],[43.2931,35.4605,150.1646],[43.28907,35.46236,150.3017],[43.27388,35.4667,142.7331],[43.26736,35.45176,142.1967],[43.27191,35.44257,144.1351],[43.2714,35.43691,140.8474],[43.26891,35.43104,141.2781],[43.26736,35.42102,140.0],[43.26953,35.41148,145.6348],[43.27419,35.40624,140.7542],[43.27884,35.40337,137.5],[43.28101,35.40086,137.1635],[43.28586,35.39332,143.0377],[43.31129,35.3704,135.7041],[43.32255,35.36236,147.475],[43.35067,35.35296,140.723],[43.36493,35.34503,133.4648],[43.37092,35.33226,132.0],[43.36989,35.3295,142.5393],[43.3671,35.32839,142.6629],[43.36359,35.32743,139.3791],[43.36007,35.32513,140.9166],[43.35697,35.31901,133.0205],[43.35904,35.31513,134.91],[43.36255,35.3119,139.2833],[43.36348,35.30774,139.3348],[43.35987,35.29307,133.2423],[43.35676,35.28697,135.5773],[43.35046,35.28043,138.3105],[43.40172,35.27338,134.8159],[43.4225,35.26542,127.6525],[43.41878,35.2463,129.8978],[43.4102,35.24139,126.928],[43.39873,35.23834,132.0144],[43.38891,35.23333,133.4618],[43.38467,35.2224,122.875],[43.38839,35.21354,125.9793],[43.39707,35.20095,121.4868],[43.4072,35.18971,120.5],[43.41506,35.18486,127.0183],[43.48079,35.12651,134.4372],[43.49391,35.11067,118.4029],[43.52006,35.10067,114.0],[43.53825,35.09003,116.3967],[43.54776,35.07809,124.18],[43.57081,35.06541,158.3154],[43.64812,35.03605,412.3236],[43.84779,34.93771,327.9994],[43.91311,34.90552,336.3692],[43.98329,34.88374,285.6188],[44.06814,34.85255,256.0795],[44.12881,34.82198,215.3875],[44.21232,34.75279,230.7404],[44.28839,34.70452,186.0597],[44.29841,34.7022,192.7907],[44.3135,34.70251,189.2101],[44.33614,34.72468,133.3087],[44.34048,34.73,117.6868],[44.34006,34.73243,115.2712],[44.32963,34.73354,117.7272],[44.32601,34.73465,115.9556],[44.32415,34.73656,116.022],[44.32384,34.73899,118.4861],[44.32559,34.74344,117.8733],[44.32539,34.74571,120.041],[44.32167,34.75219,119.9127],[44.32074,34.75641,120.5002],[44.32415,34.76731,127.2281],[44.32497,34.77268,122.8466],[44.32446,34.78237,128.9046],[44.32559,34.78625,127.3221],[44.3287,34.7901,128.0331],[44.3413,34.7994,131.2545],[44.34689,34.80529,134.8819],[44.3504,34.81092,136.5854],[44.35381,34.82095,142.6499],[44.36952,34.83924,143.0592],[44.3811,34.84446,146.2281],[44.38461,34.84821,147.3155],[44.38616,34.85139,149.5112],[44.38626,34.85402,150.8199],[44.38771,34.85645,146.8495],[44.39236,34.8626,152.5181],[44.39308,34.86591,150.8586],[44.39215,34.86947,151.2673],[44.39267,34.87121,152.694],[44.39308,34.87384,153.2323],[44.39711,34.88141,154.9975],[44.40042,34.88629,155.7226],[44.40053,34.88955,156.5049],[44.40022,34.89206,158.7428],[44.40053,34.89394,158.5913],[44.40135,34.89627,158.6947],[44.40259,34.90454,158.7324],[44.4181,34.9242,167.512],[44.43949,34.94185,171.3368],[44.4615,34.96797,179.585],[44.46894,34.97412,180.9113],[44.48124,34.98058,185.2176],[44.49664,34.98681,197.1312],[44.52403,35.00363,210.4572],[44.53364,35.01608,214.9749],[44.53447,35.03091,220.4779],[44.51442,35.06993,224.923],[44.51339,35.08398,227.4228],[44.51845,35.10176,235.2637],[44.52672,35.11253,242.6929],[44.53612,35.12207,255.9014],[44.54346,35.12638,265.8652],[44.54946,35.12873,310.4733],[44.56207,35.12907,322.6215],[44.6064,35.15979,289.7251],[44.68433,35.17989,335.3051],[44.69487,35.18834,351.7953],[44.69766,35.19669,345.3641],[44.69084,35.21049,358.1951],[44.68929,35.2179,364.2744],[44.68991,35.22645,386.4012],[44.69384,35.23555,414.9721],[44.70407,35.24816,427.2185],[44.71616,35.25508,433.9678],[44.72536,35.25927,443.6851],[44.7328,35.26113,457.1869],[44.73632,35.26557,480.1692],[44.73911,35.27172,483.5584],[44.7419,35.28516,518.5814],[44.75275,35.30635,569.2311],[44.75699,35.32182,633.7213],[44.75306,35.33673,586.3384],[44.74686,35.3536,665.2926],[44.74397,35.36841,695.4631],[44.75151,35.38797,729.6913],[44.788,35.42841,905.8716],[44.79823,35.44523,945.5269],[44.80339,35.45921,956.6493],[44.80226,35.47063,988.473],[44.78303,35.49217,906.7896],[44.76174,35.51176,898.5038],[44.75492,35.52179,884.6949],[44.75244,35.5316,834.6905],[44.75606,35.56036,704.421],[44.75916,35.5963,684.1298],[44.76319,35.60798,716.2751],[44.76536,35.63354,766.765],[44.76939,35.64408,768.9306],[44.78634,35.66886,664.0623],[44.78541,35.6856,631.5614],[44.77714,35.70542,659.5891],[44.73074,35.73901,648.0807],[44.7079,35.76441,782.0049],[44.68247,35.78699,1029.2805],[44.62728,35.88569,345.9999]]]}}