{"type":"Feature","properties":{"featurecla":"River","scalerank":4,"rivernum":135,"dissolve":"135River","name":"Tigris1","name_alt":null,"note":null,"min_zoom":4.0,"strokeweig":0.3,"name_en":"Tigris","min_label":5.0},
"geometry":{"type": "LineString","coordinates": [[42.3765625,37.062518621869117,345.0117],[42.383691406250023,37.04071686405662,326.8223],[42.3974609375,37.017108465619117,325.7408],[42.41455078125,36.995624090619117,324.7422],[42.45263671875,36.96552155155662,378.5296],[42.470458984375,36.954852606244117,316.5],[42.488037109375,36.95514557499412,356.2892],[42.507519531250011,36.97308991093162,325.0829],[42.5078125,36.95795319218162,328.5823],[42.503173828125,36.937860418744116,311.0],[42.504003906250006,36.921747137494116,324.754],[42.520605468750006,36.918475653119117,320.7292],[42.51318359375,36.89655182499412,321.5777],[42.515527343750023,36.887323309369116,320.765],[42.52392578125,36.879901434369117,334.702],[42.534912109375,36.86322662968162,348.32],[42.508691406250023,36.861835028119117,314.8521],[42.504003906250006,36.85138580936912,313.6971],[42.514746093750006,36.843377996869116,312.5869],[42.534912109375,36.84955475468162,311.3826],[42.566015625,36.83661530155662,307.0],[42.582910156250023,36.82660553593162,324.261],[42.596435546875,36.79608795780662,307.0],[42.612402343750006,36.78937409061912,307.0],[42.654687500000023,36.78876373905662,307.0],[42.659570312500023,36.790790106244117,307.0],[42.663818359375,36.795282293744116,307.0],[42.669335937500023,36.79975006718162,307.0],[42.67822265625,36.801776434369117,307.0],[42.690332031250023,36.79962799686912,307.0],[42.69921875,36.794305731244116,307.0],[42.729589843750006,36.76679108280662,307.0],[42.747167968750006,36.75397369999412,307.0],[42.756445312500006,36.750262762494117,307.0],[42.764550781250023,36.749627996869116,307.0],[42.7724609375,36.747674871869116,307.0],[42.78125,36.740350653119116,307.0],[42.758886718750006,36.733417059369117,307.0],[42.749609375,36.72748444218162,307.0],[42.747167968750006,36.719842840619116,307.0],[42.754003906250006,36.711542059369116,313.0946],[42.764404296875,36.71222565311912,307.0],[42.799707031250023,36.72638580936912,307.0],[42.808007812500023,36.72589752811912,307.0],[42.822265625,36.719842840619116,307.0],[42.82958984375,36.714618231244117,307.0],[42.834863281250023,36.708124090619116,307.0],[42.84326171875,36.69257233280662,314.398],[42.851660156250006,36.70465729374412,307.0],[42.861083984375,36.71051666874412,307.0],[42.87265625,36.71234772343162,307.0],[42.887451171875,36.712420965619117,307.0],[42.89208984375,36.706170965619116,307.0],[42.88818359375,36.69232819218162,307.0],[42.87744140625,36.67145416874412,307.0],[42.905517578125,36.66351959843162,307.0],[42.904394531250006,36.64667389530662,307.0],[42.886474609375,36.63544342655662,307.0],[42.863867187500006,36.64411041874412,307.0],[42.857324218750023,36.643085028119117,307.0],[42.839599609375,36.64411041874412,307.0],[42.831152343750006,36.643085028119117,307.0],[42.830468750000023,36.64020416874412,307.0],[42.83154296875,36.635858465619116,307.0],[42.8291015625,36.630487371869116,307.0],[42.82275390625,36.62384674686912,253.0],[42.818603515625,36.617206121869117,260.1986],[42.818115234375,36.610223699994116,267.3044],[42.822265625,36.602557684369117,260.8705],[42.795996093750006,36.59516022343162,250.5],[42.771875,36.577020574994116,261.99],[42.754003906250006,36.552264715619117,252.9263],[42.747167968750006,36.524676824994117,243.6343],[42.751074218750006,36.50543854374412,243.3546],[42.761621093750023,36.49860260624412,242.7939],[42.794921875,36.50079987186912,242.8651],[42.832763671875,36.49860260624412,252.7436],[42.863867187500006,36.493280340619116,234.9355],[42.921875,36.493280340619116,235.8355],[42.935546875,36.49066803593162,229.7301],[42.972363281250011,36.476825262494117,235.2368],[42.97998046875,36.47003815311912,285.8387],[42.977783203125,36.462665106244117,305.2027],[42.968505859375,36.45246002811912,242.6028],[42.96630859375,36.44245026249412,237.0519],[42.96875,36.43341705936912,226.0821],[42.974707031250006,36.42694733280662,229.527],[43.000683593750011,36.409295965619116,239.1135],[43.031835937500006,36.399676824994117,225.7209],[43.048828125,36.39093659061912,221.011],[43.061621093750006,36.39740631718162,223.7118],[43.081933593750023,36.399188543744117,223.5575],[43.123925781250023,36.397723699994117,232.5084],[43.117089843750023,36.380145574994117,227.2306],[43.12548828125,36.367059637494116,221.6262],[43.138427734375,36.35639069218162,220.3397],[43.14501953125,36.34589264530662,221.3898],[43.148535156250006,36.34308502811912,221.0765],[43.166015625,36.33380768436912,218.4802],[43.172265625000023,36.328876043744117,218.4231],[43.17626953125,36.32074616093162,215.3933],[43.185937500000023,36.287860418744117,213.4767],[43.172265625000023,36.287860418744117,209.7937],[43.178808593750006,36.27765534061912,212.5349],[43.196191406250023,36.25641510624412,215.062],[43.19970703125,36.250604559369116,215.3493],[43.204980468750023,36.238397528119116,209.7359],[43.21640625,36.22980377811912,206.8591],[43.227929687500023,36.223016668744116,213.472],[43.233154296875,36.21649811405662,210.7449],[43.2373046875,36.204852606244117,208.1221],[43.246972656250023,36.19782135624412,216.2854],[43.25830078125,36.192401434369117,230.5249],[43.2671875,36.185419012494116,199.3932],[43.2724609375,36.16937897343162,203.2014],[43.274658203125,36.16498444218162,202.543],[43.287109375,36.150018621869116,200.6592],[43.288281250000011,36.15070221561912,201.3575],[43.29248046875,36.14838287968162,195.683],[43.299218750000023,36.14569733280662,194.5],[43.302978515625,36.141376043744117,198.9109],[43.29541015625,36.128436590619117,194.0253],[43.29453125,36.12128327030662,198.9175],[43.2958984375,36.091815496869117,191.0],[43.298583984375,36.081561590619117,193.9471],[43.3037109375,36.07343170780662,194.3756],[43.326269531250006,36.04999420780662,194.7784],[43.336181640625,36.033075262494116,191.603],[43.340039062500011,36.01434967655662,189.5014],[43.336181640625,35.993670965619117,251.7198],[43.345898437500011,35.97992584843162,185.7882],[43.34619140625,35.970819403119116,186.1535],[43.34140625,35.961053778119116,192.1042],[43.333984375,35.93866608280662,182.0],[43.3310546875,35.932489324994116,184.3712],[43.3291015625,35.926044012494117,183.7514],[43.329345703125,35.91852448124412,184.0106],[43.334570312500006,35.91095612186912,186.3012],[43.343164062500023,35.907831121869116,183.4754],[43.351464843750023,35.906512762494117,185.4981],[43.356640625000011,35.90424225468162,179.5],[43.36083984375,35.88068268436912,185.1748],[43.349609375,35.861102606244117,178.2635],[43.331640625,35.852801824994117,177.1398],[43.315673828125,35.863299871869117,176.3778],[43.315673828125,35.80756256718162,175.3588],[43.308837890625,35.79437897343162,168.5675],[43.315673828125,35.79437897343162,171.8322],[43.298730468750023,35.79572174686912,178.5408],[43.290429687500023,35.78912994999412,178.8758],[43.2880859375,35.776727606244116,166.1387],[43.28759765625,35.74371979374412,170.5035],[43.288281250000011,35.73541901249412,169.8012],[43.291796875000017,35.729266668744117,183.1231],[43.318457031250006,35.71295807499412,159.5],[43.322509765625,35.708758856244117,159.5],[43.318603515625,35.69428131718162,162.6023],[43.308691406250006,35.689813543744116,165.4929],[43.295312500000023,35.68891022343162,165.4554],[43.280859375,35.685174871869116,161.9579],[43.273339843750023,35.67755768436912,164.5287],[43.25830078125,35.65558502811912,160.3602],[43.241308593750006,35.644647528119116,156.5746],[43.248242187500011,35.63019440311912,153.8117],[43.2671875,35.60602448124412,158.2588],[43.265869140625,35.597040106244116,155.8119],[43.262792968750006,35.58991119999412,150.75],[43.254296875000023,35.575946356244117,150.13],[43.248925781250023,35.569696356244116,149.269],[43.244384765625,35.56891510624412,150.353],[43.241455078125,35.56622955936912,150.2841],[43.240625,35.554217840619117,153.5094],[43.249267578125,35.53046295780662,147.0849],[43.265625,35.50031159061912,144.9339],[43.275976562500006,35.47150299686912,150.3005],[43.2671875,35.451776434369116,142.1967],[43.271875,35.44257233280662,144.1351],[43.271240234375,35.43695709843162,140.5],[43.268798828125,35.43109772343162,141.2781],[43.2671875,35.42108795780662,140.0],[43.269433593750023,35.41156647343162,145.6348],[43.274023437500006,35.40631744999412,140.7542],[43.278710937500023,35.40338776249412,137.5],[43.280859375,35.400897528119117,137.1635],[43.285839843750011,35.39337799686912,143.0377],[43.311279296875,35.37042877811912,137.6369],[43.322509765625,35.362420965619116,147.475],[43.3505859375,35.35297272343162,140.723],[43.36484375,35.345086981244116,133.4648],[43.370849609375,35.33234284061912,132.0],[43.369873046875,35.32953522343162,142.5393],[43.367089843750023,35.32843659061912,142.6629],[43.363525390625,35.32746002811912,139.3791],[43.360058593750011,35.325213934369117,140.9166],[43.356835937500023,35.31903717655662,133.0205],[43.358984375,35.31513092655662,134.91],[43.362402343750006,35.31195709843162,139.2833],[43.363525390625,35.30780670780662,139.3348],[43.35986328125,35.29315827030662,133.2423],[43.356640625000011,35.286981512494116,135.5773],[43.350488281250023,35.28046295780662,138.3105],[43.401562500000011,35.27338287968162,134.8159],[43.422460937500006,35.26544830936912,127.6525],[43.418701171875,35.246356512494117,129.8978],[43.410058593750023,35.24140045780662,126.928],[43.398681640625,35.238397528119116,132.0144],[43.388916015625,35.233417059369117,133.4618],[43.384521484375,35.22247955936912,122.875],[43.38828125,35.21356842655662,125.9793],[43.397070312500006,35.20099518436912,121.4868],[43.4072265625,35.18976471561912,120.5],[43.4150390625,35.18488190311912,127.0183],[43.480712890625,35.12653229374412,134.4372],[43.49375,35.110711981244116,118.4029],[43.52001953125,35.100702215619116,114.0],[43.5400390625,35.088983465619116,126.6471],[43.534765625,35.06818268436912,113.4042],[43.562109375,35.05292389530662,148.6518],[43.5771484375,35.04157135624412,140.5793],[43.583886718750023,35.030633856244116,134.3846],[43.580664062500006,35.01373932499412,120.0068],[43.57275390625,34.99689362186912,115.752],[43.5625,34.984002996869116,115.7807],[43.55224609375,34.97882721561912,110.932],[43.542578125,34.97028229374412,107.596],[43.5302734375,34.95148346561912,106.0848],[43.522070312500006,34.932733465619116,105.3678],[43.525292968750023,34.924188543744116,102.8925],[43.539257812500011,34.917352606244116,120.5745],[43.540722656250011,34.90106842655662,104.5908],[43.539453125000023,34.88178131718162,103.4782],[43.545654296875,34.865838934369116,102.8918],[43.553613281250023,34.86115143436912,98.3333],[43.558837890625,34.86005280155662,104.8552],[43.561718750000011,34.85675690311912,105.6425],[43.564453125,34.835711981244117,97.3525],[43.568603515625,34.827167059369117,99.1809],[43.576416015625,34.81500885624412,103.4333],[43.577539062500023,34.80487702030662,96.6093],[43.576171875,34.795917059369117,98.7995],[43.577392578125,34.78949616093162,95.3256],[43.5947265625,34.78558991093162,97.6734],[43.600488281250023,34.78204987186912,97.5117],[43.611083984375,34.77338287968162,94.7175],[43.619873046875,34.77118561405662,94.7044],[43.628808593750023,34.770770574994117,99.533],[43.6357421875,34.76740143436912,99.7606],[43.638427734375,34.75665924686912,93.3942],[43.640234375,34.743670965619117,94.2362],[43.644775390625,34.742303778119116,94.3442],[43.6513671875,34.74396393436912,94.8179],[43.658935546875,34.73981354374412,92.8071],[43.668212890625,34.72736237186912,88.0],[43.675878906250006,34.71283600468162,93.417],[43.6767578125,34.69977448124412,89.5835],[43.665136718750006,34.69147369999412,88.5926],[43.671484375,34.68183014530662,89.0834],[43.688574218750006,34.669061590619116,88.4893],[43.69375,34.66351959843162,89.4842],[43.695898437500006,34.654901434369116,87.5775],[43.69375,34.62628815311912,85.4935],[43.69677734375,34.61444733280662,84.6211],[43.71044921875,34.596795965619116,85.9398],[43.713476562500006,34.58527252811912,81.5408],[43.714111328125,34.56268952030662,82.8658],[43.716210937500023,34.55365631718162,84.4512],[43.720898437500011,34.54682037968162,83.4848],[43.739160156250023,34.538348699994117,80.7267],[43.756738281250023,34.536004949994116,78.9034],[43.769775390625,34.52973053593162,91.1579],[43.775,34.50958893436912,93.153],[43.781835937500006,34.37274811405662,80.8643],[43.785058593750023,34.363885809369116,70.6051],[43.799072265625,34.35077545780662,78.6212],[43.80224609375,34.345086981244116,81.0909],[43.803808593750006,34.33710358280662,68.7578],[43.820556640625,34.29889557499412,68.9613],[43.824609375000023,34.29328034061912,68.8556],[43.827734375,34.286395574994117,68.6175],[43.82958984375,34.273065496869116,69.12],[43.828857421875,34.26349518436912,68.9883],[43.823974609375,34.247430731244116,67.9877],[43.82275390625,34.23554108280662,68.6081],[43.829345703125,34.223016668744116,72.9087],[43.8603515625,34.195819403119117,59.2052],[43.87060546875,34.184344793744117,70.9931],[43.88671875,34.144549871869117,68.8295],[43.894775390625,34.132831121869117,67.9829],[43.928613281250023,34.10578034061912,63.5995],[43.971435546875,34.08539459843162,53.0926],[43.987890625,34.081317449994117,58.8297],[44.055419921875,34.075067449994116,52.4341]]}}