{"type":"Feature","properties":{"GID_2":"IRQ.9.1_1","GID_0":"IRQ","country":"Iraq","GID_1":"IRQ.9_1","province":"Babil","NL_NAME_1":"NA","county":"Al-Mada'in","VARNAME_2":"NA","NL_NAME_2":"NA","TYPE_2":"Kaza","ENGTYPE_2":"District","CC_2":"NA","HASC_2":"NA","name":"Al-Mada'in.county"},
"geometry":{"type": "MultiPolygon","coordinates": [[[[44.2232,33.1334,32.1432],[44.233,33.1213,33.4574],[44.237,33.1139,33.0943],[44.2411,33.0825,37.3416],[44.2449,33.0727,35.3991],[44.2488,33.0503,33.6972],[44.2573,33.0272,34.6935],[44.2632,33.0219,34.7894],[44.282,33.0119,35.0138],[44.2908,33.0055,34.7484],[44.3069,32.9898,34.068],[44.3172,32.9771,32.9902],[44.3408,32.9205,31.0904],[44.3439,32.8923,35.5853],[44.3465,32.8819,32.2248],[44.3591,32.8866,32.7834],[44.3683,32.8938,30.6103],[44.3714,32.8985,30.7683],[44.3787,32.9183,31.5548],[44.3887,32.9338,31.1036],[44.3974,32.9326,30.3446],[44.4092,32.925,30.7596],[44.422,32.909,30.9294],[44.4308,32.9036,30.8032],[44.4368,32.9045,30.0748],[44.4528,32.9193,28.4044],[44.463,32.9249,28.2727],[44.4741,32.9289,27.8453],[44.4825,32.9296,27.8126],[44.4884,32.9531,27.728],[44.4984,32.9687,27.8436],[44.5145,32.9808,29.4719],[44.5417,32.9911,29.0634],[44.5492,32.9985,26.5789],[44.5536,33.0097,35.3461],[44.5536,33.0396,32.0843],[44.5587,33.0612,29.9581],[44.5498,33.0959,30.2759],[44.5454,33.1083,31.0722],[44.5343,33.1247,29.8639],[44.5072,33.149,30.3269],[44.502,33.1554,31.958],[44.4992,33.1645,34.4807],[44.499,33.181,30.4729],[44.4901,33.1828,31.9735],[44.452,33.1811,30.6355],[44.356,33.1813,31.7313],[44.3389,33.1831,29.8499],[44.3112,33.19,30.1337],[44.2911,33.1907,30.0301],[44.2873,33.1892,30.3057],[44.2817,33.1834,31.3218],[44.2735,33.1678,29.5749],[44.2608,33.155,29.8403],[44.231,33.1405,33.5251],[44.2232,33.1334,32.1432]]]]}}