{"type":"Feature","properties":{"GID_2":"IRQ.5.1_1","GID_0":"IRQ","country":"Iraq","GID_1":"IRQ.5_1","province":"An-Najaf","NL_NAME_1":"NA","county":"AlKufa","VARNAME_2":"NA","NL_NAME_2":"NA","TYPE_2":"Kaza","ENGTYPE_2":"District","CC_2":"NA","HASC_2":"NA","name":"Al_Kufa.county"},
"geometry":{"type": "MultiPolygon","coordinates": [[[[44.5844,32.0837,22.0453],[44.5774,32.0915,21.3997],[44.5673,32.0976,21.3289],[44.5334,32.1094,21.912],[44.5076,32.1261,20.2628],[44.4789,32.1373,22.2193],[44.4647,32.1477,22.1008],[44.4382,32.1539,22.2012],[44.4265,32.1533,22.1158],[44.3975,32.1381,23.3787],[44.3508,32.1037,26.2949],[44.3329,32.0954,33.579],[44.3207,32.092,38.1088],[44.3222,32.0792,39.4072],[44.3266,32.0623,41.9363],[44.3381,32.0433,43.7791],[44.3425,32.029,42.5355],[44.3583,31.9968,45.1092],[44.387,31.952,14.7248],[44.3883,31.9469,14.5615],[44.3872,31.9352,13.8589],[44.3963,31.9283,14.5342],[44.4213,31.9287,15.227],[44.4327,31.9351,18.5067],[44.4377,31.9362,27.9432],[44.4544,31.9357,25.3562],[44.4642,31.9322,22.9861],[44.4685,31.9586,19.1879],[44.4731,31.9754,21.1131],[44.4779,31.9874,20.6865],[44.4914,32.008,21.3267],[44.4975,32.0151,20.7614],[44.5236,32.0317,21.0074],[44.5457,32.0389,24.715699999999998],[44.5622,32.047,22.2459],[44.5752,32.0605,21.8779],[44.5782,32.0738,20.3101],[44.5844,32.0837,22.0453]]]]}}