{"type":"Feature","properties":{"GID_2":"IRQ.15.6_1","GID_0":"IRQ","country":"Iraq","GID_1":"IRQ.15_1","province":"Maysan","NL_NAME_1":"NA","county":"Qal`atSalih","VARNAME_2":"NA","NL_NAME_2":"NA","TYPE_2":"Kaza","ENGTYPE_2":"District","CC_2":"NA","HASC_2":"NA","name":"Qal`at_Salih.county"},
"geometry":{"type": "MultiPolygon","coordinates": [[[[47.7225,31.4535,4.1935],[47.7277,31.4773,4.4299],[47.7105,31.4879,2.6036],[47.6906,31.5068,4.2184],[47.6431,31.5313,5.8532],[47.6288,31.5353,5.187],[47.6032,31.5473,2.0],[47.5409,31.5673,3.9028],[47.5153,31.5793,3.2459],[47.4899,31.5824,1.688],[47.4705,31.5887,2.7013],[47.4499,31.5887,3.602],[47.4194,31.5755,2.8602],[47.3819,31.5629,3.4245],[47.3666,31.5455,4.36],[47.3598,31.5424,4.4612],[47.3511,31.5416,5.0398],[47.3411,31.5431,4.2057],[47.317,31.5515,5.0244],[47.3028,31.5631,4.4546],[47.2885,31.5805,4.3882],[47.2764,31.5856,4.7708],[47.2744,31.5804,4.414],[47.2719,31.5417,5.2526],[47.2741,31.5225,4.9137],[47.2815,31.5136,5.5634],[47.301,31.5006,4.7455],[47.3289,31.4729,3.7396],[47.3346,31.4652,3.1933],[47.3502,31.4331,2.9053],[47.3521,31.4179,0.8452],[47.3521,31.3,1.7985],[47.355,31.2845,1.6358],[47.3596,31.278199999999998,1.5598],[47.3836,31.2862,1.8713],[47.3909,31.2916,1.8153],[47.4018,31.2946,2.4691],[47.4346,31.2966,2.1535],[47.4865,31.2931,2.723],[47.5763,31.2789,1.2058],[47.6953,31.2778,1.3497],[47.7002,31.2371,1.312],[47.6992,31.4,4.3584],[47.7225,31.4535,4.1935]]]]}}