{"type":"Feature","properties":{"GID_2":"IRQ.16.8_1","GID_0":"IRQ","country":"Iraq","GID_1":"IRQ.16_1","province":"Ninawa","NL_NAME_1":"NA","county":"Sinjar","VARNAME_2":"NA","NL_NAME_2":"NA","TYPE_2":"Kaza","ENGTYPE_2":"District","CC_2":"NA","HASC_2":"NA","name":"Sinjar.county"},
"geometry":{"type": "MultiPolygon","coordinates": [[[[42.3557,35.9805,244.8671],[42.373,35.973,244.8427],[42.3961,35.9542,245.7777],[42.4446,35.9303,237.3891],[42.459,35.9283,230.795],[42.4874,35.9285,233.8591],[42.4874,35.994,217.7161],[42.4806,36.018,222.1855],[42.4777,36.0433,227.8924],[42.4727,36.0575,229.9104],[42.4709,36.0867,237.5463],[42.466,36.1009,242.3784],[42.462,36.1232,252.7409],[42.442,36.1647,258.7256],[42.4391,36.1901,264.7004],[42.433,36.2095,270.5918],[42.431399999999996,36.246,285.0953],[42.4252,36.2654,292.511],[42.4236,36.3019,308.4664],[42.4185,36.3164,316.9872],[42.4146,36.3387,327.2599],[42.3991,36.3709,351.7753],[42.388,36.3845,369.0375],[42.3719,36.3974,400.459],[42.3459,36.4005,409.0535],[42.327,36.4065,406.7113],[42.3015,36.4094,435.122],[42.2758,36.4213,432.3211],[42.2582,36.4274,422.5524],[42.2504,36.436,429.5229],[42.2428,36.4523,443.6564],[42.2369,36.4701,459.6283],[42.2283,36.4782,486.0067],[42.2156,36.4844,481.3206],[42.2094,36.4856,504.6503],[42.2046,36.4837,503.8911],[42.1856,36.4594,459.9103],[42.18,36.4551,463.9549],[42.1759,36.4547,463.5987],[42.164,36.4581,476.167],[42.1574,36.4696,469.36],[42.1501,36.4783,465.2223],[42.1438,36.4836,460.5118],[42.1368,36.4866,452.3147],[42.0743,36.4874,474.4867],[42.0625,36.4897,475.0369],[42.059,36.4928,469.569],[42.0524,36.5049,457.7077],[42.0474,36.5227,438.5297],[42.0394,36.5381,426.6806],[42.0236,36.5499,418.7941],[42.0038,36.5693,407.7421],[41.9957,36.5806,399.912],[41.9911,36.5939,395.9507],[41.9848,36.5984,392.7792],[41.9095,36.6006,377.7939],[41.8975,36.6073,376.5571],[41.8817,36.6234,370.5068],[41.8649,36.6188,370.9742],[41.8283,36.5932,379.2743],[41.7068,36.5675,402.4136],[41.423,36.5247,382.4725],[41.4137,36.5205,382.1721],[41.4039,36.5125,395.1095],[41.2945,36.3562,589.8615],[41.2918,36.2636,454.6717],[41.2897,36.2492,443.5555],[41.3344,36.2494,441.2331],[41.3482,36.2471,437.7567],[41.3592,36.236,433.2666],[41.37,36.2015,398.4163],[41.3728,36.1967,392.8185],[41.3813,36.1934,390.712],[41.4162,36.1932,391.3733],[41.4284,36.1913,396.4404],[41.4382,36.1842,395.0009],[41.4664,36.157,380.2474],[41.4842,36.1512,376.7021],[41.5164,36.1357,356.4524],[41.5274,36.1246,352.9222],[41.5407,36.0986,331.3224],[41.5463,36.093,329.6264],[41.5592,36.0851,325.6512],[41.5722,36.0687,320.5736],[41.5773,36.0661,320.799],[41.5907,36.065,320.6865],[41.8133,36.065,320.0393],[41.8231,36.0657,320.4889],[41.8373,36.071,321.9005],[41.8465,36.0727,322.665],[41.9403,36.073,317.5173],[41.9509,36.0767,317.2431],[41.9658,36.0945,321.1904],[41.9772,36.0968,319.1326],[42.0744,36.0963,298.527],[42.0835,36.0947,298.501],[42.0976,36.0893,291.111],[42.1074,36.0885,289.1799],[42.244,36.0882,258.2712],[42.2508,36.0863,256.0562],[42.2543,36.0832,255.4673],[42.268,36.058,253.4119],[42.2856,36.043,244.55],[42.2898,36.0133,253.8916],[42.2943,36.006,249.9264],[42.3035,35.9962,252.5593],[42.3131,35.9881,252.2312],[42.3204,35.985,253.8807],[42.3462,35.9831,248.1725],[42.3557,35.9805,244.8671]]]]}}