{"type":"Feature","properties":{"GID_2":"IRQ.9.4_1","GID_0":"IRQ","country":"Iraq","GID_1":"IRQ.9_1","province":"Babil","NL_NAME_1":"NA","county":"AlMahawil","VARNAME_2":"NA","NL_NAME_2":"NA","TYPE_2":"Kaza","ENGTYPE_2":"District","CC_2":"NA","HASC_2":"NA","name":"Al_Mahawil.county"},
"geometry":{"type": "MultiPolygon","coordinates": [[[[45.1885,32.4061,18.9426],[45.1846,32.4151,18.2676],[45.1846,32.434,18.4251],[45.1623,32.4431,18.8103],[45.0945,32.4656,19.2515],[45.078,32.4744,19.1836],[45.0342,32.5074,21.0964],[45.0187,32.523,21.6683],[44.9518,32.6014,21.668],[44.9234,32.6322,22.1933],[44.8888,32.6648,21.9208],[44.8655,32.6815,22.0237],[44.8398,32.6934,23.1336],[44.8008,32.7042,24.0518],[44.7938,32.708,25.2059],[44.7533,32.7402,24.9473],[44.7329,32.7513,23.7756],[44.7143,32.7589,23.4091],[44.6724,32.7706,24.446],[44.6008,32.7752,27.1573],[44.5877,32.778,27.3279],[44.5705,32.7872,25.8433],[44.5645,32.7941,25.757],[44.5606,32.8034,25.3636],[44.5535,32.8401,25.0665],[44.5421,32.8732,25.2429],[44.5357,32.8832,25.4805],[44.5281,32.8907,26.46],[44.4935,32.9134,27.1621],[44.484,32.9248,28.3762],[44.4825,32.9296,27.8126],[44.4741,32.9289,27.8453],[44.463,32.9249,28.2727],[44.4528,32.9193,28.4044],[44.4368,32.9045,30.0748],[44.4308,32.9036,30.8032],[44.422,32.909,30.9294],[44.4092,32.925,30.7596],[44.3974,32.9326,30.3446],[44.3887,32.9338,31.1036],[44.3787,32.9183,31.5548],[44.3714,32.8985,30.7683],[44.3683,32.8938,30.6103],[44.3591,32.8866,32.7834],[44.3465,32.8819,32.2248],[44.3489,32.8731,29.38],[44.3509,32.8492,29.7861],[44.361,32.812,26.9049],[44.3674,32.8075,27.6392],[44.382,32.8047,29.4253],[44.3902,32.801,29.4844],[44.3976,32.7938,29.8174],[44.3997,32.7895,30.9159],[44.3997,32.783,30.7352],[44.3777,32.7503,28.2892],[44.3658,32.7389,27.2324],[44.3575,32.7348,26.6067],[44.3348,32.7278,30.53],[44.3182,32.7264,29.5786],[44.317,32.723,30.4909],[44.3136,32.7209,32.1829],[44.2884,32.7078,33.5276],[44.2841,32.6982,31.6374],[44.2853,32.6904,26.8871],[44.2881,32.6842,32.6282],[44.3016,32.6737,30.6982],[44.3081,32.6654,31.3412],[44.31,32.6568,30.9289],[44.3082,32.6435,30.8038],[44.3055,32.6391,30.0106],[44.2976,32.6322,28.3223],[44.2648,32.6168,28.7645],[44.2514,32.6123,30.4465],[44.2471,32.6061,30.3666],[44.2468,32.5992,30.9395],[44.2562,32.5725,29.1127],[44.273,32.5581,27.5309],[44.282,32.5421,27.3815],[44.2857,32.5284,30.4891],[44.2857,32.511,27.6817],[44.3023,32.5093,27.2906],[44.3286,32.5012,25.8756],[44.3529,32.4931,25.7252],[44.3681,32.4849,26.01],[44.3859,32.4632,30.6644],[44.4043,32.4482,27.6362],[44.4174,32.427,28.6688],[44.4579,32.4086,24.8098],[44.4665,32.407,26.1609],[44.4843,32.4075,26.3346],[44.5048,32.4162,28.135],[44.537,32.4324,24.9777],[44.5454,32.4401,23.0398],[44.5475,32.4467,23.731],[44.5415,32.4687,24.0601],[44.5409,32.4895,25.7701],[44.5461,32.4936,25.8966],[44.557,32.4949,28.4664],[44.5684,32.4932,25.5148],[44.5925,32.4847,24.4859],[44.6014,32.4772,24.5906],[44.6088,32.4661,24.3638],[44.6228,32.4579,23.8493],[44.6303,32.4555,24.2976],[44.6563,32.4524,23.3336],[44.6652,32.4451,22.8936],[44.6727,32.4344,22.896],[44.6813,32.431,27.5412],[44.8543,32.4307,22.47],[44.8833,32.4381,22.9495],[44.9394,32.439,22.1264],[44.9681,32.4482,21.4171],[44.9937,32.4605,21.823],[45.0009,32.4615,21.4382],[45.0112,32.4592,21.4186],[45.0655,32.432,20.8141],[45.1047,32.4294,19.5076],[45.1164,32.4256,18.9767],[45.1235,32.4209,18.7714],[45.1395,32.3999,19.2311],[45.1565,32.3902,18.3968],[45.1885,32.4061,18.9426]]]]}}