{"type":"Feature","properties":{"GID_2":"IRQ.16.7_1","GID_0":"IRQ","country":"Iraq","GID_1":"IRQ.16_1","province":"Ninawa","NL_NAME_1":"NA","county":"Shekhan","VARNAME_2":"NA","NL_NAME_2":"NA","TYPE_2":"Kaza","ENGTYPE_2":"District","CC_2":"NA","HASC_2":"NA","name":"Shekhan.county"},
"geometry":{"type": "MultiPolygon","coordinates": [[[[43.2688,36.889,1030.1693],[43.2628,36.8733,816.8616],[43.2536,36.8644,674.1524],[43.2469,36.8516,632.4937],[43.204,36.8086,988.4241],[43.1929,36.8005,857.83],[43.1847,36.7894,719.2146],[43.2008,36.7738,907.2164],[43.2244,36.7607,691.2125],[43.2325,36.7494,617.0695],[43.2569,36.7562,625.0164],[43.2671,36.7553,669.8298],[43.2821,36.7502,766.47],[43.2983,36.7493,814.369],[43.3693,36.7495,553.9684],[43.3796,36.7513,542.6581],[43.3941,36.7564,552.8364],[43.4098,36.7575,484.9896],[43.4363,36.757,502.3298],[43.4468,36.7533,501.1122],[43.4524,36.7479,485.7137],[43.4641,36.7299,438.8861],[43.509,36.6846,402.9088],[43.5182,36.6724,391.5272],[43.5204,36.6583,370.768],[43.5192,36.6387,356.4268],[43.5158,36.6305,359.2196],[43.5066,36.6163,355.8802],[43.5062,36.6094,352.7518],[43.5158,36.5775,338.9673],[43.5301,36.588,338.5991],[43.5417,36.6016,339.7341],[43.5741,36.666,379.9642],[43.582,36.69,403.2496],[43.5861,36.7123,409.9995],[43.6061,36.7682,508.6882],[43.6082,36.7889,519.1622],[43.5802,36.8027,543.3761],[43.5531,36.8097,560.2099],[43.4611,36.8142,653.8519],[43.4329,36.8184,590.1506],[43.4085,36.8255,761.1889],[43.3953,36.8329,808.3391],[43.3877,36.8398,758.7268],[43.3798,36.8504,1089.4709],[43.3679,36.8712,881.7609],[43.3538,36.8877,1053.3124],[43.3454,36.8947,1082.4238],[43.3278,36.9029,1144.1583],[43.3119,36.9037,1075.3015],[43.3019,36.9019,1063.2383],[43.2888,36.898,1087.5588],[43.2688,36.889,1030.1693]]]]}}