{"type":"Feature","properties":{"GID_2":"IRQ.18.2_1","GID_0":"IRQ","country":"Iraq","GID_1":"IRQ.18_1","province":"Wasit","NL_NAME_1":"NA","county":"AlKut","VARNAME_2":"NA","NL_NAME_2":"NA","TYPE_2":"Kaza","ENGTYPE_2":"District","CC_2":"NA","HASC_2":"NA","name":"Al_Kut.county"},
"geometry":{"type": "MultiPolygon","coordinates": [[[[46.4033,32.945,126.6748],[46.3633,32.9508,103.3532],[46.3304,32.9526,88.6203],[46.2843,32.9524,71.1183],[46.2844,32.8955,52.7264],[46.2827,32.8882,50.3286],[46.2782,32.8818,48.8179],[46.272,32.877,47.0332],[46.256,32.8688,42.9042],[46.2396,32.8615,39.592],[46.2251,32.8578,36.9926],[46.2128,32.8515,35.6242],[46.2068,32.8461,35.1214],[46.2019,32.8335,34.9356],[46.1986,32.8304,34.0373],[46.1772,32.8257,30.247],[46.1682,32.8185,30.1873],[46.165,32.8107,30.1674],[46.1641,32.8009,27.7209],[46.1634,32.7254,20.2334],[46.1571,32.7069,17.8323],[46.1542,32.6889,16.2254],[46.1501,32.6793,15.5484],[46.1462,32.6568,15.86],[46.1423,32.6471,15.1253],[46.1392,32.6328,14.5385],[46.1348,32.6275,14.5429],[46.1187,32.6277,15.244],[46.105,32.63,15.4387],[46.0633,32.6503,15.9507],[46.0411,32.6546,14.4654],[46.0235,32.6666,13.8591],[46.0075,32.6745,13.7632],[45.9691,32.6863,13.4629],[45.9436,32.6985,13.5116],[45.8676,32.7235,13.5807],[45.8455,32.7255,13.5673],[45.8272,32.7316,13.772],[45.798,32.7334,14.3941],[45.7793,32.7396,14.5606],[45.7501,32.7415,14.9693],[45.7314,32.7477,14.9702],[45.6828,32.7489,15.5418],[45.6543,32.7563,15.8411],[45.5714,32.757,16.5097],[45.5617,32.7586,16.6465],[45.5475,32.7639,16.7459],[45.5107,32.7656,17.3867],[45.497,32.7688,17.6157],[45.4937,32.7548,17.0625],[45.492,32.7095,16.1623],[45.4876,32.7028,16.3487],[45.4753,32.6945,16.6705],[45.4695,32.684,17.3468],[45.468,32.5983,19.0814],[45.4626,32.5843,20.2014],[45.4583,32.5615,19.021],[45.4533,32.5501,18.293],[45.4525,32.5414,18.0492],[45.4558,32.5402,18.1394],[45.4646,32.5245,18.2028],[45.4845,32.5062,18.5791],[45.4926,32.5022,18.0474],[45.518,32.4941,17.6712],[45.5546,32.4942,18.2159],[45.5692,32.4992,16.8735],[45.5871,32.5025,17.3201],[45.6013,32.5075,17.157],[45.6113,32.5093,17.5376],[45.6319,32.5077,17.8533],[45.6443,32.5014,16.7436],[45.6502,32.4959,16.1203],[45.6514,32.4927,15.9995],[45.6515,32.4793,15.5726],[45.6474,32.4699,15.4366],[45.6346,32.4524,15.8464],[45.6339,32.4457,16.2604],[45.6362,32.4378,15.315],[45.644,32.4295,15.066],[45.6828,32.4101,15.472],[45.696,32.3975,16.8876],[45.7128,32.3965,15.361],[45.7282,32.391,15.0764],[45.7356,32.3902,14.8232],[45.7442,32.3931,14.7354],[45.7534,32.4031,14.424],[45.7638,32.4052,15.29],[45.775,32.4037,15.0792],[45.7846,32.3995,14.8256],[45.8027,32.3964,14.2846],[45.8251,32.3896,14.4499],[45.8429,32.3903,15.5797],[45.8566,32.3955,15.1947],[45.8675,32.3962,14.0177],[45.8776,32.391,14.6437],[45.8978,32.3716,15.611],[45.9043,32.3677,14.3665],[45.911,32.3675,13.7786],[45.929,32.3729,15.6484],[45.9513,32.3728,15.859],[45.96,32.3696,14.9813],[45.9692,32.3598,14.6918],[45.998,32.3548,13.456],[46.0129,32.3371,14.267],[46.0321,32.3269,14.3082],[46.0468,32.3251,13.6839],[46.1034,32.325,12.3745],[46.1107,32.3233,11.8171],[46.117,32.3189,11.9114],[46.1219,32.3128,12.1667],[46.1374,32.2805,11.6619],[46.1397,32.2464,12.0175],[46.1429,32.2386,11.9726],[46.1483,32.2331,11.5376],[46.1552,32.2301,11.888],[46.1822,32.2273,10.9073],[46.1918,32.2232,10.9864],[46.2142,32.2193,10.7266],[46.2282,32.2143,11.2914],[46.2542,32.2112,12.0691],[46.2629,32.2037,11.489],[46.2693,32.1869,11.3612],[46.2725,32.1837,12.1532],[46.2792,32.1818,12.2863],[46.3063,32.1803,12.7205],[46.3126,32.1759,11.9211],[46.3145,32.1693,10.9119],[46.3159,32.1507,11.1446],[46.3218,32.132,10.6474],[46.3235,32.1028,11.9899],[46.3287,32.0887,11.1189],[46.3303,32.0794,11.1838],[46.3301,32.014,12.0601],[46.3278,31.9999,11.0553],[46.3223,31.9817,10.6322],[46.3303,31.9738,10.3657],[46.3483,31.9801,10.7285],[46.3899,31.9889,11.0225],[46.4133,31.9879,10.8832],[46.4965,31.9729,8.0339],[46.512,31.9742,8.1964],[46.5301,31.9815,9.2172],[46.5448,32.0726,9.7591],[46.5446,32.0962,9.7879],[46.5393,32.1198,9.7766],[46.5314,32.1343,10.1305],[46.518,32.1472,9.3312],[46.4547,32.1826,10.3215],[46.4402,32.1947,9.9098],[46.4292,32.2097,10.3358],[46.4245,32.221,9.8819],[46.4222,32.2331,9.7043],[46.4253,32.2964,8.9921],[46.4225,32.3178,9.9911],[46.4186,32.327,10.3626],[46.397,32.3501,10.1822],[46.3934,32.356,9.965],[46.3883,32.3724,10.2564],[46.3874,32.3841,10.582],[46.3913,32.4066,10.938],[46.407,32.4499,11.7271],[46.4157,32.5281,13.2356],[46.4246,32.5717,17.6211],[46.4787,32.7407,43.4177],[46.4884,32.7649,49.5697],[46.4961,32.7794,53.9543],[46.5159,32.8038,63.4354],[46.5434,32.8322,78.4165],[46.5644,32.8609,111.0155],[46.5453,32.868,108.8088],[46.5339,32.8745,108.9764],[46.5174,32.8933,132.4192],[46.5086,32.899,135.4844],[46.497,32.9034,131.7839],[46.4755,32.9075,115.388],[46.4535,32.9227,119.901],[46.4033,32.945,126.6748]]]]}}