{"type":"Feature","properties":{"GID_2":"IRQ.13.6_1","GID_0":"IRQ","country":"Iraq","GID_1":"IRQ.13_1","province":"Diyala","NL_NAME_1":"NA","county":"Kifri","VARNAME_2":"NA","NL_NAME_2":"NA","TYPE_2":"Kaza","ENGTYPE_2":"District","CC_2":"NA","HASC_2":"NA","name":"Kifri.county"},
"geometry":{"type": "MultiPolygon","coordinates": [[[[44.9184,34.8522,448.1292],[44.8693,34.8261,354.2735],[44.8318,34.8097,308.7232],[44.8157,34.8006,272.8904],[44.8106,34.7952,269.3258],[44.8057,34.7863,283.3317],[44.7898,34.7426,189.1115],[44.7791,34.7279,186.1635],[44.7642,34.7174,181.1656],[44.7112,34.6981,199.9621],[44.7015,34.6922,218.5472],[44.6942,34.6853,217.1033],[44.6838,34.6668,189.2032],[44.681,34.6538,169.8737],[44.682,34.6168,149.1293],[44.6808,34.6022,144.3007],[44.6747,34.5897,145.5157],[44.6606,34.5754,144.0194],[44.6474,34.5672,161.2826],[44.6265,34.5574,173.0428],[44.6098,34.5512,190.3057],[44.5907,34.5467,175.1915],[44.5786,34.5463,149.2359],[44.5665,34.548,148.5276],[44.5301,34.5576,129.7971],[44.5051,34.5611,96.0312],[44.4946,34.5584,102.3365],[44.4861,34.5532,108.1738],[44.4784,34.5459,111.4139],[44.4697,34.5334,112.5744],[44.4621,34.5144,100.3565],[44.454,34.4777,93.9197],[44.4566,34.4714,94.1238],[44.4578,34.4602,88.78],[44.4578,34.3899,84.4093],[44.4707,34.3876,85.5774],[44.4744,34.3851,86.2653],[44.4793,34.378,86.5547],[44.481,34.3703,86.0336],[44.4824,34.3396,72.5368],[44.4919,34.3115,69.5649],[44.495,34.308,72.9904],[44.5054,34.3021,68.2934],[44.5247,34.2961,66.4526],[44.5408,34.2884,77.1859],[44.5532,34.2779,76.3553],[44.5672,34.2609,74.5028],[44.5849,34.2569,74.6164],[44.5927,34.2531,73.8374],[44.5997,34.2455,73.6057],[44.6064,34.2345,72.4924],[44.6308,34.2074,69.9539],[44.6372,34.1982,68.9576],[44.6478,34.201,67.9166],[44.6873,34.2029,69.8511],[44.7069,34.2091,66.6594],[44.7323,34.2121,64.711],[44.742,34.216,64.8393],[44.7599,34.219,64.636],[44.7788,34.2251,65.585],[44.8247,34.2269,78.9316],[44.8345,34.2325,104.3052],[44.8468,34.2471,118.833],[44.8766,34.2516,163.0827],[44.889,34.2577,204.917],[44.8932,34.261,178.1606],[44.895,34.2658,164.1706],[44.8894,34.2883,159.0703],[44.8898,34.3039,130.0642],[44.8934,34.3128,118.1704],[44.9242,34.3444,102.3463],[44.934,34.3517,101.9688],[44.9557,34.3636,102.1712],[44.9709,34.3812,104.7228],[44.9778,34.3842,106.8974],[45.0049,34.3859,112.4842],[45.0114,34.3878,113.494],[45.0147,34.3909,116.3467],[45.0214,34.4049,136.9519],[45.0363,34.4113,141.1726],[45.046,34.4183,156.311],[45.0536,34.4268,173.8997],[45.0655,34.4451,147.144],[45.0781,34.455,143.3741],[45.0906,34.4571,144.9029],[45.1332,34.4573,150.893],[45.1403,34.4591,152.546],[45.1466,34.4635,154.4712],[45.159,34.4782,165.3808],[45.1885,34.4827,166.7464],[45.2049,34.4902,167.6862],[45.2146,34.4977,174.0294],[45.223,34.5092,175.5407],[45.2231,34.5158,182.1934],[45.2187,34.5268,192.4631],[45.2134,34.5486,206.1807],[45.2056,34.5531,201.7841],[45.1925,34.5669,209.3116],[45.1833,34.5858,219.8976],[45.1805,34.5999,244.4065],[45.1783,34.6286,309.0166],[45.1801,34.7017,317.8589],[45.1745,34.7233,362.8224],[45.1643,34.7389,377.9819],[45.1503,34.7516,386.1376],[45.1368,34.76,403.0871],[45.1038,34.7713,380.9684],[45.0939,34.7755,383.6307],[45.0855,34.7812,386.7253],[45.0764,34.7904,391.3474],[45.0538,34.8194,403.6049],[45.0462,34.8246,413.3167],[45.0301,34.828,408.0803],[44.9876,34.8232,382.342],[44.9665,34.8259,442.7026],[44.9399,34.8362,436.5186],[44.9284,34.8434,437.713],[44.9184,34.8522,448.1292]]]]}}