{"type":"Feature","properties":{"GID_2":"IRQ.6.2_1","GID_0":"IRQ","country":"Iraq","GID_1":"IRQ.6_1","province":"Arbil","NL_NAME_1":"NA","county":"Choman","VARNAME_2":"NA","NL_NAME_2":"NA","TYPE_2":"Kaza","ENGTYPE_2":"District","CC_2":"NA","HASC_2":"NA","name":"Choman.county"},
"geometry":{"type": "MultiPolygon","coordinates": [[[[44.8531,36.8008,2877.3408],[44.8307,36.7894,2851.2319],[44.7958,36.7774,2190.3237],[44.7541,36.7574,1546.4148],[44.7301,36.7496,1591.9697],[44.7047,36.7466,1821.2263],[44.69,36.7419,2104.3301],[44.6679,36.7373,1890.5676],[44.642,36.7179,2394.9258],[44.6181,36.7096,1505.167],[44.6046,36.7085,1038.1411],[44.5822,36.7147,852.8439],[44.5715,36.7137,871.1124],[44.5635,36.7076,1031.5179],[44.5593,36.6985,839.8756],[44.5587,36.683,834.3787],[44.5608,36.673,718.6207],[44.5669,36.6641,818.6904],[44.594,36.6356,876.7932],[44.598,36.6278,602.7509],[44.6021,36.6071,1355.5403],[44.6113,36.6008,1509.3447],[44.6201,36.5891,1769.5182],[44.6488,36.5778,1781.6976],[44.6532,36.5713,2005.9231],[44.6561,36.5572,2082.3088],[44.66,36.5503,1916.6436],[44.6791,36.5293,2486.2786],[44.6974,36.5219,1924.8143],[44.7055,36.5156,1912.1202],[44.7153,36.5007,1918.4268],[44.7326,36.4794,1468.5663],[44.7458,36.4543,1631.4746],[44.7662,36.4363,1372.5925],[44.7781,36.4361,1329.0894],[44.7861,36.4323,1628.3127],[44.7963,36.4387,1968.9969],[44.8163,36.4423,1593.1077],[44.8595,36.4362,1604.9607],[44.9042,36.4335,1196.6381],[44.9133,36.435,1213.3799],[44.924,36.4394,1493.8273],[44.9369,36.4506,2034.8599],[44.9648,36.4953,2249.7314],[44.98,36.5127,2628.9543],[44.999,36.5222,2936.2668],[45.0189,36.5278,3373.4988],[45.0149,36.5364,3367.043],[45.016,36.5432,3284.2158],[45.0194,36.547,3203.8176],[45.0369,36.556,3129.7373],[45.0518,36.5678,3137.821],[45.0544,36.5748,2707.667],[45.0424,36.5886,2542.2339],[45.0411,36.5942,2440.3545],[45.0483,36.6062,2585.3684],[45.0553,36.6125,2443.3354],[45.0617,36.6138,2403.4883],[45.0626,36.6186,2308.9622],[45.0736,36.6252,2257.3872],[45.0765,36.6336,2309.1284],[45.0778,36.6422,2332.2646],[45.0766,36.6607,1767.4696],[45.0791,36.6718,1842.6309],[45.0723,36.6907,2158.4688],[45.0475,36.7293,2701.2642],[45.0323,36.7402,2982.843],[45.0262,36.7425,3041.2053],[44.9963,36.7467,2778.3044],[44.9846,36.7546,2914.478],[44.9739,36.7652,2902.0552],[44.9564,36.7748,3177.2593],[44.939,36.776,2891.8423],[44.9114,36.7732,3433.2349],[44.8852,36.7737,2723.1877],[44.8662,36.7794,3176.9839],[44.8608,36.7841,3107.8691],[44.8531,36.8008,2877.3408]]]]}}