{"type":"Feature","properties":{"GID_2":"IRQ.9.6_1","GID_0":"IRQ","country":"Iraq","GID_1":"IRQ.9_1","province":"Babil","NL_NAME_1":"NA","county":"Mahmudiya","VARNAME_2":"NA","NL_NAME_2":"NA","TYPE_2":"Kaza","ENGTYPE_2":"District","CC_2":"NA","HASC_2":"NA","name":"Mahmudiya.county"},
"geometry":{"type": "MultiPolygon","coordinates": [[[[43.8358,33.2057,39.8615],[43.8324,33.2003,39.6413],[43.83,33.1903,42.5008],[43.8304,33.1796,46.4308],[43.8328,33.1722,54.8576],[43.8369,33.1659,55.5528],[43.8426,33.161,53.7562],[43.852,33.1566,61.9026],[43.8625,33.1539,56.2317],[43.8928,33.1483,45.0258],[43.9571,33.1215,49.7591],[44.0103,33.1096,46.2672],[44.0208,33.1048,52.0679],[44.029,33.0988,53.266],[44.0379,33.0892,52.724],[44.0522,33.0627,41.916],[44.0582,33.0389,52.6586],[44.0613,32.964,37.1098],[44.0666,32.9332,34.3804],[44.0746,32.9124,41.3973],[44.0813,32.9002,43.7891],[44.1001,32.874,30.1544],[44.1376,32.8759,37.0431],[44.1838,32.8312,32.9904],[44.1845,32.8181,31.4956],[44.2561,32.8174,33.0492],[44.2576,32.7874,30.785],[44.2892,32.7866,33.4489],[44.3038,32.7773,31.3475],[44.3061,32.7381,32.1901],[44.3182,32.7255,29.5786],[44.3348,32.7278,30.53],[44.3611,32.7361,26.8235],[44.3701,32.7424,27.6468],[44.3777,32.7503,28.2892],[44.3977,32.7786,30.8042],[44.3997,32.783,30.7352],[44.3997,32.7895,30.9159],[44.3976,32.7938,29.8174],[44.3902,32.801,29.4844],[44.382,32.8047,29.4253],[44.3674,32.8075,27.6392],[44.361,32.812,26.9049],[44.3509,32.8492,29.7861],[44.3489,32.8731,29.38],[44.3439,32.8923,35.5853],[44.342,32.9154,31.9154],[44.3288,32.9466,31.5419],[44.3249,32.961,32.5198],[44.3172,32.9771,32.9902],[44.3069,32.9898,34.068],[44.2865,33.009,34.9014],[44.2632,33.0219,34.7894],[44.2573,33.0272,34.6935],[44.2488,33.0503,33.6972],[44.2449,33.0727,35.3991],[44.2411,33.0825,37.3416],[44.237,33.1139,33.0943],[44.233,33.1213,33.4574],[44.2232,33.1334,32.1432],[44.2131,33.1343,32.0232],[44.1987,33.1397,32.0],[44.1628,33.1593,34.9724],[44.1449,33.1669,34.7816],[44.0996,33.1797,35.7313],[44.0758,33.1826,35.2583],[44.0311,33.1788,37.7667],[43.9999,33.179,38.1697],[43.9719,33.1835,37.8962],[43.9016,33.2027,41.2629],[43.8727,33.2055,40.4386],[43.8358,33.2057,39.8615]]]]}}