{"type":"Feature","properties":{"GID_2":"IRQ.6.1_1","GID_0":"IRQ","country":"Iraq","GID_1":"IRQ.6_1","province":"Arbil","NL_NAME_1":"NA","county":"Arbil","VARNAME_2":"NA","NL_NAME_2":"NA","TYPE_2":"Kaza","ENGTYPE_2":"District","CC_2":"NA","HASC_2":"NA","name":"Arbil.county"},
"geometry":{"type": "MultiPolygon","coordinates": [[[[44.2742,36.2494,889.2348],[44.2636,36.2522,885.3213],[44.2317,36.2542,1035.6403],[44.2175,36.2593,1038.9916],[44.196,36.2639,926.4114],[44.185,36.2755,874.9453],[44.1729,36.2821,844.0612],[44.1473,36.2874,688.998],[44.1234,36.2955,607.7106],[44.1145,36.303,582.0806],[44.1041,36.319,574.347],[44.0943,36.3246,557.6837],[44.0484,36.3263,503.9552],[44.029,36.3325,471.5972],[44.0034,36.3353,454.1769],[43.9881,36.3433,449.129],[43.9746,36.3614,428.2467],[43.9621,36.3714,419.6276],[43.9398,36.3756,398.157],[43.9258,36.3806,379.4373],[43.9078,36.3835,374.9504],[43.8938,36.3886,359.8586],[43.8758,36.3916,345.7025],[43.8617,36.3967,339.3957],[43.8292,36.3997,332.3296],[43.8151,36.4056,282.4932],[43.8108,36.4001,302.1331],[43.7977,36.3726,276.7106],[43.7762,36.3458,281.0522],[43.7543,36.3144,300.9378],[43.7461,36.3056,294.2642],[43.737,36.2979,300.5988],[43.7232,36.2904,294.128],[43.711,36.286,295.5099],[43.7032,36.2782,308.9706],[43.6678,36.2572,301.0398],[43.6302,36.2288,251.0357],[43.5942,36.199,238.6098],[43.5863,36.19,236.3221],[43.5829,36.1824,231.0036],[43.5969,36.1764,235.8481],[43.6154,36.1746,252.7564],[43.6257,36.1763,257.1674],[43.656,36.1898,293.2689],[43.6783,36.1895,321.777],[43.6858,36.1861,324.0689],[43.7074,36.168,310.4417],[43.7203,36.1616,308.0947],[43.7741,36.1492,339.6824],[43.7789,36.1465,340.0625],[43.7817,36.1417,338.8389],[43.7884,36.1138,305.3183],[43.7879,36.1072,302.2669],[43.7842,36.1014,297.6865],[43.7692,36.0887,294.7052],[43.764,36.0605,287.6178],[43.7403,36.0401,289.2134],[43.7292,36.0211,315.4475],[43.7267,36.013,333.3185],[43.7261,35.9974,388.5787],[43.7301,35.9843,350.7953],[43.7354,35.9786,368.5356],[43.7463,35.971,383.6714],[43.7559,35.9576,385.4395],[43.7674,35.9467,374.7765],[43.7934,35.9331,404.7048],[43.8234,35.9123,416.4637],[43.8337,35.8986,388.9723],[43.8498,35.8852,385.3214],[43.8601,35.8679,385.8289],[43.8891,35.8507,398.032],[43.8944,35.8436,378.197],[43.8977,35.8349,371.7468],[43.9092,35.8326,380.8786],[43.9358,35.8314,406.9132],[43.9519,35.8288,428.8142],[43.9665,35.8212,428.1207],[43.9982,35.7962,422.647],[44.0185,35.784,421.6838],[44.0439,35.774,454.235],[44.0774,35.7669,385.3681],[44.0896,35.7727,337.0374],[44.105,35.7842,283.964],[44.1117,35.795,271.8635],[44.1209,35.8196,313.0223],[44.1242,35.8238,314.4213],[44.1326,35.8285,315.4538],[44.1517,35.8311,315.2751],[44.2374,35.8305,281.7159],[44.2418,35.8367,273.6758],[44.2527,35.8721,383.7479],[44.2515,35.8817,413.7696],[44.2399,35.8996,435.8495],[44.2379,35.909,461.8571],[44.2382,35.9443,592.3335],[44.2433,35.9628,595.2441],[44.2433,35.9696,606.0734],[44.2359,35.9933,598.9391],[44.2236,36.0189,632.2335],[44.2158,36.046,683.8083],[44.229,36.0792,790.5443],[44.231,36.1084,688.8293],[44.2379,36.1324,794.0027],[44.2392,36.1726,708.4116],[44.2451,36.1914,793.6437],[44.2484,36.217,816.4275],[44.2522,36.2233,856.184],[44.2742,36.2494,889.2348]]]]}}