{"type":"Feature","properties":{"featurecla":"Reservoir","scalerank":6,"name":"Lake Habbaniyah","name_abb":"L. Habbaniyah","name_alt":null,"note":null,"delta":null,"dam_name":"Haditha","year":1983,"admin":null,"min_zoom":5.0,"min_label":6.5},
"geometry":{"type": "Polygon","coordinates": [[[43.446530173811993,33.2520743071197,43.897],[43.446530173811993,33.245892660449925,43.5],[43.441525983650735,33.243243383305753,46.0699],[43.439171070633677,33.240299742034438,46.6794],[43.437110521743762,33.236767372508865,49.2051],[43.432400695709646,33.231468818220492,50.1078],[43.437993614125162,33.22204916615226,50.2766],[43.432989423963932,33.215573155355372,51.1463],[43.426807777294158,33.209685872812742,53.144],[43.428868326184073,33.20114931312591,48.1806],[43.436521793489504,33.194967666456165,52.2248],[43.446530173811993,33.189669112167792,49.7905],[43.457421646515854,33.185842378515076,51.9584],[43.466546934456943,33.183781829625161,50.7157],[43.486563695101893,33.189080383913534,53.0359],[43.500987537331326,33.194673302329022,45.3829],[43.512762102416616,33.207330959795684,43.7517],[43.524536667501877,33.208802780431341,48.4144],[43.538666145604196,33.208802780431341,49.1507],[43.5489688900538,33.2111576934484,51.8186],[43.56486455291892,33.225581535677861,50.0774],[43.580465851656896,33.247364481085583,54.2281],[43.591946052615015,33.271796703637534,53.1214],[43.596950242776273,33.292990920791,75.0873],[43.593712237377815,33.300938752223544,79.3895],[43.579582759275496,33.323016061758437,46.4309],[43.576344753877038,33.330963893190983,70.7724],[43.570163107207293,33.337439903987871,72.9959],[43.529246493535965,33.355690479870049,54.3117],[43.522476118611962,33.340383545259186,45.0191],[43.517177564323589,33.331258257318126,46.5725],[43.511290281780958,33.327137159538267,43.5],[43.497455167805754,33.333318806208041,48.1356],[43.490390428754608,33.335084990970842,50.0],[43.486858059229007,33.330963893190983,47.3089],[43.481853869067777,33.329492072555325,46.9804],[43.449768179210423,33.361872126539822,50.818],[43.4338725163453,33.36746504495531,50.9963],[43.42945705443833,33.381300158930514,55.9413],[43.428868326184073,33.398962006558406,53.2727],[43.425630320785643,33.4166238541863,46.4313],[43.416799396971669,33.42516041387313,47.3337],[43.370878593139139,33.444588446263822,47.5687],[43.362047669325193,33.390425446871575,48.5351],[43.35674911503682,33.375707240515,48.215],[43.338792903281785,33.360105941777022,45.8782],[43.322308512162408,33.356867936378563,49.7085],[43.306118485170174,33.355984843997192,48.322],[43.295227012466313,33.348920104946018,49.2815],[43.287279181033739,33.32154424112278,49.6369],[43.304352300407373,33.30476548587626,49.051],[43.350567468367046,33.286809274121225,50.5809],[43.393838995055404,33.259139046170873,48.1239],[43.416210668717412,33.2520743071197,49.1662],[43.446530173811993,33.2520743071197,43.897]]]}}