{"type":"Feature","properties":{"GID_2":"IRQ.11.5_1","GID_0":"IRQ","country":"Iraq","GID_1":"IRQ.11_1","province":"Dhi-Qar","NL_NAME_1":"NA","county":"SuqashShuyukh","VARNAME_2":"NA","NL_NAME_2":"NA","TYPE_2":"Kaza","ENGTYPE_2":"District","CC_2":"NA","HASC_2":"NA","name":"Suqash_Shuyukh.county"},
"geometry":{"type": "MultiPolygon","coordinates": [[[[46.5629,30.5731,27.1475],[46.5669,30.6062,17.2986],[46.5697,30.6137,17.3101],[46.5861,30.6272,12.2647],[46.5996,30.6439,3.2986],[46.6179,30.6574,2.5543],[46.6253,30.6757,0.5],[46.6317,30.6838,0.5],[46.6463,30.6936,0.5],[46.6637,30.7156,1.3753],[46.6789,30.7252,1.1848],[46.695,30.7404,2.1785],[46.7009,30.7493,1.9478],[46.7042,30.7746,1.6907],[46.708,30.784,1.4732],[46.7223,30.8007,2.4415],[46.7321,30.8156,1.9335],[46.7546,30.8326,1.5588],[46.7655,30.8528,1.7217],[46.7686,30.8708,1.3077],[46.7746,30.8892,1.3012],[46.7747,30.9028,1.5708],[46.7654,30.9311,1.4528],[46.7456,30.9581,1.4236],[46.7437,30.9663,2.2695],[46.7436,30.9838,1.6195],[46.7336,30.9889,2.0147],[46.7252,30.9908,1.5738],[46.681399999999996,30.9927,5.0605],[46.6669,30.9979,1.6818],[46.657,30.9996,2.6251],[46.6095,31.0007,3.1767],[46.5901,31.0069,3.2099],[46.5646,31.0098,3.3986],[46.5406,31.0177,3.3484],[46.5246,31.0256,3.2777],[46.5159,31.0335,2.0587],[46.5067,31.0461,3.4457],[46.4946,31.0528,3.6546],[46.4868,31.0553,3.8621],[46.4615,31.0562,3.9562],[46.4416,31.0551,2.871],[46.4233,31.0466,2.6095],[46.4165,31.0459,2.9673],[46.3775,31.049,2.7709],[46.3633,31.0543,3.9043],[46.3497,31.0559,3.4161],[46.3408,31.0546,5.1392],[46.3246,31.0469,3.289],[46.316,31.0389,4.7865],[46.3128,31.0308,4.8788],[46.3118,30.9991,4.6717],[46.3102,30.9891,5.8115],[46.29,30.9476,2.5857],[46.2861,30.9333,2.8976],[46.266,30.8917,3.4755],[46.2618,30.8775,3.3315],[46.2497,30.8631,3.5931],[46.2357,30.853,4.389],[46.2275,30.8265,5.0365],[46.2101,30.811,12.0107],[46.2076,30.8001,16.8458],[46.2077,30.769,4.4414],[46.2447,30.7643,19.2507],[46.2971,30.7614,15.8211],[46.3309,30.7575,11.1057],[46.3599,30.7504,11.4886],[46.3805,30.7409,12.5463],[46.3886,30.7343,13.7172],[46.4037,30.7176,15.8689],[46.4535,30.6533,23.1818],[46.5005,30.5981,24.69],[46.5242,30.5747,29.1292],[46.5429,30.5611,26.7854],[46.5629,30.5731,27.1475]]]]}}