{"type":"Feature","properties":{"GID_2":"IRQ.3.4_1","GID_0":"IRQ","country":"Iraq","GID_1":"IRQ.3_1","province":"Al-Muthannia","NL_NAME_1":"NA","county":"Rumaitha","VARNAME_2":"NA","NL_NAME_2":"NA","TYPE_2":"Kaza","ENGTYPE_2":"District","CC_2":"NA","HASC_2":"NA","name":"Rumaitha.county"},
"geometry":{"type": "MultiPolygon","coordinates": [[[[45.7022,31.6115,7.984],[45.6128,31.6359,7.3384],[45.5337,31.6535,9.6092],[45.4179,31.6741,11.7883],[45.3772,31.6789,11.0311],[45.3053,31.6831,11.9851],[45.258,31.6827,13.2103],[45.1828,31.6768,13.8638],[45.1415,31.6692,14.1173],[45.0471,31.6452,15.832],[45.0395,31.642,14.9522],[45.0311,31.6368,15.4643],[45.0269,31.6321,14.7272],[45.0244,31.6214,14.6308],[45.0281,31.6108,14.6563],[45.0585,31.5711,13.2482],[45.0648,31.5584,12.7257],[45.0676,31.5466,13.0029],[45.0681,31.5344,12.3933],[45.0665,31.5224,12.1976],[45.0625,31.5108,11.6311],[45.0559,31.4993,10.7881],[45.0281,31.4659,12.6773],[45.0076,31.4183,12.0869],[44.985,31.3828,12.7444],[44.9768,31.3663,13.5033],[44.9696,31.3463,15.3975],[44.9646,31.3246,14.6812],[44.9582,31.2613,24.4893],[44.971,31.2513,24.3085],[44.9952,31.2487,21.1487],[45.0068,31.2426,19.4468],[45.0199,31.2417,19.0365],[45.03,31.2453,17.8373],[45.0432,31.2671,14.7283],[45.047,31.2705,13.8191],[45.0947,31.2868,14.4562],[45.1013,31.2865,17.1177],[45.1225,31.2739,25.5624],[45.1339,31.2732,24.3562],[45.1447,31.2766,12.0427],[45.1587,31.2904,11.9787],[45.1756,31.3175,11.2988],[45.1757,31.3242,10.8731],[45.1711,31.338,10.5265],[45.172,31.356,9.9931],[45.184,31.3818,10.2454],[45.1886,31.4034,11.396],[45.1918,31.4067,10.5859],[45.1984,31.4087,10.303],[45.2178,31.4081,10.2513],[45.2277,31.4024,10.0427],[45.232,31.396,10.8497],[45.235,31.3778,9.9087],[45.2378,31.3703,10.5016],[45.248,31.3588,10.2558],[45.2582,31.3535,9.6296],[45.3043,31.3518,9.7642],[45.3235,31.3454,10.0668],[45.3388,31.3445,9.8581],[45.4274,31.3448,9.5523],[45.4549,31.3513,8.7606],[45.4628,31.3497,8.0582],[45.4778,31.3405,7.9318],[45.4793,31.3411,7.7966],[45.4937,31.3586,9.042],[45.5116,31.3736,8.1231],[45.5427,31.4316,8.9369],[45.5507,31.4383,9.1134],[45.5731,31.4499,9.2723],[45.581,31.4566,9.3832],[45.5962,31.4823,8.7171],[45.6131,31.4965,7.4048],[45.6294,31.5201,6.7065],[45.64,31.5407,6.6454],[45.6447,31.554,7.7947],[45.6506,31.5594,7.6487],[45.6724,31.5706,7.6963],[45.6764,31.5743,7.6508],[45.6931,31.6011,8.2159],[45.7022,31.6115,7.984]]]]}}