{"type":"Feature","properties":{"GID_2":"IRQ.17.2_1","GID_0":"IRQ","country":"Iraq","GID_1":"IRQ.17_1","province":"Salaad-Din","NL_NAME_1":"NA","county":"AlDoor","VARNAME_2":"NA","NL_NAME_2":"NA","TYPE_2":"Kaza","ENGTYPE_2":"District","CC_2":"NA","HASC_2":"NA","name":"Al_Door.county"},
"geometry":{"type": "MultiPolygon","coordinates": [[[[44.0313,34.8453,267.8324],[44.0285,34.8352,210.9881],[44.026,34.7944,176.8501],[44.0211,34.7777,153.8388],[44.0248,34.7719,156.0867],[44.0423,34.7682,161.2799],[44.0493,34.764,159.4201],[44.0578,34.7487,141.189],[44.0602,34.734,134.1531],[44.0596,34.7271,131.3616],[44.0545,34.7229,126.9285],[44.0304,34.7154,121.8275],[44.0078,34.7114,116.8739],[43.9947,34.7068,113.6321],[43.9846,34.7082,114.6487],[43.9754,34.718,116.646],[43.9666,34.7215,116.3891],[43.9511,34.7218,115.0422],[43.9405,34.7181,111.6948],[43.9331,34.7092,107.701],[43.93,34.6837,101.0997],[43.9238,34.6644,96.3636],[43.923,34.6081,84.2457],[43.9191,34.5953,82.7568],[43.9136,34.5899,82.7244],[43.9067,34.587,83.5487],[43.8842,34.5851,89.027],[43.8556,34.5764,91.5932],[43.8396,34.5686,91.9694],[43.822,34.5562,93.256],[43.8001,34.5445,94.4875],[43.7966,34.5411,95.3006],[43.7899,34.5289,95.0211],[43.7847,34.5109,94.4225],[43.7708,34.4826,76.7324],[43.791,34.4514,91.6389],[43.8138,34.4264,89.6713],[43.8235,34.411,88.6021],[43.8409,34.39,85.6843],[43.8485,34.3739,85.2752],[43.8592,34.3239,80.2973],[43.8631,34.3151,79.7215],[43.8747,34.3038,74.809],[43.8925,34.2963,75.8766],[43.8956,34.293,75.1568],[43.8977,34.2866,74.0912],[43.9001,34.2558,73.9786],[43.9072,34.2393,73.0956],[43.916,34.2245,72.2974],[43.9227,34.2203,72.0206],[43.9411,34.2169,67.7638],[43.9573,34.2094,66.0953],[43.9653,34.2027,64.292],[43.9766,34.1826,62.8618],[43.9838,34.1662,60.4173],[43.9877,34.1438,58.825],[43.9952,34.1276,59.6284],[44.0022,34.1197,58.1575],[44.0102,34.1158,57.1442],[44.0348,34.1123,53.7741],[44.0428,34.1076,52.8507],[44.0456,34.1032,53.3501],[44.0539,34.1042,51.7865],[44.0777,34.1132,51.8823],[44.0884,34.1149,51.3255],[44.1491,34.1151,52.5603],[44.1647,34.1132,53.8442],[44.248,34.0723,53.1253],[44.2597,34.0598,55.8256],[44.2812,34.043,49.6998],[44.3018,34.0662,52.8902],[44.3268,34.107,48.9293],[44.361,34.1511,57.4513],[44.3774,34.18,57.4156],[44.3906,34.1935,66.96],[44.4281,34.2244,68.9992],[44.4354,34.2322,73.3157],[44.4451,34.2484,74.6319],[44.4501,34.275,76.9046],[44.4518,34.3508,83.7663],[44.4545,34.3783,83.9926],[44.4578,34.3899,84.4093],[44.4578,34.4602,88.78],[44.4566,34.4714,94.1238],[44.454,34.4777,93.9197],[44.4422,34.4747,92.6071],[44.4297,34.4681,88.5201],[44.4053,34.4594,85.6957],[44.3948,34.459,85.5225],[44.3898,34.4615,85.5935],[44.3822,34.4722,85.9803],[44.3732,34.4795,85.8034],[44.3607,34.4817,85.0025],[44.3342,34.4821,83.3651],[44.3258,34.4855,83.3656],[44.3225,34.493899999999996,85.4671],[44.322,34.5257,95.0312],[44.3201,34.5323,96.1972],[44.3169,34.5355,95.169],[44.3053,34.5379,92.7701],[44.2624,34.538,93.8887],[44.2552,34.5397,95.4492],[44.2488,34.5441,95.8519],[44.2281,34.5743,99.7227],[44.2204,34.5905,108.243],[44.2167,34.6049,109.6704],[44.2071,34.624,113.0971],[44.1965,34.6352,115.074],[44.1821,34.6452,117.9659],[44.1787,34.6499,119.2453],[44.1723,34.6623,123.0329],[44.1646,34.6864,134.7569],[44.1643,34.6932,135.1345],[44.1685,34.6999,139.1853],[44.1874,34.7128,165.2091],[44.1949,34.7214,172.9188],[44.1566,34.7599,248.7639],[44.1384,34.7758,264.4854],[44.09,34.8116,268.1596],[44.0533,34.8339,286.4283],[44.0313,34.8453,267.8324]]]]}}