{"type":"Feature","properties":{"GID_2":"IRQ.8.1_1","GID_0":"IRQ","country":"Iraq","GID_1":"IRQ.8_1","province":"At-Ta'mim","NL_NAME_1":"NA","county":"Daquq","VARNAME_2":"NA","NL_NAME_2":"NA","TYPE_2":"Kaza","ENGTYPE_2":"District","CC_2":"NA","HASC_2":"NA","name":"Daquq.county"},
"geometry":{"type": "MultiPolygon","coordinates": [[[[44.6762,35.5507,710.7634],[44.6599,35.5497,695.5753],[44.6477,35.5448,692.7865],[44.6388,35.5432,697.0762],[44.6296,35.5437,675.2379],[44.6124,35.5487,629.8388],[44.5947,35.5438,627.2075],[44.558,35.5422,593.3039],[44.5292,35.5328,564.7758],[44.523,35.5283,592.0868],[44.5106,35.5136,535.2438],[44.4819,35.5087,500.7117],[44.4591,35.482,445.6534],[44.454,35.4712,409.1951],[44.4553,35.4647,405.5922],[44.4616,35.4519,396.7247],[44.4801,35.4303,409.0022],[44.4907,35.4102,407.9514],[44.4921,35.3953,412.1187],[44.4887,35.387,365.8053],[44.4838,35.3843,341.5899],[44.4752,35.3831,328.2777],[44.4107,35.3837,299.2769],[44.3966,35.3825,297.5017],[44.3891,35.3792,293.0624],[44.3672,35.3618,286.9649],[44.333,35.3584,267.9759],[44.3278,35.3558,271.3617],[44.3202,35.3452,257.686],[44.3112,35.3378,256.4472],[44.2873,35.3297,250.0181],[44.2647,35.326,246.7535],[44.2476,35.3165,237.1954],[44.245,35.3114,237.4236],[44.243899999999996,35.3027,234.1576],[44.2432,35.1858,204.5317],[44.2255,35.1338,191.9057],[44.1833,35.1009,182.6225],[44.1664,35.0745,177.479],[44.1567,35.0683,175.8792],[44.1388,35.0529,172.0671],[44.1218,35.0423,169.0273],[44.0933,35.0153,165.8135],[44.0794,35.0051,162.9267],[44.0724,34.9863,163.9558],[44.0641,34.9725,164.1734],[44.0554,34.9693,161.2923],[44.0208,34.9683,156.3008],[44.013,34.966,156.4345],[43.9988,34.9579,163.9084],[43.9906,34.9438,172.7526],[43.9881,34.936,176.3114],[43.9865,34.8896,249.9468],[43.984,34.8795,275.8531],[43.9794,34.8733,260.4061],[43.993,34.8663,263.8018],[44.0037,34.8578,253.4409],[44.0533,34.8339,286.4283],[44.09,34.8116,268.1596],[44.1384,34.7758,264.4854],[44.1566,34.7599,248.7639],[44.1949,34.7214,172.9188],[44.2263,34.7003,146.9192],[44.2353,34.6967,142.5877],[44.25,34.695,153.6323],[44.2601,34.6974,172.1463],[44.2691,34.7033,194.648],[44.2814,34.7168,199.9132],[44.296,34.7414,145.7625],[44.3134,34.7837,121.3188],[44.3289,34.8161,145.1943],[44.3682,34.8843,172.4258],[44.394,34.9235,176.3356],[44.4336,34.9674,187.9087],[44.4503,34.9908,193.6773],[44.456,35.0062,197.4154],[44.4586,35.0213,199.7],[44.4614,35.0737,211.4479],[44.4659,35.0882,215.8976],[44.4739,35.0995,217.6221],[44.4824,35.1062,232.8985],[44.4933,35.1108,263.0634],[44.5074,35.112,240.1454],[44.5174,35.12,239.6633],[44.5721,35.1522,300.7228],[44.6082,35.1783,350.1477],[44.6223,35.1957,323.0878],[44.6781,35.3013,488.1536],[44.681399999999996,35.3165,516.3401],[44.6747,35.3558,587.0551],[44.6784,35.3724,579.0812],[44.6882,35.3882,636.777],[44.7175,35.4144,803.7438],[44.7242,35.4222,867.8209],[44.7313,35.436,872.1275],[44.7329,35.4438,897.8695],[44.7307,35.4576,896.8958],[44.7258,35.4664,882.3147],[44.6981,35.4965,856.9445],[44.6841,35.5161,828.3521],[44.6777,35.5329,770.7546],[44.6762,35.5507,710.7634]]]]}}