{"type":"Feature","properties":{"GID_2":"IRQ.8.3_1","GID_0":"IRQ","country":"Iraq","GID_1":"IRQ.8_1","province":"At-Ta'mim","NL_NAME_1":"NA","county":"Haweeja","VARNAME_2":"NA","NL_NAME_2":"NA","TYPE_2":"Kaza","ENGTYPE_2":"District","CC_2":"NA","HASC_2":"NA","name":"Haweeja.county"},
"geometry":{"type": "MultiPolygon","coordinates": [[[[43.4214,35.4565,194.9819],[43.4152,35.4535,190.8887],[43.3938,35.4366,184.4023],[43.3777,35.4281,188.0801],[43.3594,35.4254,173.0309],[43.3227,35.4237,160.7558],[43.3142,35.4218,151.8046],[43.2895,35.4082,148.0315],[43.2834,35.4027,139.1144],[43.2791,35.3959,143.2299],[43.2771,35.3882,308.6368],[43.2797,35.3741,296.6915],[43.2932,35.337,221.3074],[43.3156,35.3242,230.7716],[43.3364,35.3093,237.4255],[43.3491,35.2954,131.4733],[43.3693,35.267,172.3111],[43.3822,35.2448,202.0514],[43.3865,35.235,137.3759],[43.3901,35.2203,127.7292],[43.3946,35.1899,127.5203],[43.3983,35.1754,190.4969],[43.4028,35.1659,228.8884],[43.4121,35.152,290.9489],[43.4324,35.1325,257.3785],[43.5363,35.0454,169.4051],[43.564,35.0442,110.5],[43.5955,35.0396,185.6561],[43.6469,35.0241,310.4011],[43.6753,35.0118,398.4066],[43.8012,34.9488,300.6397],[43.8437,34.9293,279.6188],[43.8645,34.9769,201.9],[43.8761,34.9882,191.7035],[43.8941,34.9957,181.8287],[43.8977,34.9987,180.4951],[43.9098,35.0201,167.2294],[43.9221,35.0377,162.0041],[43.9337,35.0601,168.2629],[43.9593,35.0971,176.1347],[43.9631,35.1068,174.2165],[43.9646,35.1404,177.5908],[43.9665,35.147,178.5302],[43.9695,35.1506,179.0777],[43.9911,35.1625,181.6628],[43.9991,35.1691,183.0742],[44.0096,35.1823,182.4724],[44.0313,35.1942,188.4059],[44.04,35.2006,191.9694],[44.064,35.2245,198.1642],[44.0819,35.2457,203.4224],[44.0938,35.2481,205.4882],[44.1203,35.2487,210.3737],[44.1267,35.2507,211.7458],[44.1295,35.2536,213.2462],[44.1301,35.2595,213.7727],[44.1227,35.2744,215.0565],[44.1008,35.2923,215.9646],[44.0877,35.312,212.245],[44.0761,35.3234,210.873],[44.0643,35.3277,211.2363],[44.0217,35.328,207.075],[44.0093,35.3302,208.1039],[43.9967,35.3401,207.4458],[43.983,35.3579,210.1017],[43.9462,35.3781,212.3375],[43.9359,35.3917,213.4858],[43.9243,35.4032,214.631],[43.8972,35.4177,214.5992],[43.8894,35.4245,216.2483],[43.8856,35.433,217.2124],[43.8851,35.442,221.2379],[43.892,35.4659,219.8548],[43.8923,35.4939,215.9078],[43.8783,35.5357,206.9182],[43.8771,35.5437,198.8741],[43.8709,35.5433,204.7797],[43.8639,35.5401,197.3262],[43.8503,35.5273,194.2766],[43.8419,35.5151,191.7925],[43.8327,35.5121,189.7318],[43.7935,35.5103,208.3319],[43.7755,35.5202,210.2479],[43.7511,35.5234,204.9342],[43.7427,35.5273,212.0858],[43.7372,35.5319,209.9644],[43.6903,35.5177,210.9921],[43.6644,35.5067,215.2727],[43.5971,35.4723,189.8237],[43.5567,35.4455,180.4042],[43.5398,35.4387,177.6989],[43.5282,35.4385,177.6553],[43.4896,35.4463,184.9785],[43.4394,35.4516,193.6362],[43.4214,35.4565,194.9819]]]]}}