{"type":"Feature","properties":{"GID_2":"IRQ.1.4_1","GID_0":"IRQ","country":"Iraq","GID_1":"IRQ.1_1","province":"Al-Anbar","NL_NAME_1":"NA","county":"AlQa'im","VARNAME_2":"NA","NL_NAME_2":"NA","TYPE_2":"Kaza","ENGTYPE_2":"District","CC_2":"NA","HASC_2":"NA","name":"Al_Qa'im.county"},
"geometry":{"type": "MultiPolygon","coordinates": [[[[41.2229,35.0523,176.4534],[41.2297,34.9378,186.1703],[41.2296,34.8601,180.9276],[41.2378,34.785,156.9425],[41.2345,34.7772,156.7882],[41.1395,34.6641,169.8783],[41.033,34.4521,218.3192],[41.0271,34.4467,219.0787],[41.0192,34.4427,221.2535],[41.0172,34.4395,226.1229],[41.0124,34.4199,167.4556],[40.6037,34.2368,347.0611],[39.9755,33.9412,529.8994],[40.0094,33.9098,536.0161],[40.0176,33.906,532.1403],[40.0274,33.9046,526.5286],[40.052,33.9054,511.376],[40.0662,33.9107,487.0956],[40.0758,33.9124,484.2888],[40.1319,33.9134,495.5331],[40.1462,33.9186,493.9267],[40.1555,33.9202,490.9214],[40.2152,33.9207,487.4393],[40.2245,33.9224,486.3908],[40.2387,33.9276,478.1151],[40.2838,33.9292,463.3627],[40.298,33.9344,467.164],[40.3072,33.936,470.7776],[40.3512,33.936,451.5511],[40.3604,33.9343,442.3029],[40.3743,33.9292,451.9069],[40.412,33.9274,438.248],[40.4498,33.9141,454.7207],[40.476,33.9112,461.7213],[40.4898,33.9061,457.8893],[40.5121,33.9021,447.0665],[40.5261,33.897,453.2396],[40.5637,33.8952,433.6057],[40.5776,33.89,444.7549],[40.5871,33.8884,426.3784],[40.6274,33.8873,392.1761],[40.6655,33.8739,406.8958],[40.6917,33.871,415.1604],[40.7055,33.866,427.0543],[40.7278,33.862,443.4573],[40.7374,33.8579,449.0936],[40.7597,33.854,460.1253],[40.7694,33.8499,460.8762],[40.7917,33.8459,458.8697],[40.8055,33.8409,460.2051],[40.8316,33.838,449.6146],[40.8413,33.8339,443.9034],[40.8636,33.8299,453.9445],[40.8971,33.8178,451.9767],[40.9151,33.8149,447.8319],[40.9291,33.8098,444.8681],[40.9514,33.8059,439.7866],[40.961,33.8018,437.2512],[40.9834,33.7978,435.9441],[40.993,33.7937,436.1434],[41.0268,33.7909,429.552],[41.0451,33.7848,427.7944],[41.0713,33.7818,425.4719],[41.0809,33.7777,425.7374],[41.1032,33.7737,426.1675],[41.117,33.7687,426.049],[41.139,33.7667,425.7749],[41.1571,33.7605,424.5985],[41.171,33.7596,422.6867],[41.1946,33.7616,421.087],[41.215,33.7723,417.8739],[41.234,33.7793,415.3104],[41.2398,33.7849,415.5934],[41.2506,33.8008,418.2157],[41.2692,33.8142,418.0312],[41.2799,33.8299,417.8867],[41.2856,33.8352,418.2973],[41.2924,33.8382,417.6651],[41.311,33.8416,417.4209],[41.3187,33.8464,417.9998],[41.3444,33.8668,415.236],[41.3576,33.8831,410.0413],[41.3864,33.899,404.4619],[41.3997,33.9153,401.1559],[41.4197,33.9311,401.969],[41.4316,33.9473,403.1224],[41.462,33.9651,400.0986],[41.4745,33.9793,397.9203],[41.4941,34.0173,376.1917],[41.4975,34.0206,372.2468],[41.5194,34.0322,371.5255],[41.5256,34.0371,368.7707],[41.5305,34.0432,369.2623],[41.5442,34.0689,349.9016],[41.5531,34.0766,344.7072],[41.5749,34.0883,334.2284],[41.578,34.0918,332.1456],[41.58,34.0985,329.7149],[41.5806,34.1356,314.8415],[41.5792,34.1494,316.3491],[41.5751,34.1562,312.9014],[41.5666,34.1636,306.0839],[41.5584,34.1794,296.3227],[41.5568,34.1923,299.8345],[41.5582,34.2011,293.5933],[41.5634,34.2157,285.6669],[41.5664,34.2412,275.4752],[41.5748,34.265,264.7394],[41.5925,34.2868,258.5184],[41.5962,34.2956,254.0974],[41.5972,34.3166,247.851],[41.5947,34.3283,240.3855],[41.5884,34.3328,239.3047],[41.5743,34.3341,243.4125],[41.4612,34.3326,288.217],[41.4549,34.3357,292.1837],[41.4524,34.3509,308.7749],[41.4538,34.3812,306.6723],[41.4566,34.3861,304.884],[41.4614,34.3887,286.6746],[41.5073,34.3905,271.3114],[41.5218,34.3956,250.8409],[41.5318,34.3972,251.4336],[41.5693,34.3976,263.7496],[41.5764,34.3989,261.7881],[41.5814,34.4029,256.5095],[41.5797,34.4164,228.2355],[41.5659,34.4468,172.1111],[41.564,34.5165,189.2736],[41.5614,34.5215,203.161],[41.5508,34.5292,205.2871],[41.5434,34.5381,209.0685],[41.5411,34.5589,223.6454],[41.5417,34.6299,293.3443],[41.5434,34.6402,299.0677],[41.5486,34.6546,301.2761],[41.5504,34.6752,326.716],[41.5595,34.704,325.0114],[41.5804,34.7456,326.1725],[41.5824,34.7592,323.3927],[41.58,34.7623,323.0714],[41.5686,34.7674,317.0364],[41.5442,34.7939,301.5109],[41.5229,34.7988,291.9707],[41.5165,34.8031,288.0771],[41.5116,34.8092,279.3167],[41.4985,34.8348,257.2547],[41.491,34.8434,253.2844],[41.4814,34.8508,246.8067],[41.4589,34.8622,232.338],[41.4527,34.8671,229.9945],[41.4395,34.8857,222.7726],[41.4259,34.8961,217.5858],[41.4111,34.9151,207.4143],[41.394,34.9281,193.5798],[41.3846,34.9415,186.4131],[41.3763,34.95,181.2504],[41.3472,34.966,173.4142],[41.3375,34.9734,171.4689],[41.3099,35.0014,178.1087],[41.2967,35.0177,213.4168],[41.2853,35.0256,191.148],[41.2678,35.0496,188.5096],[41.2541,35.0527,195.9771],[41.2229,35.0523,176.4534]]]]}}