{"type":"Feature","properties":{"GID_2":"IRQ.17.3_1","GID_0":"IRQ","country":"Iraq","GID_1":"IRQ.17_1","province":"Salaad-Din","NL_NAME_1":"NA","county":"AlShirkat","VARNAME_2":"NA","NL_NAME_2":"NA","TYPE_2":"Kaza","ENGTYPE_2":"District","CC_2":"NA","HASC_2":"NA","name":"Al_Shirkat.county"},
"geometry":{"type": "MultiPolygon","coordinates": [[[[43.3419,35.6721,192.821],[43.3217,35.6612,187.0946],[43.2617,35.6149,151.7722],[43.2386,35.6033,158.9888],[43.2046,35.5914,157.8365],[43.1684,35.5881,183.5748],[43.036,35.5886,205.5958],[43.0198,35.586,214.6248],[43.0073,35.5814,216.7742],[42.9856,35.5659,239.1022],[42.9496,35.5282,178.9279],[42.8776,35.4482,158.789],[42.8663,35.433,155.5107],[42.8581,35.417,166.9532],[42.8508,35.3927,163.1998],[42.8473,35.3725,171.5229],[42.8473,35.3363,161.2833],[42.8513,35.3049,174.5697],[42.8556,35.2896,161.0491],[42.8664,35.269,155.9306],[42.9054,35.2138,143.875],[42.9155,35.2215,134.0671],[42.9255,35.2246,131.1266],[43.0014,35.2255,147.6324],[43.0166,35.2274,154.2701],[43.0326,35.2351,154.6949],[43.05,35.2478,146.3148],[43.082,35.2636,168.7031],[43.111,35.2725,172.6221],[43.1365,35.2752,186.308],[43.1493,35.2812,191.4805],[43.1591,35.2876,194.7496],[43.1763,35.3041,209.0059],[43.1862,35.3111,220.0347],[43.2084,35.3153,260.5368],[43.2226,35.3203,288.0553],[43.2569,35.323,227.9034],[43.2932,35.337,221.3074],[43.2771,35.3847,299.7635],[43.2791,35.3959,143.2299],[43.2834,35.4027,139.1144],[43.2965,35.4128,149.7373],[43.3142,35.4218,151.8046],[43.3227,35.4237,160.7558],[43.3594,35.4254,173.0309],[43.3777,35.4281,188.0801],[43.3938,35.4366,184.4023],[43.4152,35.4535,190.8887],[43.4214,35.4565,194.9819],[43.4217,35.5199,188.551],[43.4175,35.5438,196.9664],[43.3955,35.5813,208.3474],[43.3862,35.6169,194.0783],[43.3809,35.6311,194.366],[43.3682,35.6472,192.0744],[43.3419,35.6721,192.821]]]]}}