{"type":"Feature","properties":{"GID_2":"IRQ.1.5_1","GID_0":"IRQ","country":"Iraq","GID_1":"IRQ.1_1","province":"Al-Anbar","NL_NAME_1":"NA","county":"Anah","VARNAME_2":"NA","NL_NAME_2":"NA","TYPE_2":"Kaza","ENGTYPE_2":"District","CC_2":"NA","HASC_2":"NA","name":"Anah.county"},
"geometry":{"type": "MultiPolygon","coordinates": [[[[42.2214,34.8915,269.1872],[42.2113,34.9,267.916],[42.1921,34.9109,269.6341],[42.1682,34.9202,270.364],[42.155,34.9221,271.4408],[42.1235,34.9213,280.2953],[42.0168,34.9095,325.835],[41.9912,34.909,332.9064],[41.9734,34.9112,332.6031],[41.9337,34.9209,343.86],[41.8618,34.9439,330.476],[41.8242,34.9582,314.064],[41.7976,34.9713,302.733],[41.7395,34.9924,286.2667],[41.6756,35.0065,274.5239],[41.582,35.0307,229.8861],[41.5502,35.0352,223.2318],[41.4954,35.0352,196.829],[41.4634,35.042,189.6629],[41.4464,35.0476,184.6847],[41.4234,35.0578,187.7027],[41.3577,35.095,210.6686],[41.336,35.1041,201.5039],[41.3083,35.1077,195.0295],[41.2783,35.1063,185.5785],[41.2204,35.0929,162.9891],[41.2229,35.0523,176.4534],[41.2541,35.0527,195.9771],[41.2678,35.0496,188.5096],[41.2853,35.0256,191.148],[41.2967,35.0177,213.4168],[41.3099,35.0014,178.1087],[41.3375,34.9734,171.4689],[41.3472,34.966,173.4142],[41.3763,34.95,181.2504],[41.3846,34.9415,186.4131],[41.394,34.9281,193.5798],[41.4111,34.9151,207.4143],[41.4259,34.8961,217.5858],[41.4395,34.8857,222.7726],[41.4527,34.8671,229.9945],[41.4589,34.8622,232.338],[41.4814,34.8508,246.8067],[41.491,34.8434,253.2844],[41.4985,34.8348,257.2547],[41.5116,34.8092,279.3167],[41.5165,34.8031,288.0771],[41.5229,34.7988,291.9707],[41.5442,34.7939,301.5109],[41.5686,34.7674,317.0364],[41.58,34.7623,323.0714],[41.5824,34.7592,323.3927],[41.5804,34.7456,326.1725],[41.5595,34.704,325.0114],[41.5504,34.6752,326.716],[41.5486,34.6546,301.2761],[41.5434,34.6402,299.0677],[41.5417,34.6299,293.3443],[41.5411,34.5589,223.6454],[41.5434,34.5381,209.0685],[41.5508,34.5292,205.2871],[41.5614,34.5215,203.161],[41.564,34.5165,189.2736],[41.5659,34.4468,172.1111],[41.5797,34.4164,228.2355],[41.5814,34.4029,256.5095],[41.5764,34.3989,261.7881],[41.5693,34.3976,263.7496],[41.5318,34.3972,251.4336],[41.5218,34.3956,250.8409],[41.5073,34.3905,271.3114],[41.4614,34.3887,286.6746],[41.4566,34.3861,304.884],[41.4538,34.3812,306.6723],[41.4524,34.3509,308.7749],[41.4549,34.3357,292.1837],[41.4612,34.3326,288.217],[41.5743,34.3341,243.4125],[41.5884,34.3328,239.3047],[41.5933,34.3301,236.6309],[41.596,34.3252,243.0072],[41.5972,34.306,252.7456],[41.5947,34.2908,255.6965],[41.5748,34.265,264.7394],[41.5664,34.2412,275.4752],[41.5634,34.2157,285.6669],[41.5582,34.2011,293.5933],[41.5568,34.1923,299.8345],[41.5584,34.1794,296.3227],[41.5666,34.1636,306.0839],[41.5751,34.1562,312.9014],[41.5792,34.1494,316.3491],[41.5806,34.1356,314.8415],[41.5805,34.1035,328.8115],[41.578,34.0918,332.1456],[41.5749,34.0883,334.2284],[41.5468,34.0718,348.5589],[41.5256,34.0371,368.7707],[41.5194,34.0322,371.5255],[41.4975,34.0206,372.2468],[41.4941,34.0173,376.1917],[41.4745,33.9793,397.9203],[41.4679,33.9708,400.1458],[41.4588,33.9626,399.8022],[41.4316,33.9473,403.1224],[41.4197,33.9311,401.969],[41.3997,33.9153,401.1559],[41.3864,33.899,404.4619],[41.3576,33.8831,410.0413],[41.3444,33.8668,415.236],[41.315,33.8437,417.665],[41.2856,33.8352,418.2973],[41.2799,33.8299,417.8867],[41.2692,33.8142,418.0312],[41.2506,33.8008,418.2157],[41.2398,33.7849,415.5934],[41.234,33.7793,415.3104],[41.215,33.7723,417.8739],[41.1999,33.7636,420.4023],[41.2118,33.7487,427.5116],[41.2323,33.7377,426.2533],[41.2629,33.7336,426.5826],[41.2885,33.7216,425.7424],[41.3268,33.7096,431.023],[41.3524,33.6976,425.78],[41.3747,33.6935,421.3602],[41.3887,33.6885,422.5663],[41.4067,33.6856,421.1893],[41.4402,33.6735,410.3632],[41.4626,33.6695,364.0501],[41.4766,33.6645,410.576],[41.4945,33.6616,412.2042],[41.5185,33.6536,410.9567],[41.544,33.6414,408.2168],[41.568,33.6334,404.1163],[41.5983,33.6295,397.7813],[41.7037,33.5933,376.1754],[41.7132,33.5917,371.1398],[41.7534,33.5905,361.437],[41.7723,33.5844,361.8202],[41.806,33.5814,364.5897],[41.8635,33.5613,365.1301],[41.8939,33.5573,363.3544],[41.9178,33.5494,359.2296],[41.9434,33.5373,356.3931],[41.9657,33.5332,353.4033],[41.9913,33.5212,348.3491],[42.0057,33.5173,351.9287],[42.0472,33.4972,337.1763],[42.0695,33.4931,332.8761],[42.0837,33.4881,330.9584],[42.1175,33.4853,321.2671],[42.175,33.4651,307.4873],[42.1974,33.4611,305.482],[42.2119,33.4559,297.6396],[42.2369,33.4537,296.2144],[42.2461,33.4511,294.7656],[42.2489,33.4615,286.7114],[42.2528,33.4988,281.3052],[42.2485,33.5221,278.0629],[42.2405,33.5461,278.194],[42.2326,33.5621,286.3467],[42.2127,33.5878,292.4572],[42.2083,33.6099,295.6489],[42.1885,33.6514,282.1422],[42.1795,33.6807,278.6575],[42.178,33.7086,258.4281],[42.1748,33.7186,260.9306],[42.1661,33.734,271.7839],[42.1436,33.751,287.5639],[42.1327,33.7712,269.9203],[42.1288,33.7942,266.764],[42.1244,33.8089,277.4554],[42.1244,33.8173,272.2154],[42.127,33.8263,263.0404],[42.1183,33.8324,273.5062],[42.0906,33.8579,273.3778],[42.0736,33.8669,252.6447],[42.0559,33.8721,269.7533],[42.04,33.88,272.1988],[42.0313,33.8879,248.5293],[42.0233,33.9007,249.7255],[42.0177,33.906,262.649],[42.0109,33.909,256.6163],[41.9923,33.9126,262.6723],[41.9609,33.9362,279.5369],[41.9564,33.9428,291.798],[41.9409,33.9867,328.1861],[41.9384,33.9981,327.2268],[41.9414,34.0093,328.3035],[41.9613,34.035,301.0891],[41.9633,34.0449,296.1392],[41.9642,34.0657,284.5409],[41.9662,34.0723,279.6353],[41.9693,34.0756,286.6528],[41.997,34.085,257.1935],[42.0216,34.0861,249.9607],[42.0341,34.089,253.4023],[42.079,34.1113,235.0788],[42.0966,34.1237,229.1868],[42.1227,34.1373,213.2661],[42.1318,34.1455,201.724],[42.1358,34.151,202.3575],[42.1376,34.1574,201.1768],[42.133,34.175,188.5873],[42.1341,34.1844,180.352],[42.1412,34.1934,188.8328],[42.1571,34.204,172.1781],[42.1708,34.2225,155.7545],[42.1837,34.2328,159.5617],[42.1852,34.2407,163.5077],[42.1822,34.2531,150.7317],[42.1859,34.2622,146.3711],[42.1971,34.2732,157.2859],[42.2167,34.2864,132.5],[42.2318,34.305,132.5],[42.2506,34.313,132.5],[42.2693,34.3304,132.5],[42.274,34.3376,132.5],[42.2782,34.3519,141.3107],[42.2983,34.3935,146.6638],[42.3016,34.4205,165.6324],[42.2999,34.4543,207.1739],[42.2933,34.4781,191.6903],[42.2926,34.5311,245.1461],[42.2915,34.5397,255.709],[42.2889,34.5448,264.1046],[42.2721,34.5545,289.0587],[42.2575,34.5582,305.5259],[42.23,34.5683,314.2733],[42.2185,34.5791,316.691],[42.2072,34.5942,318.9128],[42.1678,34.618,316.1115],[42.1505,34.6246,314.9716],[42.1351,34.6415,312.2763],[42.1092,34.6453,311.8477],[42.102,34.6482,311.8628],[42.0906,34.6588,318.0241],[42.0869,34.6679,322.5461],[42.0917,34.6857,308.6877],[42.0938,34.7064,302.7733],[42.1035,34.7424,292.0253],[42.1067,34.7456,291.0605],[42.1133,34.7475,290.5871],[42.1444,34.7498,283.838],[42.1606,34.7573,283.7358],[42.1692,34.7652,283.0417],[42.1832,34.8069,279.6864],[42.1953,34.8325,278.8499],[42.2074,34.8719,276.7789],[42.2214,34.8915,269.1872]]]]}}