{"type":"Feature","properties":{"GID_2":"IRQ.7.1_1","GID_0":"IRQ","country":"Iraq","GID_1":"IRQ.7_1","province":"As-Sulaymaniyah","NL_NAME_1":"NA","county":"Chamchamal","VARNAME_2":"NA","NL_NAME_2":"NA","TYPE_2":"Kaza","ENGTYPE_2":"District","CC_2":"NA","HASC_2":"NA","name":"Chamchamal.county"},
"geometry":{"type": "MultiPolygon","coordinates": [[[[44.585,35.854,363.5085],[44.5863,35.8436,437.9357],[44.5924,35.8273,626.1099],[44.6255,35.768,740.7061],[44.64,35.7453,677.0111],[44.6569,35.7265,767.8723],[44.7051,35.695,756.3544],[44.7097,35.6894,760.9047],[44.7134,35.6808,776.0702],[44.7146,35.6682,767.2714],[44.7133,35.6608,756.5173],[44.6892,35.622,662.9895],[44.681,35.6021,744.0455],[44.6766,35.5771,628.6371],[44.6758,35.5448,718.7734],[44.6777,35.5329,770.7546],[44.6841,35.5161,828.3521],[44.6981,35.4965,856.9445],[44.7258,35.4664,882.3147],[44.7307,35.4576,896.8958],[44.7329,35.4438,897.8695],[44.7313,35.436,872.1275],[44.7242,35.4222,867.8209],[44.7175,35.4144,803.7438],[44.6882,35.3882,636.777],[44.6784,35.3724,579.0812],[44.6747,35.3558,587.0551],[44.681399999999996,35.3165,516.3401],[44.6781,35.3013,488.1536],[44.6223,35.1957,323.0878],[44.6155,35.186,339.3899],[44.5988,35.1707,321.4995],[44.5721,35.1522,300.7228],[44.5174,35.12,239.6633],[44.5074,35.112,240.1454],[44.5219,35.0924,237.6226],[44.5454,35.07,236.9125],[44.5735,35.0472,268.7039],[44.5963,35.0345,275.7343],[44.6092,35.0311,272.6124],[44.6227,35.0295,279.5541],[44.6813,35.0302,319.253],[44.7302,35.0262,369.7029],[44.8045,35.0151,442.1599],[44.8482,35.0104,504.6839],[44.8622,35.0072,549.7006],[44.8732,35.0025,549.1671],[44.882,34.9967,552.9108],[44.8938,34.9844,507.5108],[44.9016,34.9715,444.3417],[44.9073,34.9568,396.7372],[44.9104,34.9398,392.4204],[44.9105,34.9001,439.6497],[44.9241,34.902,510.4407],[44.9322,34.9062,591.693],[44.9503,34.9345,647.754],[44.956,34.94,599.8643],[44.9753,34.9531,461.4255],[44.9921,34.9735,432.7206],[45.0298,34.9856,459.4043],[45.0553,34.9978,453.4254],[45.0794,35.0056,491.2278],[45.1064,35.0084,513.1042],[45.1133,35.0113,507.7604],[45.1188,35.0168,498.7948],[45.122,35.0246,479.7411],[45.1229,35.0594,527.9805],[45.1248,35.0661,537.7734],[45.128,35.0693,550.7258],[45.1395,35.0716,494.6432],[45.2786,35.0713,564.0576],[45.2858,35.073,604.8824],[45.2921,35.0774,574.8503],[45.2966,35.0837,625.1046],[45.3029,35.102,636.0519],[45.3334,35.1345,791.4363],[45.3426,35.1469,760.749],[45.3295,35.1576,762.0448],[45.3133,35.1861,842.2037],[45.306399999999996,35.194,839.3386],[45.286,35.2048,836.0826],[45.2717,35.2091,837.0763],[45.263,35.2151,826.1803],[45.2526,35.2274,867.1478],[45.2407,35.2491,870.187],[45.2241,35.2635,898.0211],[45.2107,35.2825,891.9949],[45.2025,35.2896,839.9598],[45.184,35.2971,837.1154],[45.1762,35.3035,816.037],[45.1724,35.3123,735.7661],[45.1725,35.33,724.5546],[45.17,35.3371,725.5621],[45.1584,35.3458,705.524],[45.1559,35.3496,693.5773],[45.1296,35.4017,623.3477],[45.1228,35.4096,621.3117],[45.1097,35.4202,579.9597],[45.1016,35.4353,653.567],[45.0968,35.4484,666.6632],[45.0936,35.4516,657.4814],[45.0815,35.4572,664.527],[45.078,35.4603,658.6757],[45.0622,35.4842,746.6434],[45.0361,35.4992,718.9357],[45.0092,35.5204,698.6146],[45.0041,35.5268,712.3759],[44.9933,35.5526,741.9982],[44.9902,35.5561,742.9312],[44.9536,35.5764,767.4045],[44.9397,35.594,773.9623],[44.9317,35.6014,824.1518],[44.9045,35.616,791.1461],[44.8967,35.6229,736.787],[44.894,35.6273,756.0055],[44.8921,35.6381,707.6245],[44.8941,35.649,692.3558],[44.9005,35.6572,712.5068],[44.9154,35.6671,759.2214],[44.9225,35.675,821.6171],[44.9313,35.6913,1187.4568],[44.9444,35.7219,886.8254],[44.9234,35.7251,706.3875],[44.9175,35.7315,707.0901],[44.9101,35.7516,652.5907],[44.9109,35.761,639.262],[44.9137,35.7704,645.7046],[44.9133,35.777,643.54],[44.9079,35.7849,623.4849],[44.896,35.7955,575.7997],[44.893,35.8088,535.2319],[44.8818,35.8228,498.3251],[44.8777,35.8324,479.4118],[44.8773,35.8504,458.3935],[44.8807,35.8656,495.3902],[44.8413,35.8626,412.8105],[44.7532,35.8615,379.5035],[44.7129,35.8586,457.331],[44.6414,35.8575,556.2496],[44.585,35.854,363.5085]]]]}}