{"type":"Feature","properties":{"GID_2":"IRQ.1.1_1","GID_0":"IRQ","country":"Iraq","GID_1":"IRQ.1_1","province":"Al-Anbar","NL_NAME_1":"NA","county":"AbuGhraib","VARNAME_2":"NA","NL_NAME_2":"NA","TYPE_2":"Kaza","ENGTYPE_2":"District","CC_2":"NA","HASC_2":"NA","name":"Abu_Ghraib.county"},
"geometry":{"type": "MultiPolygon","coordinates": [[[[43.8358,33.2057,39.8615],[43.8727,33.2055,40.4386],[43.9016,33.2027,41.2629],[43.9719,33.1835,37.8962],[43.9999,33.179,38.1697],[44.0311,33.1788,37.7667],[44.0758,33.1826,35.2583],[44.0996,33.1797,35.7313],[44.1449,33.1669,34.7816],[44.1628,33.1593,34.9724],[44.1987,33.1397,32.0],[44.2131,33.1343,32.0232],[44.2232,33.1334,32.1432],[44.231,33.1405,33.5251],[44.2608,33.155,29.8403],[44.2735,33.1678,29.5749],[44.2802,33.1814,30.7636],[44.2873,33.1892,30.3057],[44.2711,33.2047,31.0303],[44.2473,33.2152,32.0239],[44.2386,33.222,31.6063],[44.2303,33.2353,33.0282],[44.2235,33.2531,32.3062],[44.1979,33.255,34.4234],[44.1546,33.275,34.1728],[44.1381,33.2798,36.0877],[44.1094,33.3055,34.0337],[44.0981,33.3092,34.3508],[44.0704,33.3032,37.8002],[44.0611,33.2966,37.9912],[44.0463,33.2808,36.05],[44.0358,33.2775,35.5852],[44.0242,33.2771,35.5096],[44.0083,33.2818,34.6167],[44.0019,33.2791,35.2249],[43.9942,33.2731,36.0995],[43.9883,33.273,35.6278],[43.9628,33.2908,36.2871],[43.9534,33.292,35.9891],[43.9489,33.291,35.5231],[43.9363,33.2816,36.1222],[43.9222,33.2637,38.5774],[43.8955,33.2429,39.6298],[43.891,33.2409,39.7397],[43.8844,33.2407,39.2324],[43.8678,33.2462,41.0378],[43.8584,33.2431,43.5296],[43.8406,33.2219,40.4346],[43.8367,33.2136,39.8709],[43.8358,33.2057,39.8615]]]]}}