{"type":"Feature","properties":{"ISO3166-1-Alpha-3":"IRQ","country":"Iraq","fill":"#00F","id":"3061","name":"An-Najaf"},
"geometry":{"type": "Polygon","coordinates": [[[44.37365,32.14499,25.6932],[44.35846,32.16225,24.6583],[44.3535,32.17078,22.6092],[44.34606,32.18049,26.2548],[44.33955,32.18695,25.8628],[44.32063,32.21269,24.1894],[44.31268,32.23126,23.9152],[44.31113,32.24217,23.6981],[44.31846,32.25224,23.9979],[44.34265,32.26382,26.3093],[44.34668,32.28092,25.0206],[44.34048,32.28622,28.7776],[44.33366,32.29581,25.4476],[44.3195,32.34371,24.6112],[44.3074,32.31862,25.0487],[44.30575,32.31252,26.3774],[44.3012,32.30139,24.7345],[44.29645,32.29596,24.5763],[44.28808,32.30028,24.3781],[44.27609,32.30924,27.5461],[44.25004,32.30661,34.1941],[44.15672,32.28193,61.5808],[43.69059,32.16845,129.5514],[43.79581,32.08342,105.2931],[43.79477,32.0637,99.8124],[43.7895,32.03376,106.9458],[43.77183,32.01564,102.4849],[43.75467,32.00172,114.6062],[43.66166,31.95782,152.336],[43.63613,31.94032,159.8168],[43.6228,31.93324,167.4688],[43.60667,31.92821,169.9253],[43.5429,31.91971,176.6181],[43.53112,31.91544,180.8148],[43.50136,31.89873,188.9878],[43.4936,31.89715,188.6549],[43.47273,31.89557,198.9412],[43.4565,31.88904,199.6867],[43.438,31.877,209.8062],[43.40916,31.8503,214.9818],[43.25352,31.65352,258.1164],[43.23925,31.63153,264.3447],[43.23801,31.5996,285.5403],[43.23243,31.57159,286.963],[43.21765,31.53461,274.1873],[43.11151,31.33987,272.3356],[43.10221,31.31566,273.3541],[43.09942,31.2984,276.0482],[43.09942,31.28525,283.042],[43.10128,31.27667,283.486],[43.105,31.26954,275.438],[43.10582,31.25473,277.423],[43.10159,31.23331,285.2198],[43.06221,31.14425,318.8072],[43.0589,31.13174,319.9606],[43.05208,31.08278,299.0599],[43.04547,31.06177,297.8466],[43.03813,31.04803,316.9947],[42.9818,30.97963,332.1479],[42.94749,30.92902,326.8607],[42.93994,30.914,310.1166],[42.93653,30.90416,309.3839],[42.92423,30.81595,330.1884],[42.91152,30.78091,350.5818],[42.88175,30.71918,324.7658],[42.81685,30.61488,350.2754],[42.79091,30.56121,369.795],[42.78341,30.55105,366.3093],[42.85871,30.49468,351.4698],[42.85881,30.49463,351.4698],[42.85891,30.49457,351.4698],[42.85902,30.49452,351.4698],[42.96475,30.42,330.9564],[43.05291,30.35779,350.5898],[43.14096,30.29567,306.3013],[43.22907,30.2335,338.0207],[43.31723,30.17134,386.1409],[43.43175,30.09057,390.4942],[43.54636,30.0098,396.4879],[43.66098,29.92903,369.505],[43.7755,29.84821,385.1541],[43.82401,29.81398,451.7921],[43.83684,29.8333,445.8242],[44.05636,30.16697,368.2627],[44.2364,30.61529,277.6034],[44.27195,30.67624,265.4746],[44.31299,30.72241,248.2748],[44.3287,30.73606,244.3768],[44.3782,30.76714,235.7409],[44.43856,30.78897,225.2141],[44.44538,30.79308,223.2587],[44.49406,30.85863,198.0073],[44.53302,30.89801,191.0709],[44.57943,30.93434,181.7186],[44.62707,31.00694,153.6479],[44.65126,31.05493,137.6658],[44.72691,31.40746,27.3911],[44.53457,31.47529,48.9615],[44.51597,31.48562,56.5129],[44.45086,31.55141,44.8862],[44.42926,31.58531,40.9642],[44.43422,31.60872,32.4066],[44.45644,31.63019,16.5392],[44.47763,31.63458,14.7667],[44.50502,31.62559,14.9372],[44.52217,31.61699,14.4373],[44.54171,31.64078,14.8763],[44.52837,31.71553,16.9266],[44.52899,31.77858,20.6473],[44.53302,31.81108,17.9768],[44.49954,31.95273,19.5595],[44.50657,31.98409,20.6992],[44.51494,32.0083,20.7935],[44.523,32.01841,21.0393],[44.54253,32.02507,24.6697],[44.57902,32.0458,21.611],[44.60785,32.0551,22.1717],[44.61312,32.0582,20.6325],[44.61333,32.06267,21.6875],[44.60733,32.06921,20.9558],[44.59855,32.0752,22.4341],[44.59245,32.08021,20.7331],[44.5878,32.08644,21.965],[44.58408,32.09308,21.0722],[44.58398,32.09918,21.5408],[44.58656,32.1044,20.8116],[44.59669,32.1098,18.3782],[44.60289,32.11088,18.4501],[44.60764,32.11104,19.2697],[44.61188,32.1152,19.0862],[44.61519,32.11923,19.4074],[44.62987,32.15946,21.1535],[44.57912,32.17354,20.1358],[44.54935,32.18801,20.6567],[44.52703,32.20403,20.713],[44.49974,32.2163,19.7887],[44.45055,32.18638,21.9488],[44.4428,32.18708,22.8232],[44.43453,32.18568,23.4395],[44.42998,32.18592,23.6706],[44.40921,32.17388,22.8915],[44.37365,32.14499,25.6932]]]}}