{"type":"Feature","properties":{"id":142905.0,"name":null,"lge_id":null,"pfafstette":2933.0,"lke_type":null,"altitude":0,"objectid":89809,"scalerank":11,"featurecla":"Lake","note":"_untitled_89809","funkyname":0,"min_zoom":6.7,"min_label":7.7},
"geometry":{"type": "Polygon","coordinates": [[[44.220225456646233,32.047919012494077,14.2447],[44.220225456646233,32.047919012494077,14.2447],[44.201426628521233,32.031866766400327,9.5322],[44.228526237896233,31.997687078900327,9.1723],[44.266612175396233,31.988775946087827,9.3046],[44.284434441021233,32.003912664837827,10.6381],[44.273448112896233,32.019354559369077,16.6483],[44.252696159771233,32.033941961712827,17.2854],[44.220225456646233,32.047919012494077,14.2447]]]}}