{"type":"Feature","properties":{"GID_2":"IRQ.7.2_1","GID_0":"IRQ","country":"Iraq","GID_1":"IRQ.7_1","province":"As-Sulaymaniyah","NL_NAME_1":"NA","county":"Darbandokeh","VARNAME_2":"NA","NL_NAME_2":"NA","TYPE_2":"Kaza","ENGTYPE_2":"District","CC_2":"NA","HASC_2":"NA","name":"Darbandokeh.county"},
"geometry":{"type": "MultiPolygon","coordinates": [[[[45.6307,35.338,561.4019],[45.6071,35.3286,599.8612],[45.5919,35.3244,637.1346],[45.5754,35.3168,682.888],[45.5595,35.3084,738.1671],[45.5336,35.2888,1216.4625],[45.5122,35.2838,914.8697],[45.5067,35.278,835.7771],[45.5002,35.2658,705.0433],[45.4931,35.2419,1319.9348],[45.4935,35.2352,1156.3402],[45.5041,35.2176,816.2491],[45.5054,35.2081,715.6139],[45.4997,35.1889,692.243],[45.4964,35.1633,836.2654],[45.4925,35.1535,1422.2029],[45.4926,35.1382,1583.2595],[45.5053,35.1099,948.5945],[45.5245,35.0885,853.1954],[45.5283,35.0823,897.5602],[45.5301,35.0733,993.0966],[45.531,35.0401,906.7008],[45.5392,35.0228,745.0804],[45.5442,35.0166,685.1356],[45.5621,35.007,584.0338],[45.6006,35.0439,652.4557],[45.6261,35.071,479.594],[45.6391,35.0817,638.5554],[45.647,35.0854,962.4218],[45.668,35.0876,532.7598],[45.679,35.0843,437.1684],[45.6901,35.0786,389.3542],[45.7043,35.0842,435.2904],[45.734,35.0865,1216.5818],[45.7407,35.0886,1090.6582],[45.7438,35.0919,954.3723],[45.7457,35.0985,831.6928],[45.7468,35.1332,457.5],[45.7525,35.1441,457.5],[45.7586,35.1489,457.5],[45.7748,35.1565,468.9203],[45.7976,35.1602,457.5],[45.8179,35.167,524.5508],[45.8224,35.1698,487.6322],[45.8244,35.1744,513.7064],[45.8164,35.2011,457.5],[45.8088,35.2101,593.3889],[45.7959,35.2181,599.7861],[45.7905,35.2237,688.3282],[45.7771,35.2577,622.3461],[45.767,35.2744,553.0104],[45.7619,35.277,559.9875],[45.7435,35.2802,567.5527],[45.6922,35.2973,581.8834],[45.6594,35.3142,568.696],[45.6356,35.3316,569.7773],[45.6307,35.338,561.4019]]]]}}