{"type":"Feature","properties":{"GID_2":"IRQ.2.5_1","GID_0":"IRQ","country":"Iraq","GID_1":"IRQ.2_1","province":"Al-Basrah","NL_NAME_1":"NA","county":"AlZubair","VARNAME_2":"NA","NL_NAME_2":"NA","TYPE_2":"Kaza","ENGTYPE_2":"District","CC_2":"NA","HASC_2":"NA","name":"Al_Zubair.county"},
"geometry":{"type": "MultiPolygon","coordinates": [[[[47.7213,30.412,5.6488],[47.7065,30.4213,3.1669],[47.6759,30.4367,8.8777],[47.6438,30.4473,10.9778],[47.5161,30.4479,7.0234],[47.4991,30.4505,10.7994],[47.4746,30.479,10.2202],[47.465,30.4864,12.1172],[47.4432,30.4982,14.8772],[47.4265,30.5188,11.0765],[47.4078,30.5335,12.082],[47.3801,30.588,8.749],[47.3685,30.6071,6.2098],[47.3637,30.6112,5.532],[47.3621,30.6119,5.532],[47.3385,30.6022,4.4314],[47.309,30.5927,2.8783],[47.2953,30.5927,3.5225],[47.267,30.6021,4.9936],[47.258,30.6094,2.9486],[47.2503,30.6202,2.2143],[47.2396,30.6279,2.2245],[47.2344,30.6337,2.376],[47.2313,30.6413,2.2342],[47.2298,30.6597,0.6532],[47.2266,30.6684,0.7316],[47.196,30.6872,1.5],[47.1866,30.6967,1.7083],[47.1785,30.7079,1.681],[47.172,30.7121,1.6285],[47.1645,30.7207,0.5],[47.1526,30.7269,0.5],[47.1385,30.7316,0.75],[47.1146,30.732,1.839],[47.1173,30.7208,3.4212],[47.1327,30.6786,15.1043],[47.1366,30.655,18.54],[47.136,30.6459,20.0405],[47.133,30.6363,21.9119],[47.129,30.6307,23.4666],[47.1234,30.6267,23.9915],[47.1142,30.6238,24.4931],[47.1039,30.6231,25.0211],[47.0842,30.6251,23.3246],[46.9489,30.6479,10.9203],[46.9069,30.6502,10.996],[46.8835,30.6465,14.581],[46.8186,30.6251,19.7429],[46.6899,30.5931,13.9692],[46.6121,30.5779,19.177],[46.585,30.5741,22.4354],[46.5629,30.5731,27.1475],[46.5429,30.5611,26.7854],[46.5478,30.5421,34.0202],[46.5607,30.4642,52.4617],[46.5828,30.3498,71.3641],[46.6143,30.238,96.3448],[46.6274,30.1786,102.7798],[46.6577,30.0662,111.334],[46.6605,30.0498,124.4283],[46.6649,29.9964,138.5265],[46.6646,29.9287,155.6211],[46.6523,29.7726,193.0187],[46.6295,29.5951,233.8481],[46.6224,29.5188,247.3559],[46.6182,29.4487,256.2696],[46.6102,29.3928,267.7799],[46.595,29.3122,266.035],[46.592,29.2816,270.5417],[46.5906,29.2366,266.3967],[46.592,29.2136,256.2467],[46.5954,29.1992,247.9424],[46.6006,29.1871,238.8978],[46.6066,29.178,226.3985],[46.6156,29.1686,214.929],[46.625,29.1664,212.6929],[46.6465,29.1842,209.5625],[46.6574,29.1909,209.059],[46.6904,29.2303,202.3287],[46.8278,29.4336,180.2038],[46.8589,29.4758,174.6095],[46.9181,29.55,152.7615],[46.93,29.5594,150.7971],[46.9403,29.5717,148.8815],[46.9814,29.6461,137.4357],[47.0478,29.7942,118.4197],[47.0967,29.9122,100.6819],[47.1136,29.9464,96.5861],[47.1289,29.9747,94.5245],[47.1419,29.9911,93.5735],[47.17,30.0153,86.524],[47.2094,30.0356,80.9557],[47.3511,30.0817,65.4501],[47.3967,30.0828,64.1379],[47.7314,30.0839,10.5495],[47.8389,30.0489,16.0143],[47.8878,30.0348,16.5803],[47.9202,30.0287,8.1064],[47.9171,30.0456,9.6182],[47.906,30.0779,3.1593],[47.8881,30.108,3.2228],[47.8738,30.1254,3.0961],[47.8698,30.1329,3.1688],[47.8684,30.1373,2.8782],[47.8686,30.1764,2.6646],[47.855,30.187,2.7201],[47.8403,30.2078,3.0695],[47.8288,30.2203,2.7303],[47.8085,30.24,5.4019],[47.7942,30.2504,4.4816],[47.789,30.2567,3.1131],[47.7751,30.2851,7.7164],[47.7705,30.3072,6.8941],[47.7434,30.3412,7.2284],[47.7388,30.3716,4.3689],[47.7213,30.412,5.6488]]]]}}