{"type":"Feature","properties":{"GID_2":"IRQ.17.6_1","GID_0":"IRQ","country":"Iraq","GID_1":"IRQ.17_1","province":"Salaad-Din","NL_NAME_1":"NA","county":"Samarra","VARNAME_2":"NA","NL_NAME_2":"NA","TYPE_2":"Kaza","ENGTYPE_2":"District","CC_2":"NA","HASC_2":"NA","name":"Samarra.county"},
"geometry":{"type": "MultiPolygon","coordinates": [[[[43.2698,33.8408,44.0],[43.2761,33.8461,44.0],[43.2844,33.8499,44.0],[43.3132,33.8537,44.0],[43.3266,33.8589,44.0],[43.3362,33.8605,44.0],[43.4702,33.8605,44.0],[43.4802,33.8597,44.0],[43.4944,33.8544,44.5523],[43.504,33.8527,46.7735],[43.5501,33.8524,53.3539],[43.5648,33.8543,59.5194],[43.5787,33.8595,70.4921],[43.6164,33.8612,74.0706],[43.6348,33.8673,70.5196],[43.6571,33.8692,65.791],[43.6646,33.8725,64.7831],[43.6862,33.8905,64.4031],[43.7281,33.912,66.9974],[43.7336,33.9176,66.462],[43.744,33.9336,61.8803],[43.7503,33.9381,63.2031],[43.7576,33.9398,62.4773],[43.7921,33.9392,61.5803],[43.8063,33.9339,59.5],[43.8156,33.9322,58.6398],[43.8753,33.9315,57.0587],[43.9027,33.924,55.8501],[43.9209,33.9235,55.2136],[43.9327,33.9255,59.1716],[43.9394,33.9298,52.8267],[43.9479,33.9383,55.5606],[43.958,33.9571,53.0171],[43.9594,33.9637,53.131],[43.9554,33.9797,52.8785],[43.9575,33.9862,52.2751],[43.9627,33.9917,54.5804],[43.9853,34.0036,54.2219],[43.9913,34.0088,54.9631],[43.9936,34.0204,55.1626],[43.9934,34.0665,54.3287],[43.9957,34.078,49.7647],[44.0019,34.0827,57.2208],[44.0383,34.0951,53.9958],[44.0456,34.1032,53.3501],[44.0385,34.1108,53.5502],[44.0307,34.1132,53.8021],[44.0102,34.1158,57.1442],[43.9983,34.1234,57.6175],[43.9877,34.1438,58.825],[43.9848,34.1619,59.7875],[43.9817,34.1711,61.2299],[43.9683,34.1985,64.9383],[43.9616,34.2064,64.3632],[43.9411,34.2169,67.7638],[43.9227,34.2203,72.0206],[43.916,34.2245,72.2974],[43.9072,34.2393,73.0956],[43.9001,34.2558,73.9786],[43.8977,34.2866,74.0912],[43.8956,34.293,75.1568],[43.8925,34.2963,75.8766],[43.8747,34.3038,74.809],[43.8631,34.3151,79.7215],[43.8592,34.3239,80.2973],[43.8485,34.3739,85.2752],[43.8409,34.39,85.6843],[43.8235,34.411,88.6021],[43.8138,34.4264,89.6713],[43.791,34.4514,91.6389],[43.7708,34.4826,76.7324],[43.7638,34.4822,78.261],[43.7597,34.4804,83.0465],[43.757,34.477,79.8227],[43.7291,34.4234,79.5298],[43.7094,34.3966,97.7263],[43.694,34.3886,111.0057],[43.6699,34.3809,121.438],[43.6475,34.377,111.2005],[43.6218,34.3651,102.6978],[43.5921,34.3608,99.0199],[43.5886,34.3578,98.6212],[43.5722,34.3295,103.2125],[43.566,34.3245,102.884],[43.5463,34.3159,103.5563],[43.539,34.3161,105.6459],[43.5323,34.319,103.9776],[43.5266,34.3245,105.7079],[43.5188,34.3377,104.7575],[43.5099,34.3451,107.7829],[43.4841,34.3484,113.4998],[43.4652,34.3545,117.3843],[43.4125,34.3561,120.3267],[43.3981,34.3614,123.0083],[43.3884,34.3631,123.8312],[43.3005,34.3642,129.0902],[43.2657,34.3786,92.7248],[43.2365,34.3804,81.2458],[43.2223,34.3856,70.1933],[43.2124,34.3873,70.0505],[43.1489,34.3883,63.9951],[43.1105,34.4016,59.0767],[43.0882,34.4057,60.7259],[43.0739,34.4109,53.1975],[43.0001,34.4122,79.0264],[42.9887,34.4137,85.7706],[42.9718,34.4196,92.8983],[42.9315,34.4198,109.401],[42.928,34.3859,115.5808],[42.9266,34.2891,108.6607],[42.9295,34.2751,113.5384],[42.9374,34.2607,107.377],[42.9625,34.2288,97.4315],[42.9717,34.2108,80.7274],[42.9757,34.1988,85.7207],[42.9819,34.1677,80.0128],[42.9885,34.1178,77.1592],[42.991,34.1064,78.4935],[42.9953,34.097,70.1699],[43.006,34.0861,68.4102],[43.0244,34.0741,69.2177],[43.0325,34.0667,55.1462],[43.0625,34.0246,51.5472],[43.0847,34.0033,44.0],[43.1157,33.9782,44.0],[43.1516,33.9441,44.0],[43.1971,33.905,44.0],[43.2431,33.8615,44.0],[43.2698,33.8408,44.0]]]]}}