{"type":"Feature","properties":{"GID_1":"IRQ.1_1","GID_0":"IRQ","country":"Iraq","province":"Al-Anbar","VARNAME_1":"Dulaim|Ramadi","NL_NAME_1":"NA","TYPE_1":"Muhafazah","ENGTYPE_1":"Province","CC_1":"NA","HASC_1":"IQ.AN","ISO_1":"NA","name":"Al-Anbar.province"},
"geometry":{"type": "MultiPolygon","coordinates": [[[[43.4525,32.5804,60.3671],[43.4548,32.5838,59.3602],[43.4712,32.5858,55.4065],[43.4929,32.5912,51.4359],[43.5192,32.6013,31.8384],[43.5898,32.6376,18.7813],[43.6521,32.6742,18.5],[43.6724,32.684,18.5],[43.6987,32.6922,20.041],[43.7507,32.7031,26.9088],[43.78,32.7151,28.5563],[43.8164,32.7242,20.3581],[43.8684,32.7306,33.8331],[43.9225,32.7325,30.5705],[43.9351,32.7312,28.2245],[43.9702,32.7249,24.3837],[44.0663,32.6979,28.3436],[44.0895,32.694,29.3326],[44.0943,32.6947,30.6159],[44.0929,32.7024,34.7636],[44.0948,32.7287,32.4686],[44.1019,32.7691,31.5511],[44.1058,32.8049,35.6548],[44.1027,32.8703,32.3385],[44.0813,32.9002,43.7891],[44.0746,32.9124,41.3973],[44.0666,32.9332,34.3804],[44.0613,32.964,37.1098],[44.0582,33.0389,52.6586],[44.0522,33.0627,41.916],[44.0446,33.0788,47.0303],[44.0379,33.0892,52.724],[44.029,33.0988,53.266],[44.0208,33.1048,52.0679],[44.0103,33.1096,46.2672],[43.9571,33.1215,49.7591],[43.8928,33.1483,45.0258],[43.8625,33.1539,56.2317],[43.852,33.1566,61.9026],[43.8426,33.161,53.7562],[43.8369,33.1659,55.5528],[43.8328,33.1722,54.8576],[43.8304,33.1796,46.4308],[43.83,33.1903,42.5008],[43.8324,33.2003,39.6413],[43.8358,33.2057,39.8615],[43.8727,33.2055,40.4386],[43.9016,33.2027,41.2629],[43.9719,33.1835,37.8962],[43.9999,33.179,38.1697],[44.0311,33.1788,37.7667],[44.0758,33.1826,35.2583],[44.0996,33.1797,35.7313],[44.1449,33.1669,34.7816],[44.1628,33.1593,34.9724],[44.1987,33.1397,32.0],[44.2131,33.1343,32.0232],[44.2232,33.1334,32.1432],[44.231,33.1405,33.5251],[44.2608,33.155,29.8403],[44.2735,33.1678,29.5749],[44.2802,33.1814,30.7636],[44.2873,33.1892,30.3057],[44.2711,33.2047,31.0303],[44.2473,33.2152,32.0239],[44.2386,33.222,31.6063],[44.2303,33.2353,33.0282],[44.2235,33.2531,32.3062],[44.2232,33.2864,32.1459],[44.2241,33.295,32.8092],[44.2284,33.308,33.8241],[44.2365,33.32,34.8534],[44.2471,33.3306,32.6917],[44.2735,33.3476,36.1846],[44.2791,33.3561,34.5039],[44.2803,33.361,36.0843],[44.2793,33.3691,34.4376],[44.2745,33.3811,33.2375],[44.2577,33.4096,32.839],[44.2518,33.4247,33.1772],[44.2219,33.4192,31.28],[44.1995,33.4111,31.0928],[44.1927,33.4114,30.9815],[44.1803,33.4174,31.2364],[44.1466,33.4401,32.1337],[44.1121,33.4607,32.9257],[44.1022,33.4789,32.3505],[44.0795,33.5142,31.9072],[44.0648,33.5434,32.4348],[44.0263,33.6045,35.0312],[44.0071,33.6214,34.3344],[43.9876,33.6327,38.4514],[43.9702,33.6401,39.6539],[43.9453,33.6451,39.2341],[43.9169,33.6447,38.7929],[43.8399,33.6378,53.0487],[43.8158,33.6378,52.9714],[43.7734,33.6433,56.2589],[43.7169,33.6567,56.1537],[43.6966,33.6695,63.4876],[43.6627,33.6858,61.9416],[43.6264,33.7011,64.518],[43.6008,33.7085,63.1065],[43.5673,33.7122,70.0491],[43.4476,33.7131,44.0],[43.4312,33.715,44.0],[43.4157,33.7192,44.0],[43.3914,33.7339,44.0],[43.3681,33.7526,44.0],[43.3045,33.8079,44.0],[43.2698,33.8408,44.0],[43.2431,33.8615,44.0],[43.1971,33.905,44.0],[43.1516,33.9441,44.0],[43.1157,33.9782,44.0],[43.0847,34.0033,44.0],[43.0625,34.0246,51.5472],[43.0325,34.0667,55.1462],[43.0244,34.0741,69.2177],[43.006,34.0861,68.4102],[42.9953,34.097,70.1699],[42.991,34.1064,78.4935],[42.9885,34.1178,77.1592],[42.9819,34.1677,80.0128],[42.9757,34.1988,85.7207],[42.9717,34.2108,80.7274],[42.9625,34.2288,97.4315],[42.9374,34.2607,107.377],[42.9295,34.2751,113.5384],[42.9266,34.2891,108.6607],[42.928,34.3859,115.5808],[42.9315,34.4198,109.401],[42.9315,34.4373,111.5925],[42.9293,34.4498,106.8754],[42.9258,34.4577,108.2837],[42.9208,34.4635,112.788],[42.9118,34.4671,117.2771],[42.9019,34.4666,118.5368],[42.8927,34.463,124.0132],[42.877,34.4543,125.1166],[42.8106,34.4095,154.5547],[42.7802,34.392,164.3113],[42.7575,34.3879,172.738],[42.7077,34.3881,192.6001],[42.6728,34.4104,217.4165],[42.5631,34.4699,233.1107],[42.4923,34.5061,241.8441],[42.4813,34.5139,241.8173],[42.469,34.5272,240.5754],[42.4641,34.5375,242.0886],[42.4612,34.5504,241.5604],[42.4596,34.5784,246.0202],[42.4612,34.9151,243.942],[42.4296,34.9152,241.8518],[42.4038,34.9132,252.0058],[42.304,34.8932,265.5035],[42.2621,34.8867,265.5922],[42.2214,34.8915,269.1872],[42.2113,34.9,267.916],[42.1921,34.9109,269.6341],[42.1682,34.9202,270.364],[42.155,34.9221,271.4408],[42.1235,34.9213,280.2953],[42.0168,34.9095,325.835],[41.9912,34.909,332.9064],[41.9734,34.9112,332.6031],[41.9337,34.9209,343.86],[41.8618,34.9439,330.476],[41.8242,34.9582,314.064],[41.7976,34.9713,302.733],[41.7395,34.9924,286.2667],[41.6756,35.0065,274.5239],[41.582,35.0307,229.8861],[41.5502,35.0352,223.2318],[41.4954,35.0352,196.829],[41.4634,35.042,189.6629],[41.4464,35.0476,184.6847],[41.4234,35.0578,187.7027],[41.3577,35.095,210.6686],[41.336,35.1041,201.5039],[41.3083,35.1077,195.0295],[41.2783,35.1063,185.5785],[41.2204,35.0929,162.9891],[41.2297,34.9378,186.1703],[41.2296,34.8601,180.9276],[41.2378,34.785,156.9425],[41.2345,34.7772,156.7882],[41.1395,34.6641,169.8783],[41.033,34.4521,218.3192],[41.0271,34.4467,219.0787],[41.0192,34.4427,221.2535],[41.0172,34.4395,226.1229],[41.0124,34.4199,167.4556],[40.6037,34.2368,347.0611],[40.0321,33.968,493.9687],[39.472,33.7003,678.9487],[38.7968,33.3682,714.4872],[38.818,33.3057,718.2685],[38.8288,33.2582,731.6034],[38.9938,32.7753,789.35],[39.0379,32.6409,820.644],[39.0535,32.582,845.1951],[39.0577,32.5437,870.472],[39.0522,32.5127,878.4331],[39.0163,32.4598,882.2109],[39.0094,32.4342,893.124],[39.0098,32.4132,887.7544],[39.0153,32.3877,879.1293],[39.0255,32.3616,886.2585],[39.0395,32.3404,892.1409],[39.0566,32.3275,896.6174],[39.0815,32.3208,897.9622],[39.104,32.3203,900.944],[39.1989,32.3281,913.5234],[39.2233,32.3259,918.1286],[39.2414,32.3203,922.8176],[39.2637,32.3044,920.8544],[39.2891,32.2708,915.2279],[39.3009,32.2371,923.1357],[39.3021,32.2213,926.8484],[39.2124,32.1524,939.6992],[39.797,32.0545,825.6208],[40.4133,31.9481,687.0048],[40.9149,31.6694,631.8135],[41.4407,31.3732,422.4427],[42.0856,31.1117,346.365],[42.806,30.6016,355.0799],[42.8418,30.69,341.3239],[42.8596,30.7428,330.8874],[42.8617,30.7573,330.5425],[42.8638,30.818,321.5688],[42.8685,30.8469,327.2818],[42.8743,30.8598,323.7291],[42.8878,30.8808,313.2645],[42.9425,30.9531,319.4369],[42.9606,30.9801,331.9313],[43.0466,31.1486,296.3209],[43.0564,31.1718,282.67],[43.0619,31.1946,285.5591],[43.0629,31.2604,316.4812],[43.0681,31.2821,298.3035],[43.0893,31.323,279.3624],[43.1613,31.4428,264.076],[43.182,31.4812,263.9073],[43.1919,31.5072,279.9864],[43.2036,31.5615,299.0261],[43.2099,31.5782,283.9289],[43.2265,31.6059,268.9424],[43.3543,31.7692,230.5516],[43.3861,31.8052,224.2558],[43.425,31.8377,215.5726],[43.4461,31.8511,213.8528],[43.4622,31.8589,209.8232],[43.5685,31.8989,178.4021],[43.6224,31.9227,169.4404],[43.6935,31.9511,140.5888],[43.7184,31.9646,130.4215],[43.7298,31.9738,125.056],[43.7379,31.9868,124.4593],[43.7403,31.9973,113.2815],[43.7395,32.0076,113.2478],[43.7312,32.0242,129.004],[43.7236,32.0328,128.2028],[43.6614,32.0888,147.4933],[43.6442,32.0983,157.5569],[43.6215,32.1208,119.2717],[43.6063,32.1319,118.6867],[43.5638,32.1688,121.4282],[43.3873,32.3103,135.2995],[43.3461,32.3479,139.287],[43.2898,32.395,143.5086],[43.1904,32.4745,152.8311],[43.1721,32.4916,153.7976],[43.163,32.505,149.5254],[43.1611,32.5124,151.5369],[43.1622,32.5179,147.07],[43.1654,32.5228,144.9348],[43.1786,32.5308,139.7584],[43.2385,32.5469,130.3354],[43.2918,32.5578,112.8303],[43.4249,32.5724,66.9517],[43.4447,32.5771,59.9257],[43.4525,32.5804,60.3671]]]]}}