{"type":"Feature","properties":{"ISO3166-1-Alpha-3":"IRQ","country":"Iraq","fill":"#F00","id":"3471","name":"Al-Anbar"},
"geometry":{"type": "Polygon","coordinates": [[[42.04935,34.96084,300.4206],[41.98424,34.96427,324.3093],[41.85215,35.00678,292.8279],[41.57837,35.09985,231.8144],[41.51119,35.10866,229.1211],[41.34221,35.1485,185.4528],[41.21374,35.1584,151.4037],[41.19233,35.1589,151.2897],[41.19803,34.99404,160.8894],[41.20651,34.81932,159.3381],[41.20423,34.79312,156.0135],[41.19566,34.76847,155.8289],[41.02399,34.49433,191.7214],[41.02399,34.49417,191.7214],[40.98802,34.42852,166.0714],[40.96528,34.40185,175.8788],[40.93603,34.38607,188.7503],[40.69047,34.3315,251.7798],[40.54381,34.25799,354.7406],[40.43322,34.20254,366.3954],[40.32263,34.14717,402.1954],[40.21205,34.0918,412.7862],[40.17311,34.07228,423.5357],[40.10146,34.03637,444.9038],[39.99087,33.98098,491.9451],[39.88039,33.9256,547.9327],[39.7697,33.87023,606.072],[39.65921,33.81481,643.5596],[39.54862,33.75949,658.8972],[39.43804,33.70409,675.3207],[39.32745,33.64872,679.1929],[39.21686,33.59333,683.376],[39.10627,33.53793,699.0386],[38.99569,33.48248,706.142],[38.8851,33.42711,707.4954],[38.77451,33.37169,720.0502],[38.82102,33.22903,737.8492],[38.86257,33.10072,760.7475],[38.89719,32.99434,768.0695],[38.94277,32.85234,782.9213],[38.99,32.70558,806.1357],[39.05718,32.4966,884.4021],[38.97998,32.47605,877.9592],[38.97863,32.47569,879.3289],[38.97822,32.47497,881.6394],[38.97863,32.47373,883.6904],[38.97998,32.4721,881.2271],[39.02876,32.32834,895.0342],[39.0362,32.31335,895.6879],[39.04633,32.30849,900.7419],[39.23578,32.35286,914.9807],[39.25634,32.34268,914.7056],[39.27112,32.31196,916.2413],[39.292,32.24452,927.9573],[39.26647,32.21287,925.8649],[39.14617,32.12584,925.7543],[39.14637,32.11814,924.0361],[39.14927,32.11892,926.6479],[39.15216,32.11975,926.9195],[39.15495,32.12057,924.3128],[39.15774,32.12135,926.4946],[39.35556,32.09256,894.0453],[39.55328,32.06373,889.7437],[39.75099,32.03489,840.1941],[39.9486,32.00611,805.9963],[40.0288,31.99448,769.4788],[40.02901,31.99448,769.4788],[40.02911,31.99443,769.4788],[40.02932,31.99438,769.4788],[40.37028,31.93847,711.8192],[40.42413,31.92053,714.3631],[40.47983,31.89283,697.7126],[40.58267,31.84043,700.17],[40.67031,31.79568,689.6876],[40.75816,31.75109,664.9185],[40.84591,31.70633,658.1564],[40.93355,31.66163,648.795],[41.0213,31.61693,617.39],[41.10905,31.57229,558.827],[41.19669,31.52759,540.7882],[41.28454,31.48283,512.9898],[41.37218,31.43813,465.4842],[41.45983,31.39343,422.9636],[41.54757,31.34873,450.9099],[41.63542,31.30403,398.135],[41.72307,31.25939,410.6803],[41.81071,31.21468,375.2403],[41.89856,31.16998,355.8447],[41.9862,31.12528,367.0575],[42.0754,31.07986,349.0479],[42.14164,31.03041,361.0904],[42.22629,30.96746,344.2032],[42.31073,30.90452,361.0024],[42.39517,30.84158,346.1988],[42.47971,30.77864,353.1291],[42.57449,30.70764,349.8922],[42.66916,30.63668,366.3367],[42.76393,30.56563,367.9787],[42.78341,30.55105,366.3093],[42.79091,30.56121,369.795],[42.81685,30.61488,350.2754],[42.88175,30.71918,324.7658],[42.91152,30.78091,350.5818],[42.92423,30.81595,330.1884],[42.93653,30.90416,309.3839],[42.93994,30.914,310.1166],[42.94749,30.92902,326.8607],[42.9818,30.97963,332.1479],[43.03813,31.04803,316.9947],[43.04547,31.06177,297.8466],[43.05208,31.08278,299.0599],[43.0589,31.13174,319.9606],[43.06221,31.14425,318.8072],[43.10159,31.23331,285.2198],[43.10582,31.25473,277.423],[43.105,31.26954,275.438],[43.10128,31.27667,283.486],[43.09942,31.28525,283.042],[43.09942,31.2984,276.0482],[43.10221,31.31566,273.3541],[43.11151,31.33987,272.3356],[43.21765,31.53461,274.1873],[43.23243,31.57159,286.963],[43.23801,31.5996,285.5403],[43.23925,31.63153,264.3447],[43.25352,31.65352,258.1164],[43.40916,31.8503,214.9818],[43.438,31.877,209.8062],[43.4565,31.88904,199.6867],[43.47273,31.89557,198.9412],[43.4936,31.89715,188.6549],[43.50136,31.89873,188.9878],[43.53112,31.91544,180.8148],[43.5429,31.91971,176.6181],[43.60667,31.92821,169.9253],[43.6228,31.93324,167.4688],[43.63613,31.94032,159.8168],[43.66166,31.95782,152.336],[43.75467,32.00172,114.6062],[43.77183,32.01564,102.4849],[43.7895,32.03376,106.9458],[43.79477,32.0637,99.8124],[43.79581,32.08342,105.2931],[43.69059,32.16845,129.5514],[43.64233,32.20344,93.8499],[43.47738,32.30823,117.2374],[43.24184,32.51013,132.659],[43.21765,32.5407,140.2849],[43.21073,32.57098,133.1954],[43.26395,32.59478,114.4826],[43.31088,32.60984,85.8801],[43.43335,32.62447,56.2712],[43.45464,32.627,46.2199],[43.4656,32.62964,38.8455],[43.49267,32.64465,24.2725],[43.67974,32.78415,27.5272],[43.75901,32.81681,49.7737],[43.84366,32.82572,30.3563],[43.95818,32.8258,46.5586],[44.12964,32.78115,29.0064],[44.1409,32.87631,37.3333],[44.09729,32.90192,40.3899],[44.0699,32.92822,37.6385],[44.0575,32.95515,34.9356],[44.03972,33.03005,57.0112],[44.01574,33.0894,55.0067],[43.98525,33.11508,40.1872],[43.888,33.15627,44.0517],[43.8387,33.16658,53.0769],[43.82537,33.18061,50.5518],[43.82035,33.2017,38.8299],[43.8542,33.20557,42.2504],[43.89957,33.20056,41.542],[43.98815,33.18089,39.3665],[44.08323,33.18038,35.3374],[44.10731,33.17754,34.3291],[44.13222,33.17123,34.0365],[44.1962,33.1395,33.5],[44.21811,33.13384,31.5],[44.23919,33.13891,32.3583],[44.25738,33.15397,30.2162],[44.28725,33.18916,30.3057],[44.27557,33.19978,31.0961],[44.2488,33.21389,32.433],[44.23712,33.22361,32.1683],[44.2272,33.24084,33.2644],[44.22245,33.26117,32.1945],[44.22224,33.28218,32.1812],[44.22627,33.30143,33.1224],[44.23816,33.32107,34.5473],[44.26978,33.34954,34.57],[44.27929,33.36902,34.4376],[44.27919,33.37414,34.2788],[44.27785,33.37857,33.9174],[44.27485,33.37789,33.1237],[44.24477,33.43333,32.851],[44.17108,33.43703,32.2056],[44.13718,33.45674,31.5592],[44.09998,33.46599,32.422],[44.13346,33.48785,31.2537],[44.12354,33.49705,31.3346],[44.10163,33.52868,32.1107],[44.07031,33.59415,32.9068],[44.05192,33.62273,33.1198],[44.03631,33.63699,36.068],[44.00148,33.6635,37.1145],[43.9712,33.67107,38.8407],[43.80346,33.66758,55.0021],[43.71282,33.69267,60.5109],[43.58993,33.73383,68.2534],[43.48255,33.74884,44.0],[43.42963,33.76533,44.0],[43.29217,33.86535,44.0],[43.13187,33.9995,44.0],[43.06324,34.07559,46.3017],[43.01084,34.181399999999996,69.4189],[43.00092,34.23419,69.5889],[42.98573,34.28765,76.805],[42.9602,34.31824,95.3859],[42.95235,34.34811,98.6028],[42.94769,34.41028,104.6233],[42.92878,34.49588,112.8173],[42.8092,34.4394,161.9864],[42.77727,34.44304,176.1877],[42.73386,34.46345,180.0343],[42.53976,34.5953,239.2908],[42.49987,34.74008,223.6847],[42.49842,34.95867,234.4482],[42.49129,34.97272,241.5044],[42.27332,34.94844,251.9551],[42.24303,34.95918,252.652],[42.208,34.97278,261.2788],[42.18991,34.97593,264.9063],[42.04935,34.96084,300.4206]]]}}