{"type":"Feature","properties":{"featurecla":"Alkaline Lake","scalerank":3,"name":"Lake Razazah","name_abb":"L. Razazah","name_alt":"Lake Milh","note":null,"delta":null,"dam_name":null,"year":-99,"admin":null,"min_zoom":3.0,"min_label":4.0},
"geometry":{"type": "Polygon","coordinates": [[[43.826259897811838,32.724573791299747,26.3141],[43.819489522887807,32.727517432571062,28.8475],[43.795646028590141,32.74488491607184,37.7964],[43.763265974605645,32.749300377978813,33.7254],[43.7544350507917,32.752244019250128,26.0763],[43.732063377129691,32.775498785293536,22.2412],[43.666125812652211,32.890006430747746,47.8502],[43.648169600897177,32.933572321563219,31.9827],[43.644637231371604,32.947407435538423,37.8211],[43.63757249232043,32.95888763649657,45.3612],[43.624031742472368,32.972722750471746,38.2119],[43.616083911039823,32.990090233972523,31.0313],[43.624620470726626,33.012461907634531,32.2802],[43.609902264370049,33.019821010812819,30.6939],[43.571046199588665,33.030123755262423,28.6454],[43.555444900850688,33.039837771457769,31.075],[43.541904151002626,33.056616526704261,29.7611],[43.535133776078624,33.073689646077895,32.409],[43.533367591315823,33.09252895021433,32.3401],[43.534839411951481,33.114900623876338,29.8574],[43.521593026230562,33.104597879426734,32.1427],[43.521298662103419,33.0866416676717,31.2294],[43.529246493535965,33.0466081463818,34.7327],[43.526008488137535,33.033067396533738,36.5519],[43.517766292577846,33.021881559702734,31.1187],[43.504519906856927,33.018054826050019,25.7892],[43.486858059229007,33.026002657482564,30.0824],[43.479498956050719,33.016583005414361,31.2368],[43.457716010642969,32.997449337150812,31.2047],[43.453006184608881,32.985086043811265,29.971],[43.457716010642969,32.976843848251576,33.2614],[43.48303132557632,32.951822897445396,32.2041],[43.494511526534438,32.944169430139965,30.344],[43.490684792881723,32.936221598707419,30.5713],[43.488329879864665,32.929451223783389,29.4239],[43.48715242335615,32.922386484732215,29.9602],[43.486858059229007,32.912966832664011,31.6691],[43.483620053830577,32.909140099011296,30.3679],[43.469784939855373,32.909728827265553,34.5604],[43.466546934456943,32.906196457739981,34.9603],[43.46213147254997,32.897071169798892,31.9711],[43.455361097625939,32.889123338366346,30.7282],[43.455655461753054,32.883824784077973,31.8138],[43.472728581126688,32.8820585993152,30.2837],[43.472728581126688,32.875876952645427,30.0607],[43.461542744295684,32.877348773281085,28.5013],[43.451239999846081,32.881764235188058,27.4321],[43.439171070633677,32.888828974239232,38.8406],[43.429162690311216,32.887062789476431,34.1902],[43.41444448395464,32.8785262297896,31.1414],[43.405024831886408,32.875876952645427,30.1785],[43.405024831886408,32.868517849467139,42.0256],[43.41944867411587,32.862924931051623,40.1545],[43.425630320785643,32.850856001839247,39.8452],[43.432106331582531,32.842319442152416,31.9193],[43.446530173811993,32.8479123605679,29.8985],[43.449473815083309,32.8367265237369,31.7051],[43.44358653254065,32.825540686905896,37.1842],[43.4338725163453,32.81347175769352,27.7739],[43.425630320785643,32.799636643718316,29.2346],[43.421509223005785,32.802874649116774,30.843],[43.418271217607327,32.804346469752431,31.5914],[43.4150332122089,32.805229562133832,31.6312],[43.411500842683324,32.806995746896604,32.2612],[43.430928875073988,32.769022774496619,30.7095],[43.434755608726704,32.752832747504385,34.8461],[43.425630320785643,32.74488491607184,33.07],[43.425630320785643,32.738114541147809,36.8453],[43.430045782692616,32.736937084639266,34.7256],[43.439171070633677,32.731344166223778,31.2439],[43.429162690311216,32.710444313197428,30.5231],[43.445058353176307,32.679241715721474,32.6932],[43.480676412559262,32.631849091253258,32.644],[43.498926988441411,32.612421058862594,34.9919],[43.537783053222796,32.595642303616074,30.2643],[43.573695476732865,32.590932477581958,29.0982],[43.583703857055326,32.607711232828478,30.5552],[43.59665587864913,32.605945048065678,24.085],[43.618438824056881,32.597114124251732,22.7773],[43.631096481523542,32.594759211234674,37.059],[43.623737378345254,32.5903437493277,38.1941],[43.619027552311138,32.585633923293585,30.8995],[43.611079720878593,32.574153722335467,30.1691],[43.629919025015,32.57768609186104,29.7251],[43.647580872642919,32.584750830912213,36.0261],[43.663770899635153,32.587988836310643,27.9785],[43.67937219837313,32.580629733132355,26.8714],[43.666420176779326,32.57768609186104,31.8281],[43.660827258363838,32.577980455988182,24.9463],[43.651996334549892,32.580629733132355,35.4565],[43.651701970422749,32.5503102280378,37.3095],[43.656411796456865,32.5382412988254,38.6106],[43.669069453923527,32.533237108664167,37.7336],[43.677017285356072,32.5408905759696,36.0163],[43.679077834245987,32.556197510580432,30.6724],[43.682315839644446,32.566500255030036,22.534],[43.693796040602592,32.560612972487405,29.713],[43.699977687272337,32.560612972487405,30.775],[43.702626964416538,32.564145342012978,29.1213],[43.706748062196368,32.566794619157179,28.5374],[43.708219882832026,32.561496064868805,29.8192],[43.712046616484741,32.551782048673459,31.354],[43.7135184371204,32.546189130257943,32.1722],[43.720877540298687,32.546189130257943,33.2102],[43.7255873663328,32.555608782326175,28.609],[43.727353551095604,32.560612972487405,27.6267],[43.734712654273892,32.560612972487405,28.0701],[43.737656295545207,32.545894766130829,30.7509],[43.745015398723496,32.53588638580834,30.9973],[43.748842132376211,32.526172369612993,32.4442],[43.740894300943637,32.51174852738356,33.9397],[43.749725224757611,32.51586962516339,32.0201],[43.757378692063014,32.517341445799048,31.1844],[43.763854702859931,32.514397804527732,30.0377],[43.768858893021161,32.505272516586643,32.159],[43.778867273343621,32.515280896909132,30.3137],[43.792702387318826,32.536180749935482,25.5212],[43.802122039387029,32.546189130257943,23.6252],[43.812424783836633,32.55266514105486,23.8495],[43.834207729244383,32.561496064868805,27.1129],[43.873358158152911,32.587988836310643,25.8271],[43.886310179746687,32.601823950285848,18.5],[43.8919030981622,32.618308341405225,19.968],[43.8919030981622,32.662462960474954,38.1357],[43.899556565467606,32.694548650332308,39.2362],[43.898084744831948,32.70396830240054,25.5905],[43.826259897811838,32.724573791299747,26.3141]]]}}