{"type":"Feature","properties":{"featurecla":"Reservoir","scalerank":3,"name":"Buhayrat ath Tharthar","name_abb":"Buhayrat ath Tharthar","name_alt":"Lake Tharthar","note":"Largest lake in Iraq","delta":null,"dam_name":null,"year":-99,"admin":null,"min_zoom":3.0,"min_label":4.0},
"geometry":{"type": "Polygon","coordinates": [[[43.2999368385004,33.722762546403231,44.0],[43.308767762314346,33.732476562598578,44.0],[43.322897240416665,33.720407633386174,44.0],[43.344974549951559,33.714225986716428,44.0],[43.387362984258516,33.711282345445113,44.0],[43.407968473157723,33.706278155283854,44.0],[43.4244528642771,33.696858503215651,44.0],[43.441820347777877,33.693031769562936,44.0],[43.466546934456943,33.704511970521082,44.0],[43.480382048432119,33.721290725767574,44.0],[43.488918608118951,33.742484942921067,44.0],[43.493334070025924,33.762501703566016,44.0],[43.494511526534438,33.776631181668336,44.5783],[43.49127352113598,33.783695920719481,44.0],[43.484503146211978,33.788111382626482,44.0],[43.476849678906547,33.790760659770655,44.0],[43.472728581126688,33.793409936914827,44.0],[43.469490575728258,33.801652132474516,47.0284],[43.469784939855373,33.805773230254374,44.0],[43.471551124618173,33.80959996390709,44.0],[43.475083494143746,33.828733632170639,44.0],[43.478615863669319,33.836681463603185,44.0],[43.479498956050719,33.842568746145815,44.7316],[43.472728581126688,33.847867300434189,44.0],[43.479204591923605,33.848750392815589,44.0],[43.484503146211978,33.848750392815589,45.0715],[43.489212972246065,33.850222213451246,48.4001],[43.494511526534438,33.85552076773962,48.8499],[43.500398809077069,33.851988398214047,47.877],[43.504519906856927,33.850516577578389,47.1003],[43.514822651306531,33.847867300434189,47.2645],[43.505991727492585,33.857875680756678,49.7525],[43.48803551573755,33.867295332824881,44.0],[43.468313119219715,33.874360071876055,44.0],[43.453006184608881,33.875831892511712,44.0],[43.471551124618173,33.882013539181457,44.0],[43.48214823319492,33.883485359817143,44.0],[43.486858059229007,33.879658626164428,44.0],[43.489507336373208,33.876714984893113,44.0],[43.495394618915839,33.874948800130312,44.0],[43.50216499383987,33.874654436003169,44.0],[43.507463548128243,33.875831892511712,44.0],[43.508346640509643,33.879069897910142,44.4484],[43.506874819873985,33.905857033479123,45.2425],[43.503342450348384,33.924401973488443,44.0],[43.495394618915839,33.939414543972134,44.0],[43.480676412559262,33.937942723336477,47.3148],[43.477438407160804,33.951777837311681,55.3085],[43.4680187550926,33.9556045709644,64.703],[43.456244190007311,33.957370755727169,55.6696],[43.446530173811993,33.965318587159743,44.0],[43.443292168413535,33.976504423990747,44.0],[43.440937255396477,34.003585923686842,44.0],[43.439171070633677,34.012416847500788,48.6959],[43.433578152218189,34.018892858297704,51.107],[43.412383935064696,34.035965977671339,44.0],[43.405024831886408,34.039792711324054,46.5174],[43.394722087436804,34.036849070052739,44.0],[43.3844193429872,34.028901238620165,44.0],[43.375882783300369,34.019481586551962,57.219],[43.370878593139139,34.012416847500788,45.4622],[43.363519489960851,34.012416847500788,44.0],[43.362930761706593,34.029195602747308,45.9433],[43.357337843291077,34.041558896086826,44.0],[43.346446370587216,34.048034906883743,47.2797],[43.329373251213582,34.047151814502342,44.0],[43.332905620739155,34.0580432872062,44.0],[43.3305507077221,34.06864039578295,46.8767],[43.325546517560866,34.080414960868211,44.5405],[43.322602876289551,34.094838803097673,45.531],[43.314655044857005,34.0877740640465,44.0],[43.303469208026,34.07452767832558,44.0],[43.295227012466313,34.067462939274435,44.0],[43.29081155055934,34.078943140232553,44.315],[43.293460827703512,34.087185335792242,44.0],[43.296993197229085,34.094250074843416,47.2417],[43.295227012466313,34.101903542148818,44.0],[43.286396088652339,34.107496460564334,45.0075],[43.266379328007389,34.108085188818592,48.7852],[43.257548404193443,34.11220628659845,47.2082],[43.240475284819809,34.136638509150373,53.7902],[43.235176730531435,34.1398765145488,51.3269],[43.223107801319031,34.1416426993116,44.0],[43.219575431793459,34.143408884074404,44.0],[43.218397975284944,34.147235617727119,44.0],[43.218397975284944,34.155772177413922,44.0],[43.216631790522143,34.160187639320895,44.0],[43.196320665750051,34.179910035838731,44.0],[43.192788296224478,34.1807931282201,44.0],[43.191022111461677,34.182853677110046,44.0],[43.168944801926813,34.23907722539218,44.0],[43.161291334621382,34.247613785079011,44.0],[43.145101307629147,34.252617975240241,44.0],[43.156875872714409,34.282937480334795,44.0],[43.156287144460151,34.297066958437114,47.1355],[43.145101307629147,34.307958431141,44.0],[43.150105497790378,34.309135887649518,44.0],[43.150399861917521,34.310313344158061,44.0],[43.151871682553178,34.314140077810748,51.7806],[43.140685845722174,34.316494990827806,44.0],[43.133915470798144,34.324148458133237,44.0],[43.129205644764028,34.333273746074326,44.0],[43.123907090475683,34.341221577506872,44.0],[43.114781802534594,34.345931403540988,44.0],[43.111249433009021,34.336511751472756,47.3242],[43.112721253644679,34.320910452734779,46.6856],[43.117725443805909,34.307958431141,46.3764],[43.110071976500478,34.307958431141,44.0],[43.103007237449333,34.333862474328583,46.2069],[43.0962368625253,34.34445958290533,48.0995],[43.086522846329956,34.3488750448123,44.0],[43.076514466007467,34.342987762269672,45.266],[43.076220101880352,34.32944701242161,44.0],[43.082990476804355,34.304131697488288,46.0549],[43.080341199660182,34.2950064095472,44.3943],[43.074453917117552,34.288530398750311,48.2072],[43.058852618379575,34.27675583366505,45.3634],[43.051493515201287,34.2643925403255,46.9866],[43.051199151074144,34.253501067621642,44.0],[43.059441346633832,34.21817737236583,44.0],[43.075337009498952,34.176672030440272,44.0],[43.076220101880352,34.149590530744149,44.0],[43.064151172667948,34.104552819293019,44.0],[43.067683542193521,34.085419151029441,44.0],[43.089760851728386,34.075116406579838,44.0],[43.089760851728386,34.067462939274435,44.0],[43.079163743151668,34.054510917680631,44.0],[43.082990476804355,34.01182811924653,44.0],[43.069155362829179,33.999464825907012,44.0],[43.069155362829179,33.993283179237238,44.0],[43.072393368227637,33.992694450982981,44.0],[43.082990476804355,33.993283179237238,44.0],[43.076220101880352,33.978859337007805,45.5817],[43.088583395219871,33.972972054465146,44.0],[43.087111574584213,33.968262228431058,44.0],[43.080341199660182,33.962669310015542,45.6373],[43.076220101880352,33.954427114455854,46.5892],[43.078280650770267,33.946773647150451,45.7085],[43.087700302838471,33.935882174446562,44.0],[43.089760851728386,33.927345614759759,45.9659],[43.0962368625253,33.914982321420212,46.2016],[43.124790182857055,33.887312093469831,44.0],[43.136859112069459,33.86140805028225,44.0],[43.172182807325271,33.820491436610951,44.0],[43.2078008667082,33.794881757550485,44.0],[43.213099420996571,33.786345197863682,44.0],[43.202796676546967,33.783695920719481,44.0],[43.200736127657024,33.781635371829566,44.0],[43.203385404801224,33.778691730558251,44.0],[43.2069177743268,33.773393176269877,44.0],[43.209861415598112,33.771038263252819,44.0],[43.222519073064774,33.755436964514843,44.0],[43.222813437191917,33.751610230862156,44.0],[43.235176730531435,33.74778349720944,44.0],[43.24901184450664,33.727178008310204,44.0],[43.261080773719016,33.718347084496259,44.0],[43.264907507371731,33.722468182276117,44.0],[43.271383518168648,33.72776673656449,44.0],[43.274621523567077,33.732476562598578,44.0],[43.280803170236851,33.732476562598578,44.0],[43.284924268016681,33.723351274657489,44.0],[43.2914002788136,33.719818905131916,44.0],[43.2999368385004,33.722762546403231,44.0]]]}}