{"type":"Feature","properties":{"featurecla":"River","scalerank":3,"rivernum":62,"dissolve":"62River","name":"Euphrates4","name_alt":null,"note":null,"min_zoom":3.0,"strokeweig":0.8,"name_en":"Euphrates","min_label":4.0},
"geometry":{"type": "LineString","coordinates": [[45.463134765625,31.305194403119117,8.1761],[45.474511718750023,31.30744049686912,8.5896],[45.484619140625,31.302508856244117,9.6264],[45.4931640625,31.29645416874412,10.0187],[45.50341796875,31.293573309369116,9.983],[45.525634765625,31.29254791874412,7.783],[45.531982421875,31.28778717655662,8.2442],[45.531640625000023,31.276239324994116,9.9894],[45.529199218750023,31.262713934369117,7.7671],[45.529052734375,31.251581121869116,6.7583],[45.549560546875,31.21063873905662,8.6003],[45.566650390625,31.203241278119116,7.4601],[45.578320312500011,31.201288153119116,7.4405],[45.583740234375,31.206903387494116,7.9244],[45.59375,31.21381256718162,7.3062],[45.616796875,31.206170965619116,6.904],[45.66650390625,31.17890045780662,8.0811],[45.687402343750023,31.16217682499412,6.5724],[45.706445312500023,31.17340729374412,6.9901],[45.724707031250006,31.17792389530662,7.9741],[45.7431640625,31.176385809369116,5.161],[45.762451171875,31.16962311405662,7.2639],[45.766210937500006,31.166034246869117,7.1499],[45.778222656250023,31.157831121869116,6.8356],[45.790722656250011,31.152850653119117,7.137],[45.796630859375,31.158807684369116,6.9773],[45.80224609375,31.162372137494117,7.3397],[45.81494140625,31.161151434369117,6.8423],[45.86083984375,31.148309637494116,6.666],[45.87353515625,31.14313385624412,6.5253],[45.879003906250006,31.138299871869116,6.453],[45.883691406250023,31.130633856244117,6.5465],[45.89453125,31.128680731244117,6.2152],[45.907958984375,31.129022528119116,6.1072],[45.920166015625,31.128045965619116,6.403],[45.94384765625,31.12189362186912,5.1995],[45.974609375,31.121356512494117,6.3546],[45.985449218750006,31.11945221561912,6.239],[45.995849609375,31.114374090619116,5.9223],[46.0009765625,31.12201569218162,5.5483],[46.008544921875,31.125848699994116,5.9845],[46.029296875,31.128045965619116,5.0235],[46.04052734375,31.12628815311912,4.6909],[46.049560546875,31.121600653119117,5.9014],[46.05625,31.116717840619117,6.2748],[46.060302734375,31.114374090619116,6.2491],[46.086523437500006,31.090448309369116,5.3027],[46.09521484375,31.07623932499412,4.2057],[46.104394531250023,31.071893621869116,4.591],[46.168554687500006,31.055292059369116,3.3496],[46.251953125,31.044452215619117,10.9913],[46.283789062500006,31.025018621869116,3.7326],[46.302978515625,31.00324127811912,5.2294],[46.310449218750023,30.997088934369117,3.229],[46.363037109375,30.96539948124412,4.6671]]}}