{"type":"Feature","properties":{"featurecla":"River","scalerank":3,"rivernum":62,"dissolve":"62River","name":"Euphrates","name_alt":null,"note":null,"min_zoom":3.0,"strokeweig":0.8,"name_en":"Euphrates","min_label":4.0},
"geometry":{"type": "LineString","coordinates": [[44.769775390625,31.47882721561912,15.3041],[44.776562500000011,31.468133856244116,14.8113],[44.7861328125,31.463885809369117,14.6579],[44.789160156250006,31.463885809369117,14.493],[44.798730468750023,31.476825262494117,14.8381],[44.8154296875,31.48602936405662,14.4467],[44.834716796875,31.490985418744117,13.515],[44.851757812500011,31.49115631718162,13.4788],[44.864013671875,31.485858465619117,13.8187],[44.875244140625,31.47614166874412,13.1708],[44.892822265625,31.457049871869117,12.624],[44.90576171875,31.445672918744116,13.8776],[44.91953125,31.436542059369117,12.4297],[44.934960937500023,31.430682684369117,13.1999],[44.953027343750023,31.42914459843162,13.5671],[44.960839843750023,31.431659246869117,13.5428],[44.976757812500011,31.44147369999412,12.6123],[44.987890625,31.443377996869117,13.4572],[44.996972656250023,31.440936590619117,12.7698],[45.002685546875,31.436053778119117,9.4948],[45.007080078125,31.43121979374412,9.1936],[45.01171875,31.42914459843162,11.2652],[45.01953125,31.42706940311912,9.8394],[45.035742187500006,31.418085028119116,13.5921],[45.0458984375,31.41608307499412,12.3783],[45.0546875,31.41705963749412,12.5691],[45.07080078125,31.42133209843162,12.4706],[45.116113281250023,31.428094793744116,12.2922],[45.132519531250011,31.427997137494117,11.9807],[45.16552734375,31.411639715619117,8.1566],[45.1845703125,31.408319403119116,10.6369],[45.200292968750006,31.40180084843162,12.3451],[45.21044921875,31.37641022343162,11.0557],[45.23779296875,31.32733795780662,9.1555],[45.23486328125,31.326678778119117,11.2102],[45.249267578125,31.331805731244117,12.6692],[45.257421875,31.33356354374412,11.3537],[45.26904296875,31.333514715619117,12.1349],[45.301513671875,31.327508856244116,11.8054],[45.33642578125,31.32550690311912,10.3702],[45.409277343750006,31.309833074994117,9.4417],[45.440332031250023,31.29877350468162,9.2273],[45.451269531250006,31.300653387494116,8.5937],[45.466894531250006,31.305194403119117,8.5574]]}}