{"type":"Feature","properties":{"featurecla":"River","scalerank":7,"rivernum":620,"dissolve":"620River","name":"Shatt","name_alt":null,"note":null,"min_zoom":6.0,"strokeweig":0.25,"name_en":"Shatt al Hillah","min_label":7.0},
"geometry":{"type": "LineString","coordinates": [[44.268457031250023,32.731317449994116,26.0],[44.281005859375,32.71784088749412,32.7127],[44.31591796875,32.69391510624412,30.4585],[44.32958984375,32.663592840619117,33.9135],[44.341796875,32.65314362186912,32.7947],[44.34814453125,32.643182684369116,31.3036],[44.33740234375,32.62824127811912,30.0648],[44.34765625,32.622186590619116,30.298],[44.363037109375,32.605731512494117,32.2063],[44.370849609375,32.601581121869117,30.1127],[44.38125,32.60529205936912,30.1606],[44.392333984375,32.61237213749412,28.3383],[44.4013671875,32.61322662968162,29.332],[44.404882812500006,32.598163153119117,33.6677],[44.407617187500023,32.57880280155662,30.352],[44.43798828125,32.484637762494117,34.1538],[44.45859375,32.45209381718162,27.2576],[44.488671875000023,32.42743561405662,30.2723],[44.529052734375,32.409784246869116,27.4708],[44.666015625,32.394403387494116,28.2257],[44.686718750000011,32.395526434369117,27.6907],[44.6953125,32.400653387494117,25.9348],[44.70458984375,32.408807684369116,25.2215],[44.715234375000023,32.41388580936912,24.6764],[44.727783203125,32.409784246869116,26.3958],[44.734277343750023,32.39935944218162,26.0199],[44.733642578125,32.37518952030662,25.1622],[44.737890625,32.364520574994117,25.5313],[44.782958984375,32.299920965619116,23.5357],[44.792089843750006,32.29291412968162,22.8413],[44.80908203125,32.288202215619116,24.1362],[44.817138671875,32.278827215619117,25.8567],[44.805419921875,32.26105377811912,25.6775],[44.8076171875,32.23346588749412,23.4627],[44.823974609375,32.176385809369116,23.2816],[44.82421875,32.15216705936912,23.9686],[44.809667968750006,32.07001373905662,21.9161],[44.82568359375,32.05707428593162,19.9868],[44.89609375,32.03021881718162,20.6737],[44.953027343750023,31.977801824994117,22.1537],[44.959716796875,31.97455475468162,22.1825],[44.966699218750023,31.97431061405662,20.879],[44.971923828125,31.97150299686912,20.2568],[44.97412109375,31.96076080936912,20.3391],[44.974707031250006,31.94403717655662,20.8643],[44.976660156250006,31.937030340619117,19.7408],[44.98095703125,31.92938873905662,19.6584],[44.955957031250023,31.88068268436912,19.6236],[44.943359375,31.864520574994117,18.9234],[44.940673828125,31.848993231244116,19.9991],[44.951171875,31.830926824994116,18.0899],[44.97412109375,31.80646393436912,17.5191],[44.984082031250011,31.788836981244117,18.0474],[44.988037109375,31.77155182499412,19.2338],[44.987890625,31.72736237186912,17.1569],[44.994042968750023,31.714715887494116,17.1989],[45.02490234375,31.67926666874412,16.368],[45.036230468750006,31.669305731244116,15.9148],[45.045800781250023,31.664813543744117,15.7857],[45.0634765625,31.65912506718162,15.3992],[45.0703125,31.655633856244116,15.4787],[45.076562500000023,31.646747137494117,15.1084],[45.081152343750006,31.63519928593162,14.9026],[45.087988281250006,31.62518952030662,14.7159],[45.11474609375,31.61456940311912,14.5231],[45.16357421875,31.567499090619116,13.0444],[45.174560546875,31.551776434369117,13.9254],[45.18017578125,31.545770574994116,12.3353],[45.191015625,31.539178778119116,12.2932],[45.213281250000023,31.529657293744116,14.6085],[45.274658203125,31.48639557499412,10.2834],[45.2900390625,31.471307684369116,11.3146],[45.298242187500023,31.456659246869116,10.6517],[45.316796875000023,31.40241119999412,9.6904],[45.279199218750023,31.382928778119116,9.84],[45.26220703125,31.38129303593162,10.9626],[45.25,31.38544342655662,10.4145],[45.237695312500023,31.392206121869116,10.0789],[45.223730468750006,31.395282293744117,11.1512],[45.20703125,31.38812897343162,11.3864]]}}