{"type":"Feature","properties":{"featurecla":"River","scalerank":7,"rivernum":377,"dissolve":"377River","name":"Atshan","name_alt":null,"note":null,"min_zoom":6.0,"strokeweig":0.2,"name_en":"Atshan","min_label":7.0},
"geometry":{"type": "LineString","coordinates": [[44.7861328125,31.463885809369117,14.6579],[44.808007812500023,31.46332428593162,12.823],[44.816650390625,31.461297918744116,14.7459],[44.823974609375,31.457049871869117,14.0694],[44.8359375,31.43878815311912,14.6391],[44.842871093750006,31.41840241093162,14.4499],[44.853125,31.40180084843162,13.5897],[44.875244140625,31.39496491093162,13.3108],[44.902099609375,31.393329168744117,13.8871],[44.966699218750023,31.375116278119116,13.6051],[45.012451171875,31.36920807499412,13.2406],[45.033593750000023,31.361444403119116,13.2412],[45.04248046875,31.34345123905662,13.1553],[45.050390625,31.332294012494117,13.1559],[45.06875,31.32257721561912,13.0876],[45.08935546875,31.31574127811912,11.9611],[45.10986328125,31.31232330936912,12.8355],[45.125,31.30621979374412,12.7772],[45.138427734375,31.31610748905662,11.9547],[45.1591796875,31.302020574994117,11.8495],[45.178125,31.283954168744117,11.8121],[45.186425781250023,31.28168366093162,11.754],[45.189453125,31.30512116093162,11.9174],[45.19873046875,31.316766668744116,11.2423],[45.2138671875,31.322137762494116,11.4907],[45.23486328125,31.326678778119117,11.2102]]}}