{"type":"Feature","properties":{"GID_2":"IRQ.4.1_1","GID_0":"IRQ","country":"Iraq","GID_1":"IRQ.4_1","province":"Al-Qadisiyah","NL_NAME_1":"NA","county":"AdDiwaniyah","VARNAME_2":"NA","NL_NAME_2":"NA","TYPE_2":"Kaza","ENGTYPE_2":"District","CC_2":"NA","HASC_2":"NA","name":"Ad_Diwaniyah.county"},
"geometry":{"type": "MultiPolygon","coordinates": [[[[44.7514,31.7324,17.7481],[44.7661,31.7444,17.9893],[44.7834,31.7692,16.4784],[44.8065,31.8149,17.6073],[44.8135,31.8268,17.2465],[44.817,31.8298,17.1337],[44.8288,31.8321,17.4482],[44.8658,31.8329,17.1557],[44.8898,31.8394,17.7056],[44.9232,31.8409,17.8122],[44.9334,31.8463,18.7872],[44.9417,31.8549,18.8926],[44.9496,31.8664,19.4669],[44.9559,31.8698,18.9867],[44.962,31.8686,19.4212],[44.9747,31.8624,18.3163],[44.9921,31.8496,18.239],[45.0209,31.835,16.8346],[45.0288,31.8325,16.5513],[45.0739,31.8308,16.6782],[45.0929,31.8243,16.6638],[45.1073,31.8223,16.0546],[45.1305,31.8244,15.2885],[45.1672,31.8356,14.5764],[45.1773,31.8677,15.4483],[45.1769,31.8745,15.231],[45.1728,31.8808,15.6632],[45.1581,31.8932,15.1233],[45.1542,31.9106,16.0218],[45.1514,31.9154,16.0661],[45.1466,31.9181,16.1296],[45.1324,31.9207,16.105],[45.1275,31.9234,16.1601],[45.1248,31.9282,16.0819],[45.1227,31.9416,16.5696],[45.1194,31.9496,17.4736],[45.1141,31.9553,17.4615],[45.0978,31.965699999999998,17.9398],[45.0871,31.9769,18.3823],[45.0775,31.996,18.6503],[45.0723,32.0136,19.131],[45.0549,32.0489,19.4131],[45.054,32.0587,19.9117],[45.0625,32.0702,18.9692],[45.0724,32.0771,18.674],[45.1077,32.0799,18.5338],[45.1175,32.0853,19.5471],[45.1232,32.0961,18.4183],[45.1243,32.1308,18.9228],[45.1276,32.1392,18.7404],[45.136,32.1425,18.6343],[45.1678,32.1431,17.5752],[45.1787,32.1465,18.2592],[45.1879,32.1546,18.9834],[45.194,32.1633,19.1139],[45.206,32.2019,17.3087],[45.2106,32.2081,17.2235],[45.2204,32.2135,17.2385],[45.2391,32.2167,16.7402],[45.2483,32.2239,16.6989],[45.2582,32.2431,17.7091],[45.2626,32.2568,18.0269],[45.2811,32.2714,15.6812],[45.2902,32.283,15.7345],[45.2924,32.2972,15.2589],[45.2923,32.3501,15.7068],[45.2708,32.3502,15.443],[45.2644,32.3522,14.7309],[45.2242,32.3938,16.7175],[45.2104,32.4009,19.5965],[45.1958,32.4031,18.392],[45.1885,32.4061,18.9426],[45.1565,32.3902,18.3968],[45.1518,32.3828,18.0946],[45.1444,32.3758,17.9692],[45.1304,32.3661,18.0142],[45.1025,32.3506,20.338],[45.0495,32.3249,19.6009],[45.035,32.3157,20.0293],[44.9317,32.2278,20.9369],[44.856,32.1797,23.7907],[44.8419,32.1736,22.5708],[44.8242,32.1718,23.987],[44.7879,32.1777,22.4002],[44.7766,32.1782,24.1952],[44.7675,32.176,21.0976],[44.7591,32.1701,22.1493],[44.7535,32.1586,21.7252],[44.7583,32.1199,20.5015],[44.7571,32.1034,21.6573],[44.7514,32.0903,20.5092],[44.7451,32.0829,20.5912],[44.733,32.0745,20.516],[44.7116,32.0663,20.2057],[44.7015,32.0648,21.4863],[44.6805,32.0651,20.2263],[44.6529,32.0697,20.0952],[44.6024,32.0817,22.6586],[44.5844,32.0837,22.0453],[44.5782,32.0738,20.3101],[44.5752,32.0605,21.8779],[44.5638,32.0483,21.9814],[44.5501,32.0407,21.9868],[44.5364,32.0359,22.621],[44.5438,32.0257,21.0697],[44.5497,32.005,22.3919],[44.5599,31.9797,21.7916],[44.5649,31.9771,21.6042],[44.5834,31.9739,23.2271],[44.6073,31.9666,21.1674],[44.6124,31.9624,21.2057],[44.6128,31.9214,21.8548],[44.6238,31.8895,18.8306],[44.6325,31.8816,18.7576],[44.6486,31.874,17.8491],[44.6665,31.8689,16.9372],[44.6802,31.8607,18.8292],[44.6834,31.852,17.6146],[44.6841,31.8311,17.8442],[44.686,31.8212,17.836],[44.6979,31.8035,18.5512],[44.7042,31.7906,17.846],[44.7097,31.7651,16.4367],[44.717,31.7559,17.3598],[44.7514,31.7324,17.7481]]]]}}