{"type":"Feature","properties":{"GID_2":"IRQ.7.4_1","GID_0":"IRQ","country":"Iraq","GID_1":"IRQ.7_1","province":"As-Sulaymaniyah","NL_NAME_1":"NA","county":"Halabja","VARNAME_2":"NA","NL_NAME_2":"NA","TYPE_2":"Kaza","ENGTYPE_2":"District","CC_2":"NA","HASC_2":"NA","name":"Halabja.county"},
"geometry":{"type": "MultiPolygon","coordinates": [[[[45.907,35.0424,1184.4431],[45.9278,35.0433,1416.2466],[45.9293,35.0447,1556.7485],[45.9255,35.0688,690.845],[45.9299,35.0773,549.0721],[45.9344,35.0807,470.8168],[45.9398,35.0819,479.1901],[45.957,35.0801,576.0062],[45.9611,35.0764,694.0789],[45.9934,35.0625,539.9094],[46.0,35.0632,486.0603],[46.0118,35.0686,741.2842],[46.0168,35.0617,758.4168],[46.0223,35.0597,654.8984],[46.026,35.0509,668.6868],[46.029,35.0486,706.54],[46.0331,35.0469,701.6238],[46.0396,35.0491,573.0026],[46.0456,35.0474,665.1639],[46.0517,35.0484,521.0864],[46.0521,35.0431,719.9847],[46.0553,35.0408,667.0111],[46.0565,35.0358,629.9596],[46.0641,35.036,650.0012],[46.0675,35.0462,557.4368],[46.07,35.0489,568.6699],[46.0747,35.0496,703.5644],[46.0769,35.0541,647.1782],[46.0688,35.0546,752.9828],[46.0665,35.0584,713.0546],[46.0724,35.0794,564.8926],[46.0851,35.0851,729.8209],[46.0942,35.0858,615.4568],[46.0992,35.076,646.5729],[46.1137,35.0724,685.2552],[46.1231,35.074,672.3989],[46.1303,35.0787,977.648],[46.1434,35.0826,766.8372],[46.1603,35.0838,665.6113],[46.1734,35.0964,760.5837],[46.189,35.1083,694.3078],[46.1868,35.1111,806.1335],[46.1593,35.1217,1200.0021],[46.1545,35.1256,1390.7864],[46.1542,35.129,1535.5167],[46.1591,35.1406,1563.2183],[46.1566,35.1593,1480.4297],[46.1575,35.1621,1443.7939],[46.1641,35.1693,1356.8802],[46.182,35.1759,1296.0518],[46.1908,35.1812,1617.4126],[46.2029,35.1911,1905.6266],[46.204,35.1942,1698.8838],[46.2001,35.2006,1592.2926],[46.1948,35.204,1624.5818],[46.1959,35.2096,1903.4329],[46.1834,35.2187,1834.3074],[46.173,35.2223,2128.5427],[46.1614,35.22,2057.3835],[46.156,35.2206,1863.3826],[46.1437,35.227,1602.6902],[46.129,35.2254,1289.9561],[46.1269,35.2265,1350.5146],[46.1296,35.2349,1262.8859],[46.1275,35.2359,1181.8423],[46.1118,35.2297,1217.4957],[46.111,35.2352,1314.6737],[46.1161,35.2451,1469.7024],[46.1419,35.2639,1812.1296],[46.1467,35.2734,2013.4097],[46.156,35.2796,2244.6255],[46.1556,35.2867,2474.4395],[46.1435,35.3106,2108.2671],[46.1304,35.3225,2223.9177],[46.1294,35.3266,2293.8191],[46.1312,35.3322,2485.8999],[46.1269,35.3395,2362.0317],[46.1142,35.3439,2057.74],[46.0995,35.3446,1936.0122],[46.0883,35.3575,2062.1775],[46.0737,35.3636,2280.4819],[46.0704,35.3663,2279.5557],[46.0611,35.3794,2322.3018],[46.0509,35.3834,2241.1729],[46.029,35.4246,2160.082],[46.0099,35.4464,2107.6687],[46.0009,35.4772,1896.824],[45.981,35.4766,1496.9901],[45.9578,35.4699,1422.5947],[45.9398,35.47,1067.5702],[45.878,35.4914,746.9324],[45.8556,35.4955,830.436],[45.8458,35.4995,896.8054],[45.8358,35.5005,1201.5664],[45.8148,35.4942,1048.4287],[45.8029,35.4934,1090.1188],[45.8038,35.4715,840.9282],[45.809,35.4572,986.258],[45.8106,35.4472,1007.2405],[45.8109,35.3743,521.5607],[45.8086,35.3547,504.0284],[45.8005,35.3436,495.1168],[45.7903,35.3395,493.9327],[45.7788,35.3418,495.4478],[45.7693,35.3481,501.4901],[45.7573,35.364,531.1385],[45.742,35.3723,661.3203],[45.7284,35.3738,558.0952],[45.7193,35.3723,538.4718],[45.6911,35.3592,547.6183],[45.6827,35.3579,545.1941],[45.6825,35.3537,537.8632],[45.6801,35.351,536.2468],[45.6569,35.3495,535.5955],[45.646,35.3429,545.1786],[45.6307,35.338,561.4019],[45.6356,35.3316,569.7773],[45.6594,35.3142,568.696],[45.6922,35.2973,581.8834],[45.7435,35.2802,567.5527],[45.7619,35.277,559.9875],[45.767,35.2744,553.0104],[45.7771,35.2577,622.3461],[45.7844,35.2413,684.3996],[45.7885,35.227,722.3024],[45.7959,35.2181,599.7861],[45.8088,35.2101,593.3889],[45.8144,35.2045,457.5],[45.8242,35.1776,511.459],[45.8236,35.1716,496.1377],[45.8179,35.167,524.5508],[45.7976,35.1602,457.5],[45.7748,35.1565,468.9203],[45.7586,35.1489,457.5],[45.7525,35.1441,457.5],[45.7468,35.1332,457.5],[45.7457,35.0985,831.6928],[45.7438,35.0919,954.3723],[45.7407,35.0886,1090.6582],[45.734,35.0865,1216.5818],[45.7043,35.0842,435.2904],[45.6901,35.0786,389.3542],[45.6908,35.0728,370.4977],[45.7038,35.0369,586.7509],[45.7089,35.0145,579.5723],[45.7131,34.9732,684.3832],[45.7157,34.9071,565.9923],[45.722,34.8808,498.6896],[45.7375,34.8312,482.1864],[45.7617,34.8274,591.2146],[45.7682,34.8285,650.643],[45.7757,34.8317,713.9669],[45.7877,34.8415,997.0114],[45.7923,34.8474,1300.0725],[45.7971,34.8581,1660.6343],[45.7963,34.8715,1788.9102],[45.7898,34.8968,1739.5664],[45.7907,34.903,1740.5957],[45.7986,34.9099,1297.6089],[45.8091,34.9091,1049.0339],[45.8486,34.8941,891.3002],[45.8654,34.8958,943.9813],[45.8701,34.8976,914.3132],[45.8741,34.9015,959.1774],[45.8815,34.9248,892.0253],[45.8975,34.9448,887.0043],[45.9026,34.9546,889.2536],[45.9025,34.9592,826.5657],[45.8928,34.977,854.071],[45.8939,34.986,861.0863],[45.8884,34.9963,855.4415],[45.885,35.0107,720.9904],[45.883,35.031,549.1089],[45.8846,35.0353,613.8725],[45.8929,35.0393,1028.6912],[45.907,35.0424,1184.4431]]]]}}