{"type":"Feature","properties":{"GID_2":"IRQ.5.3_1","GID_0":"IRQ","country":"Iraq","GID_1":"IRQ.5_1","province":"An-Najaf","NL_NAME_1":"NA","county":"Najaf","VARNAME_2":"NA","NL_NAME_2":"NA","TYPE_2":"Kaza","ENGTYPE_2":"District","CC_2":"NA","HASC_2":"NA","name":"Najaf.county"},
"geometry":{"type": "MultiPolygon","coordinates": [[[[42.806,30.6016,355.0799],[43.3164,30.2344,382.024],[43.8202,29.8673,415.6045],[43.8845,29.9579,420.2441],[43.9199,30.0036,401.5329],[43.9809,30.0694,374.2419],[44.0107,30.1102,350.9956],[44.0376,30.1529,348.4471],[44.0479,30.1752,354.269],[44.0508,30.1882,367.2412],[44.0527,30.2158,367.1637],[44.0537,30.2722,339.7913],[44.055,30.2859,333.7999],[44.0601,30.3064,353.4065],[44.0707,30.3321,346.0969],[44.1389,30.4773,319.6144],[44.183,30.5795,299.8918],[44.1993,30.6114,285.1602],[44.2202,30.6447,276.4938],[44.2435,30.6735,265.3268],[44.2615,30.687,257.4533],[44.3929,30.7533,236.022],[44.4289,30.7768,230.963],[44.4457,30.7912,222.1344],[44.4694,30.8149,213.2013],[44.4928,30.8432,205.1284],[44.507,30.8639,201.1816],[44.521,30.8951,191.9401],[44.5342,30.9385,185.163],[44.5479,31.0336,159.4232],[44.553,31.0548,151.2931],[44.6347,31.2792,72.6481],[44.655,31.3462,58.4123],[44.6627,31.3814,50.5689],[44.6561,31.3862,45.8354],[44.6438,31.3898,47.8048],[44.5989,31.3997,55.7416],[44.555,31.4076,67.63],[44.4993,31.4141,79.1351],[44.4643,31.4212,85.7745],[44.4387,31.4342,86.0328],[44.411,31.4555,92.0595],[44.4018,31.4642,96.6629],[44.3883,31.4837,96.386],[44.3816,31.4974,88.7049],[44.3769,31.5179,78.0018],[44.3774,31.5286,78.6759],[44.3803,31.5401,63.2647],[44.3849,31.5491,58.8159],[44.3926,31.5568,53.6196],[44.4091,31.566,50.9379],[44.45,31.5747,37.8102],[44.4712,31.5817,29.2069],[44.4855,31.5923,19.8816],[44.4874,31.597,18.2731],[44.4816,31.6021,17.4146],[44.4731,31.6063,19.0182],[44.4618,31.608,25.2342],[44.4357,31.6065,34.2903],[44.4201,31.6099,36.7203],[44.414,31.6146,37.0348],[44.4045,31.6506,26.1459],[44.4034,31.6821,21.5496],[44.4017,31.6921,19.8189],[44.382,31.7337,22.3131],[44.378,31.7481,25.112],[44.3702,31.764,26.2808],[44.3635,31.772,27.5224],[44.3503,31.7825,27.8002],[44.3398,31.8003,27.3557],[44.3344,31.8061,27.0719],[44.305,31.8108,27.5653],[44.2895,31.8186,28.3492],[44.2593,31.8535,26.3921],[44.2603,31.8646,20.8283],[44.2699,31.892,15.7336],[44.2763,31.9043,14.0569],[44.2819,31.9101,13.0651],[44.2936,31.9124,13.71],[44.3234,31.9138,13.1163],[44.3303,31.918,12.9198],[44.345,31.936,11.9545],[44.3541,31.9416,12.6356],[44.3615,31.9419,13.0898],[44.376,31.9368,13.1369],[44.3872,31.9352,13.8589],[44.3883,31.9443,14.7303],[44.3845,31.9571,14.8341],[44.3583,31.9968,45.1092],[44.3425,32.029,42.5355],[44.3381,32.0433,43.7791],[44.3266,32.0623,41.9363],[44.3222,32.0792,39.4072],[44.3207,32.092,38.1088],[44.315,32.0927,38.5758],[44.3079,32.0965,41.0089],[44.2947,32.1098,41.6904],[44.2829,32.1272,43.2825],[44.278,32.1421,41.8613],[44.2764,32.1625,38.9781],[44.278,32.1929,34.6211],[44.284,32.2094,31.9795],[44.304,32.241,30.3839],[44.3085,32.2614,23.8778],[44.3075,32.2739,23.9924],[44.3042,32.2823,24.183],[44.2977,32.2919,25.0911],[44.2892,32.2995,24.3781],[44.2772,32.2966,29.3121],[44.2613,32.2897,34.0614],[44.2247,32.281,44.1981],[44.1827,32.2729,57.5847],[44.1653,32.2717,61.0056],[44.1453,32.2621,65.2016],[44.0535,32.2296,90.2522],[43.7185,32.1177,136.2297],[43.6756,32.1002,146.4941],[43.6667,32.095,145.0918],[43.6614,32.0888,147.4933],[43.7236,32.0328,128.2028],[43.7368,32.0151,113.2282],[43.7395,32.0076,113.2478],[43.7403,31.9973,113.2815],[43.7379,31.9868,124.4593],[43.7298,31.9738,125.056],[43.7184,31.9646,130.4215],[43.6935,31.9511,140.5888],[43.6224,31.9227,169.4404],[43.5685,31.8989,178.4021],[43.4622,31.8589,209.8232],[43.4461,31.8511,213.8528],[43.425,31.8377,215.5726],[43.3861,31.8052,224.2558],[43.3543,31.7692,230.5516],[43.257,31.6464,264.0321],[43.2166,31.590699999999998,273.2439],[43.2099,31.5782,283.9289],[43.2036,31.5615,299.0261],[43.1919,31.5072,279.9864],[43.182,31.4812,263.9073],[43.1613,31.4428,264.076],[43.0893,31.323,279.3624],[43.0681,31.2821,298.3035],[43.0629,31.2604,316.4812],[43.0619,31.1946,285.5591],[43.0564,31.1718,282.67],[43.0466,31.1486,296.3209],[42.9606,30.9801,331.9313],[42.9425,30.9531,319.4369],[42.8878,30.8808,313.2645],[42.8743,30.8598,323.7291],[42.8685,30.8469,327.2818],[42.8638,30.818,321.5688],[42.8617,30.7573,330.5425],[42.8596,30.7428,330.8874],[42.8418,30.69,341.3239],[42.806,30.6016,355.0799]]]]}}