{"type":"Feature","properties":{"GID_2":"IRQ.3.2_1","GID_0":"IRQ","country":"Iraq","GID_1":"IRQ.3_1","province":"Al-Muthannia","NL_NAME_1":"NA","county":"AsSalman","VARNAME_2":"NA","NL_NAME_2":"NA","TYPE_2":"Kaza","ENGTYPE_2":"District","CC_2":"NA","HASC_2":"NA","name":"As_Salman.county"},
"geometry":{"type": "MultiPolygon","coordinates": [[[[46.5429,30.5611,26.7854],[46.5242,30.5747,29.1292],[46.5005,30.5981,24.69],[46.4535,30.6533,23.1818],[46.4037,30.7176,15.8689],[46.3886,30.7343,13.7172],[46.3805,30.7409,12.5463],[46.3599,30.7504,11.4886],[46.3309,30.7575,11.1057],[46.2971,30.7614,15.8211],[46.2447,30.7643,19.2507],[46.2077,30.769,4.4414],[46.1456,30.771,4.4255],[45.893,30.7955,5.6458],[45.7805,30.8114,5.009],[45.7331,30.8191,7.4167],[45.7087,30.8248,9.5786],[45.674,30.8397,16.9165],[45.6525,30.8535,12.7605],[45.6465,30.848,16.1366],[45.6379,30.8439,17.1311],[45.6269,30.8444,18.118],[45.621,30.8497,18.1016],[45.6002,30.8768,13.3302],[45.5764,30.8928,15.2598],[45.5645,30.897,17.4441],[45.5381,30.8976,20.9649],[45.5256,30.8997,21.1093],[45.4919,30.9273,20.1049],[45.4777,30.9316,20.9824],[45.4614,30.9389,21.6141],[45.4304,30.9555,26.7828],[45.4128,30.9771,21.8743],[45.3933,30.9903,23.7286],[45.367,31.0136,21.4016],[45.3477,31.0222,21.5905],[45.3189,31.027,25.5456],[45.3059,31.0335,27.5131],[45.2846,31.0556,24.3552],[45.2528,31.0719,30.6741],[45.2232,31.084,35.5343],[45.2012,31.1086,29.0944],[45.1744,31.1233,29.4173],[45.1532,31.1404,23.1494],[45.1451,31.144,24.5392],[45.1195,31.1482,22.4339],[45.105,31.1641,23.5568],[45.0867,31.1716,29.0265],[45.078,31.1777,29.2525],[45.0636,31.1957,26.4588],[45.0465,31.2103,23.5629],[45.037,31.2271,18.4443],[45.03,31.2453,17.8373],[45.0199,31.2417,19.0365],[45.0098,31.2418,19.9813],[44.9952,31.2487,21.1487],[44.971,31.2513,24.3085],[44.9582,31.2613,24.4893],[44.942,31.2576,24.5051],[44.9243,31.2567,25.5647],[44.8953,31.2581,32.6543],[44.8767,31.2626,36.9327],[44.851,31.2774,33.2306],[44.8104,31.3094,39.4486],[44.743899999999996,31.3548,36.1149],[44.7001,31.3728,52.2519],[44.6627,31.3814,50.5689],[44.655,31.3462,58.4123],[44.6347,31.2792,72.6481],[44.553,31.0548,151.2931],[44.5479,31.0336,159.4232],[44.5342,30.9385,185.163],[44.521,30.8951,191.9401],[44.507,30.8639,201.1816],[44.4928,30.8432,205.1284],[44.4694,30.8149,213.2013],[44.4457,30.7912,222.1344],[44.4289,30.7768,230.963],[44.3929,30.7533,236.022],[44.2615,30.687,257.4533],[44.2435,30.6735,265.3268],[44.2202,30.6447,276.4938],[44.1993,30.6114,285.1602],[44.183,30.5795,299.8918],[44.1389,30.4773,319.6144],[44.0707,30.3321,346.0969],[44.0601,30.3064,353.4065],[44.055,30.2859,333.7999],[44.0537,30.2722,339.7913],[44.0527,30.2158,367.1637],[44.0508,30.1882,367.2412],[44.0479,30.1752,354.269],[44.0376,30.1529,348.4471],[44.0107,30.1102,350.9956],[43.9809,30.0694,374.2419],[43.9199,30.0036,401.5329],[43.8845,29.9579,420.2441],[43.8202,29.8673,415.6045],[44.5134,29.3545,370.2346],[44.5342,29.3344,363.8759],[44.6776,29.225,393.0219],[44.7065,29.2049,380.0257],[44.7152,29.196,358.0183],[44.7269,29.1917,353.8741],[44.7633,29.1918,373.632],[44.7707,29.1896,375.9474],[44.7974,29.1872,364.6644],[44.8336,29.187,362.7645],[44.9056,29.1823,359.3234],[44.9783,29.1747,367.9688],[45.0291,29.1723,356.7485],[45.0367,29.1699,358.4101],[45.0527,29.1684,359.3597],[45.1228,29.1637,349.4876],[45.3743,29.142,344.1203],[45.5185,29.1348,338.271],[45.6926,29.1223,310.3968],[45.8195,29.1081,327.1332],[45.9867,29.0984,324.8472],[46.2203,29.0777,310.9588],[46.2727,29.0703,305.7992],[46.2796,29.0714,305.8446],[46.4245,29.0586,304.4079],[46.4779,29.0712,279.0195],[46.4989,29.0816,256.396],[46.5135,29.086,244.8282],[46.5229,29.0914,235.8949],[46.5426,29.098,222.3494],[46.6156,29.1686,214.929],[46.6066,29.178,226.3985],[46.6006,29.1871,238.8978],[46.5954,29.1992,247.9424],[46.592,29.2136,256.2467],[46.5906,29.2366,266.3967],[46.592,29.2816,270.5417],[46.595,29.3122,266.035],[46.6102,29.3928,267.7799],[46.6182,29.4487,256.2696],[46.6224,29.5188,247.3559],[46.6295,29.5951,233.8481],[46.6523,29.7726,193.0187],[46.6646,29.9287,155.6211],[46.6649,29.9964,138.5265],[46.6605,30.0498,124.4283],[46.6577,30.0662,111.334],[46.6274,30.1786,102.7798],[46.6143,30.238,96.3448],[46.5828,30.3498,71.3641],[46.5607,30.4642,52.4617],[46.5478,30.5421,34.0202],[46.5429,30.5611,26.7854]]]]}}