{"type":"Feature","properties":{"GID_2":"IRQ.16.9_1","GID_0":"IRQ","country":"Iraq","GID_1":"IRQ.16_1","province":"Ninawa","NL_NAME_1":"NA","county":"Talafar","VARNAME_2":"NA","NL_NAME_2":"NA","TYPE_2":"Kaza","ENGTYPE_2":"District","CC_2":"NA","HASC_2":"NA","name":"Talafar.county"},
"geometry":{"type": "MultiPolygon","coordinates": [[[[42.3737,37.0582,340.9507],[42.2492,36.9577,451.9008],[42.1769,36.8904,449.9749],[42.1348,36.8577,418.4918],[42.0924,36.8143,391.6592],[42.0344,36.7638,385.3893],[41.9908,36.723,374.0772],[41.9385,36.6703,375.019],[41.904,36.6462,368.5302],[41.8817,36.6234,370.5068],[41.8975,36.6073,376.5571],[41.9095,36.6006,377.7939],[41.9227,36.5994,379.3188],[41.9764,36.5996,390.3657],[41.9879,36.5971,394.09],[41.9911,36.5939,395.9507],[41.9979,36.5766,402.3488],[42.0038,36.5693,407.7421],[42.0236,36.5499,418.7941],[42.0394,36.5381,426.6806],[42.0474,36.5227,438.5297],[42.0524,36.5049,457.7077],[42.059,36.4928,469.569],[42.0625,36.4897,475.0369],[42.0743,36.4874,474.4867],[42.1368,36.4866,452.3147],[42.1438,36.4836,460.5118],[42.1501,36.4783,465.2223],[42.1574,36.4696,469.36],[42.164,36.4581,476.167],[42.1759,36.4547,463.5987],[42.18,36.4551,463.9549],[42.1856,36.4594,459.9103],[42.2046,36.4837,503.8911],[42.2126,36.4854,488.377],[42.2283,36.4782,486.0067],[42.2344,36.4732,462.9328],[42.2388,36.4667,454.5654],[42.2428,36.4523,443.6564],[42.2504,36.436,429.5229],[42.2553,36.4299,426.3541],[42.2616,36.4255,428.1348],[42.2758,36.4213,432.3211],[42.3015,36.4094,435.122],[42.327,36.4065,406.7113],[42.3459,36.4005,409.0535],[42.3719,36.3974,400.459],[42.388,36.3845,369.0375],[42.3991,36.3709,351.7753],[42.4146,36.3387,327.2599],[42.4185,36.3164,316.9872],[42.4236,36.3019,308.4664],[42.4252,36.2654,292.511],[42.431399999999996,36.246,285.0953],[42.433,36.2095,270.5918],[42.4391,36.1901,264.7004],[42.4408,36.1696,259.6587],[42.4433,36.1615,257.148],[42.462,36.1232,252.7409],[42.466,36.1009,242.3784],[42.4709,36.0867,237.5463],[42.4727,36.0575,229.9104],[42.4777,36.0433,227.8924],[42.4806,36.018,222.1855],[42.4874,35.994,217.7161],[42.4874,35.9285,233.8591],[42.5434,35.9284,217.9537],[42.5427,35.9401,223.927],[42.5361,35.9613,223.9569],[42.5362,35.9825,211.5115],[42.5413,35.9971,217.6643],[42.5456,36.0193,224.372],[42.5575,36.045,223.1487],[42.5615,36.0674,230.5519],[42.5675,36.0802,230.426],[42.5715,36.0866,234.206],[42.5772,36.0918,234.1698],[42.5842,36.0948,234.8324],[42.6028,36.0981,232.6384],[42.6117,36.1053,232.8427],[42.6219,36.1325,241.3019],[42.6257,36.155,248.5536],[42.6359,36.1821,261.3757],[42.6447,36.1894,266.4225],[42.6589,36.1938,271.4142],[42.6657,36.1981,274.404],[42.6742,36.2063,280.6776],[42.6838,36.2197,292.1817],[42.6924,36.227,299.1739],[42.6949,36.2322,304.0133],[42.6964,36.2655,336.5192],[42.6938,36.2818,383.0293],[42.6879,36.2872,421.1818],[42.6563,36.3034,531.5161],[42.6509,36.3086,550.3612],[42.6503,36.3147,516.9384],[42.6547,36.3289,430.344],[42.6582,36.3544,383.6171],[42.6655,36.3634,376.4868],[42.6816,36.3719,363.4171],[42.7075,36.377,346.4955],[42.7309,36.3853,337.8701],[42.7345,36.3884,338.3104],[42.7417,36.4004,326.8098],[42.7525,36.4224,326.9135],[42.7523,36.4254,328.103],[42.7478,36.4298,328.639],[42.7254,36.4407,325.5945],[42.7111,36.4505,320.7952],[42.6857,36.4573,311.4399],[42.6821,36.4603,312.1292],[42.6753,36.4722,295.1636],[42.6731,36.4802,299.3207],[42.6745,36.4898,293.3895],[42.694,36.5159,281.8295],[42.6991,36.537,265.7751],[42.7052,36.5418,276.7164],[42.7253,36.549,277.173],[42.753,36.5561,252.8582],[42.7583,36.5541,254.7755],[42.7682,36.5417,271.9625],[42.7725,36.5385,281.3919],[42.7822,36.5518,269.4407],[42.8011,36.57,312.3903],[42.8293,36.5887,314.5046],[42.8456,36.5963,360.2343],[42.8599,36.6003,376.2628],[42.8661,36.6048,385.5266],[42.8717,36.6154,352.4897],[42.8738,36.6377,307.0],[42.8782,36.644,307.0],[42.8898,36.6464,307.0],[42.9058,36.646,307.0],[42.9158,36.6439,307.0],[42.9292,36.6374,307.0],[42.937,36.6384,307.0],[42.9435,36.6416,307.0],[42.949,36.6472,307.0],[42.9523,36.655,307.0],[42.9525,36.6775,312.7544],[42.95,36.6834,311.5024],[42.9468,36.6853,307.0],[42.9281,36.6897,307.0],[42.9167,36.698,325.9044],[42.8946,36.6946,307.0],[42.8678,36.6936,307.0],[42.8381,36.695,307.0],[42.8243,36.6975,307.0],[42.8065,36.7033,307.0],[42.7851,36.7131,307.0],[42.7662,36.7245,307.0],[42.7369,36.7455,307.0],[42.7115,36.7581,307.0],[42.6325,36.7771,307.0],[42.6085,36.7853,307.0],[42.5893,36.7949,307.0],[42.5725,36.8086,307.0],[42.5651,36.8194,307.0],[42.5576,36.8378,324.2257],[42.5453,36.8818,401.0825],[42.5387,36.8964,342.4676],[42.5314,36.9073,327.6107],[42.5173,36.9203,310.3889],[42.4951,36.9367,334.2805],[42.3737,37.0582,340.9507]]]]}}