{"type":"Feature","properties":{"GID_1":"IRQ.4_1","GID_0":"IRQ","country":"Iraq","province":"Al-Qadisiyah","VARNAME_1":"Diwaniyah","NL_NAME_1":"NA","TYPE_1":"Muhafazah","ENGTYPE_1":"Province","CC_1":"NA","HASC_1":"IQ.QA","ISO_1":"NA","name":"Al-Qadisiyah.province"},
"geometry":{"type": "MultiPolygon","coordinates": [[[[44.9243,31.2567,25.5647],[44.942,31.2576,24.5051],[44.9582,31.2613,24.4893],[44.9646,31.3246,14.6812],[44.9696,31.3463,15.3975],[44.9768,31.3663,13.5033],[44.985,31.3828,12.7444],[45.0076,31.4183,12.0869],[45.0281,31.4659,12.6773],[45.0559,31.4993,10.7881],[45.0625,31.5108,11.6311],[45.0665,31.5224,12.1976],[45.0681,31.5344,12.3933],[45.0676,31.5466,13.0029],[45.0648,31.5584,12.7257],[45.0585,31.5711,13.2482],[45.0281,31.6108,14.6563],[45.0244,31.6214,14.6308],[45.0269,31.6321,14.7272],[45.0311,31.6368,15.4643],[45.0395,31.642,14.9522],[45.0471,31.6452,15.832],[45.1415,31.6692,14.1173],[45.1828,31.6768,13.8638],[45.258,31.6827,13.2103],[45.3053,31.6831,11.9851],[45.3772,31.6789,11.0311],[45.4179,31.6741,11.7883],[45.5337,31.6535,9.6092],[45.6128,31.6359,7.3384],[45.7022,31.6115,7.984],[45.7357,31.6116,7.1777],[45.755,31.6188,7.5266],[45.7661,31.6194,8.1881],[45.7685,31.633,8.4432],[45.7683,31.6616,8.0595],[45.7598,31.7189,9.6677],[45.7544,31.7371,9.2892],[45.7169,31.7987,9.8791],[45.7042,31.8249,21.2223],[45.698,31.8427,10.7107],[45.6954,31.8678,10.7839],[45.6988,31.9107,10.7169],[45.6896,31.9434,10.5643],[45.6831,31.9575,10.8492],[45.5993,32.0824,12.4434],[45.5554,32.1374,11.5],[45.527,32.1674,13.4469],[45.4316,32.2382,14.3122],[45.4168,32.2514,14.5523],[45.3816,32.2895,15.1608],[45.3328,32.3299,14.8569],[45.3192,32.3393,15.3244],[45.2967,32.3497,15.5542],[45.2708,32.3502,15.443],[45.2644,32.3522,14.7309],[45.2261,32.3923,16.6741],[45.2083,32.4016,18.3668],[45.1958,32.4031,18.392],[45.1885,32.4061,18.9426],[45.1565,32.3902,18.3968],[45.1518,32.3828,18.0946],[45.1444,32.3758,17.9692],[45.1304,32.3661,18.0142],[45.1025,32.3506,20.338],[45.0495,32.3249,19.6009],[45.035,32.3157,20.0293],[44.9977,32.2852,20.0461],[44.9317,32.2278,20.9369],[44.856,32.1797,23.7907],[44.8419,32.1736,22.5708],[44.8332,32.172,22.3987],[44.8119,32.1732,22.5239],[44.7879,32.1777,22.4002],[44.7766,32.1782,24.1952],[44.7675,32.176,21.0976],[44.7591,32.1701,22.1493],[44.7535,32.1586,21.7252],[44.7583,32.1199,20.5015],[44.7571,32.1034,21.6573],[44.7514,32.0903,20.5092],[44.7451,32.0829,20.5912],[44.733,32.0745,20.516],[44.7116,32.0663,20.2057],[44.7015,32.0648,21.4863],[44.6805,32.0651,20.2263],[44.6529,32.0697,20.0952],[44.6024,32.0817,22.6586],[44.5844,32.0837,22.0453],[44.5782,32.0738,20.3101],[44.5752,32.0605,21.8779],[44.5622,32.047,22.2459],[44.5457,32.0389,24.715699999999998],[44.5236,32.0317,21.0074],[44.4975,32.0151,20.7614],[44.4779,31.9874,20.6865],[44.4685,31.9586,19.1879],[44.4642,31.9322,22.9861],[44.4686,31.8885,17.1473],[44.4734,31.8692,19.3279],[44.4848,31.8472,19.0212],[44.5018,31.8238,19.2322],[44.5136,31.8035,18.6435],[44.5198,31.787,20.6967],[44.5214,31.7775,18.5671],[44.5215,31.7677,20.532],[44.5192,31.753,19.1574],[44.5029,31.7067,16.8863],[44.4949,31.6699,15.7225],[44.4897,31.6142,15.9984],[44.4874,31.597,18.2731],[44.4855,31.5923,19.8816],[44.4787,31.5862,27.0263],[44.4625,31.5781,33.2443],[44.4091,31.566,50.9379],[44.3926,31.5568,53.6196],[44.3849,31.5491,58.8159],[44.3803,31.5401,63.2647],[44.3774,31.5286,78.6759],[44.3769,31.5179,78.0018],[44.3816,31.4974,88.7049],[44.3883,31.4837,96.386],[44.4018,31.4642,96.6629],[44.411,31.4555,92.0595],[44.4387,31.4342,86.0328],[44.4643,31.4212,85.7745],[44.4993,31.4141,79.1351],[44.555,31.4076,67.63],[44.5989,31.3997,55.7416],[44.6438,31.3898,47.8048],[44.6561,31.3862,45.8354],[44.6627,31.3814,50.5689],[44.7001,31.3728,52.2519],[44.743899999999996,31.3548,36.1149],[44.8104,31.3094,39.4486],[44.8634,31.2692,34.7414],[44.8767,31.2626,36.9327],[44.8953,31.2581,32.6543],[44.9243,31.2567,25.5647]]]]}}