{"type":"Feature","properties":{"ISO3166-1-Alpha-3":"IRQ","country":"Iraq","fill":"#F0F","id":"3224","name":"Al-Qadisiyah"},
"geometry":{"type": "Polygon","coordinates": [[[45.19841,32.39443,18.2347],[45.18373,32.39508,18.0551],[45.17516,32.39314,18.0251],[45.161,32.38846,18.4714],[45.11635,32.36552,17.7974],[45.10436,32.35792,19.0008],[45.09216,32.34539,20.2411],[45.08534,32.33999,20.7149],[44.99935,32.29129,20.132],[44.93507,32.26909,19.9362],[44.89124,32.24062,22.1248],[44.86189,32.21703,22.5168],[44.85507,32.21372,20.9328],[44.84887,32.2163,22.028199999999998],[44.8375,32.22615,22.7113],[44.83171,32.23026,22.6251],[44.82572,32.23075,23.3477],[44.81838,32.22788,25.935],[44.80867,32.21899,23.4753],[44.80288,32.2102,23.2192],[44.79998,32.20325,23.9361],[44.80164,32.19863,23.9136],[44.80598,32.19437,23.7841],[44.81394,32.18827,24.0295],[44.81528,32.1791,24.1984],[44.81456,32.17176,22.6653],[44.81032,32.16628,21.3314],[44.80495,32.16251,21.0664],[44.78986,32.15489,22.1098],[44.78396,32.1508,21.9423],[44.76474,32.13075,21.1778],[44.75802,32.1254,20.4826],[44.74965,32.12145,21.2886],[44.74025,32.11884,19.8952],[44.72826,32.11871,20.5278],[44.71523,32.12279,21.0423],[44.65994,32.15135,20.0288],[44.62987,32.15946,21.1535],[44.61519,32.11923,19.4074],[44.61188,32.1152,19.0862],[44.60764,32.11104,19.2697],[44.60289,32.11088,18.4501],[44.59669,32.1098,18.3782],[44.58656,32.1044,20.8116],[44.58398,32.09918,21.5408],[44.58408,32.09308,21.0722],[44.5878,32.08644,21.965],[44.59245,32.08021,20.7331],[44.59855,32.0752,22.4341],[44.60733,32.06921,20.9558],[44.61333,32.06267,21.6875],[44.61312,32.0582,20.6325],[44.60785,32.0551,22.1717],[44.57902,32.0458,21.611],[44.54253,32.02507,24.6697],[44.523,32.01841,21.0393],[44.51494,32.0083,20.7935],[44.50657,31.98409,20.6992],[44.49954,31.95273,19.5595],[44.53302,31.81108,17.9768],[44.52899,31.77858,20.6473],[44.52837,31.71553,16.9266],[44.54171,31.64078,14.8763],[44.52217,31.61699,14.4373],[44.50502,31.62559,14.9372],[44.47763,31.63458,14.7667],[44.45644,31.63019,16.5392],[44.43422,31.60872,32.4066],[44.42926,31.58531,40.9642],[44.45086,31.55141,44.8862],[44.51597,31.48562,56.5129],[44.53457,31.47529,48.9615],[44.72691,31.40746,27.3911],[44.89724,31.3,16.9613],[44.97827,31.26264,20.2776],[44.99935,31.36669,13.8987],[45.06209,31.51327,11.7939],[45.0932,31.56546,13.4321],[45.1086,31.6014,14.1755],[45.11015,31.61637,14.2964],[45.08803,31.62512,14.7159],[45.08131,31.63512,14.9026],[45.07666,31.6467,15.1084],[45.07046,31.65561,15.4787],[45.06364,31.65908,15.3817],[45.04586,31.66473,15.7857],[45.03625,31.66926,15.9148],[45.02488,31.6792,16.368],[45.04803,31.68148,16.1813],[45.20988,31.71458,13.0531],[45.22011,31.72964,13.3004],[45.29205,31.7276,12.7339],[45.53606,31.68672,10.1277],[45.71311,31.63719,8.7072],[45.75579,31.63768,9.4957],[45.7775,31.64388,9.0097],[45.78576,31.65153,9.0163],[45.75827,31.7839,9.5467],[45.71838,31.88826,10.2892],[45.71745,31.90888,10.2963],[45.719,31.92319,10.0949],[45.72572,31.94779,9.2677],[45.67859,32.0406,11.7352],[45.67807,32.04688,11.6486],[45.68179,32.05145,11.5157],[45.68913,32.0568,11.4769],[45.68603,32.06892,11.7299],[45.61709,32.08621,12.5558],[45.55405,32.106,11.5],[45.53813,32.11484,11.9519],[45.52852,32.12719,13.4725],[45.51622,32.146,13.6549],[45.49793,32.16682,13.8136],[45.3985,32.24651,14.5938],[45.38351,32.26129,15.1995],[45.37814,32.2763,15.006],[45.38062,32.29046,15.1561],[45.39385,32.31738,14.6254],[45.3955,32.32681,14.0],[45.39189,32.33508,15.2361],[45.36987,32.34069,14.0],[45.3584,32.35562,14.0],[45.28781,32.36278,15.8561],[45.26269,32.37187,16.1914],[45.25629,32.38779,16.3862],[45.19841,32.39443,18.2347]]]}}