{"type":"Feature","properties":{"featurecla":"River","scalerank":7,"rivernum":619,"dissolve":"619River","name":"Hindiyah","name_alt":null,"note":null,"min_zoom":6.0,"strokeweig":0.25,"name_en":"Hindiyah Channel","min_label":7.0},
"geometry":{"type": "LineString","coordinates": [[44.353906250000023,32.240985418744117,25.6643],[44.358789062500023,32.21039459843162,25.0731],[44.373925781250023,32.180780340619116,23.5764],[44.377685546875,32.159051824994116,23.7474],[44.384960937500011,32.141717840619116,23.886],[44.401757812500023,32.124042059369117,23.1089],[44.433007812500023,32.100702215619116,25.4773],[44.497314453125,32.079120184369117,22.7834],[44.512304687500006,32.06659577030662,22.7277],[44.521582031250006,32.060907293744116,23.5405],[44.531005859375,32.053094793744116,22.5897],[44.535400390625,32.04328034061912,22.8783],[44.536376953125,32.02985260624412,22.8725],[44.539453125000023,32.02069733280662,21.9615],[44.549707031250023,32.005731512494116,22.9968],[44.556396484375,31.99945709843162,22.5374],[44.5771484375,31.98419830936912,22.521],[44.583740234375,31.977801824994117,21.3145],[44.5888671875,31.96515534061912,21.7488],[44.588281250000023,31.95465729374412,20.3211],[44.58544921875,31.944598699994117,19.2623],[44.583740234375,31.933124090619117,19.0902],[44.597363281250011,31.90546295780662,20.4276],[44.598535156250023,31.89118073124412,21.3139],[44.601318359375,31.883319403119117,19.4795],[44.611083984375,31.867938543744117,19.2887],[44.614355468750006,31.86615631718162,19.3885],[44.621191406250006,31.863544012494117,19.1534],[44.6279296875,31.859881903119117,18.8189],[44.631445312500006,31.85492584843162,20.1176],[44.629003906250006,31.85065338749412,19.3033],[44.615478515625,31.844354559369116,17.98],[44.611083984375,31.84064362186912,18.1123],[44.606542968750006,31.83429596561912,17.7737],[44.602294921875,31.82977936405662,18.0533],[44.598876953125,31.82294342655662,18.7101],[44.597363281250011,31.80988190311912,18.296],[44.601953125000023,31.78925202030662,17.8885],[44.609375,31.774920965619117,17.4731],[44.6109375,31.76178619999412,17.0008],[44.597363281250011,31.74506256718162,16.2955],[44.572265625,31.72479889530662,14.5734],[44.566796875000023,31.712762762494116,19.0265],[44.562597656250006,31.67499420780662,15.7691],[44.563232421875,31.61469147343162,14.8307]]}}