{"type":"Feature","properties":{"featurecla":"River","scalerank":3,"rivernum":62,"dissolve":"62River","name":"Euphrates3","name_alt":null,"note":null,"min_zoom":3.0,"strokeweig":0.6,"name_en":"Euphrates","min_label":4.0},
"geometry":{"type": "LineString","coordinates": [[44.27880859375,32.785174871869117,33.2726],[44.270605468750006,32.759637762494116,32.6778],[44.265869140625,32.73529694218162,33.6737],[44.265039062500023,32.724481512494116,31.8206],[44.255615234375,32.716180731244116,35.5943],[44.2203125,32.607684637494117,32.3363],[44.222558593750023,32.57025787968162,28.9246],[44.239160156250023,32.53632233280662,29.1919],[44.29541015625,32.466571356244117,26.9371],[44.302441406250011,32.44647858280662,30.2156],[44.29296875,32.42658112186912,25.9406],[44.287988281250023,32.41010162968162,24.7863],[44.29541015625,32.38922760624412,23.0237],[44.316308593750023,32.35455963749412,26.8633],[44.33359375,32.29584381718162,25.4476],[44.340429687500006,32.286249090619116,28.7776],[44.354296875000017,32.27460358280662,24.2436],[44.353906250000023,32.24823639530662,26.7117],[44.343505859375,32.203729559369116,23.1945],[44.344628906250023,32.18292877811912,24.0582],[44.357177734375,32.118036199994116,26.592],[44.3609375,32.11200592655662,27.531],[44.388085937500023,32.088495184369116,26.6069],[44.39208984375,32.076044012494116,26.7284],[44.394921875000023,32.06232330936912,26.9081],[44.398193359375,32.05292389530662,25.4738],[44.430566406250023,32.021258856244117,22.9457],[44.446679687500023,32.00189850468162,24.1712],[44.453320312500011,31.98090241093162,25.5552],[44.454833984375,31.97247955936912,23.5459],[44.458251953125,31.96369049686912,21.2144],[44.463623046875,31.95502350468162,22.4074],[44.470458984375,31.946795965619117,19.0195],[44.477783203125,31.935663153119116,20.9933],[44.479394531250023,31.925653387494116,20.0206],[44.479101562500006,31.915057684369117,26.4555],[44.485449218750006,31.87885162968162,19.8781],[44.487548828125,31.816424871869117,19.7923],[44.491308593750006,31.799335028119117,22.3803],[44.498925781250023,31.783221746869117,19.4105],[44.504150390625,31.76593659061912,19.0249],[44.501220703125,31.74506256718162,17.5773],[44.496484375000023,31.74030182499412,17.2748],[44.47900390625,31.726825262494117,17.1111],[44.473876953125,31.71771881718162,16.8195],[44.47421875,31.704461981244116,18.6227],[44.48486328125,31.686297918744117,16.3389],[44.487548828125,31.672723699994116,15.5369],[44.494238281250006,31.65924713749412,15.1626],[44.510498046875,31.64459869999412,13.3748],[44.549707031250023,31.62091705936912,16.2694],[44.614013671875,31.600116278119117,11.4675],[44.624609375,31.590448309369116,10.6969],[44.626855468750023,31.577411199994117,17.8707],[44.632421875,31.571649481244116,16.9197],[44.64013671875,31.568475653119116,11.7642],[44.648681640625,31.562860418744116,16.7757],[44.679296875,31.52533600468162,16.74],[44.692773437500023,31.51618073124412,13.4009],[44.73974609375,31.495233465619116,14.4401],[44.758544921875,31.49115631718162,13.2143],[44.7646484375,31.48688385624412,12.9658],[44.769775390625,31.47882721561912,15.3041]]}}