{"type":"Feature","properties":{"GID_1":"IRQ.13_1","GID_0":"IRQ","country":"Iraq","province":"Diyala","VARNAME_1":"NA","NL_NAME_1":"NA","TYPE_1":"Muhafazah","ENGTYPE_1":"Province","CC_1":"NA","HASC_1":"IQ.DI","ISO_1":"IQ-DI","name":"Diyala.province"},
"geometry":{"type": "MultiPolygon","coordinates": [[[[44.5298,33.3072,34.2977],[44.5313,33.2966,33.0197],[44.5243,33.2781,31.5435],[44.5128,33.2034,34.022],[44.5066,33.1883,29.8015],[44.499,33.181,30.4729],[44.4992,33.1645,34.4807],[44.502,33.1554,31.958],[44.5072,33.149,30.3269],[44.5343,33.1247,29.8639],[44.5454,33.1083,31.0722],[44.5587,33.0612,29.9581],[44.5819,33.0529,31.1218],[44.6463,33.019,29.1899],[44.6622,33.0157,28.3608],[44.6727,33.0164,27.0],[44.6825,33.0194,28.3484],[44.6905,33.0248,28.7104],[44.6991,33.0342,28.4271],[44.7129,33.0544,27.1556],[44.7257,33.068,27.3809],[44.7804,33.1042,27.9388],[44.8172,33.136,28.903199999999998],[44.8385,33.144,29.4516],[44.8505,33.1455,28.2718],[44.882,33.1405,28.2437],[44.963,33.1184,30.7409],[45.3299,33.0418,20.373],[45.4082,33.0241,20.293],[45.42,33.0207,20.1935],[45.4376,33.0122,19.9324],[45.5006,33.029,20.5267],[45.5187,33.0369,20.8539],[45.5357,33.0483,21.8023],[45.5878,33.0977,25.0863],[45.6156,33.1285,26.5482],[45.6351,33.1567,29.3786],[45.6655,33.2077,35.7677],[45.6875,33.2332,38.7822],[45.7305,33.2694,45.0364],[45.8265,33.3419,62.0621],[45.8595,33.3638,78.508],[45.9047,33.3866,113.4547],[45.9212,33.4008,138.2143],[45.9391,33.4244,163.5889],[45.9445,33.4344,159.2665],[45.9503,33.4517,181.0748],[45.9514,33.4647,200.002],[45.9477,33.485,301.7966],[45.9203,33.4838,301.5957],[45.8787,33.4869,212.9857],[45.874,33.4879,187.2477],[45.8713,33.4909,180.2479],[45.8724,33.4948,183.3907],[45.8788,33.4996,181.8591],[45.9379,33.5318,311.4482],[45.9502,33.5467,522.2529],[45.9516,33.5523,503.0271],[45.95,33.5648,479.039],[45.9385,33.5818,476.6469],[45.9285,33.5905,530.822],[45.9063,33.601,602.0241],[45.9102,33.623,392.5126],[45.907,33.6261,370.4971],[45.9008,33.6273,393.4318],[45.8794,33.6242,359.4035],[45.8629,33.6238,309.8668],[45.8434,33.6256,287.1399],[45.8169,33.6171,204.6255],[45.7822,33.5965,155.1996],[45.7659,33.59,136.2579],[45.7594,33.591,129.2281],[45.7552,33.5935,127.4381],[45.7543,33.6022,136.6872],[45.7748,33.6137,167.3744],[45.7772,33.6162,174.3608],[45.7772,33.6229,182.3006],[45.7668,33.6355,197.3948],[45.7101,33.6744,154.3434],[45.6831,33.7005,137.6136],[45.662,33.7262,145.9717],[45.659,33.754,173.4023],[45.6543,33.7648,205.0744],[45.6442,33.7774,289.3798],[45.6168,33.7973,221.6517],[45.6105,33.8097,201.556],[45.5976,33.8253,283.6032],[45.5872,33.8438,262.4365],[45.5535,33.8825,318.2649],[45.5414,33.9013,336.9544],[45.5247,33.9318,239.9607],[45.5163,33.9385,267.6027],[45.5062,33.9409,272.6557],[45.4812,33.9327,235.3273],[45.4717,33.9325,214.1822],[45.4586,33.9349,198.7272],[45.4446,33.9413,184.3224],[45.4313,33.9579,169.6002],[45.4128,33.9716,138.9167],[45.418,33.9748,142.172],[45.4406,33.9819,163.631],[45.4469,33.9855,168.986],[45.4549,34.0016,146.0132],[45.4788,34.0138,160.9281],[45.4774,34.0311,183.2457],[45.4796,34.0347,178.1582],[45.484,34.0372,179.7013],[45.4829,34.0543,170.4901],[45.4774,34.0583,165.1141],[45.479,34.0651,188.6392],[45.4841,34.0722,193.5585],[45.4991,34.0814,233.2461],[45.5026,34.0934,209.2517],[45.5097,34.1027,243.726],[45.5188,34.11,232.7643],[45.538,34.1144,305.7067],[45.5438,34.1212,301.888],[45.5501,34.1247,260.3835],[45.5586,34.1255,284.4706],[45.5724,34.1344,275.0268],[45.5804,34.1433,333.4987],[45.5812,34.1478,339.7968],[45.5778,34.1575,314.4112],[45.5657,34.1797,300.0558],[45.5716,34.2008,335.3777],[45.5794,34.2151,343.8503],[45.5911,34.2482,373.9471],[45.5934,34.2596,374.4387],[45.5944,34.28,373.1301],[45.5879,34.3027,358.42],[45.5751,34.3274,330.7368],[45.5595,34.3447,325.3336],[45.5481,34.3491,313.8073],[45.5275,34.3487,232.6516],[45.5197,34.3465,242.8831],[45.5145,34.3422,236.5797],[45.5034,34.3268,229.7686],[45.493,34.3396,242.8415],[45.4916,34.3478,263.2211],[45.4774,34.3736,254.2185],[45.4714,34.4001,286.7119],[45.4635,34.4242,316.1775],[45.4544,34.4366,334.3559],[45.4532,34.4576,351.6908],[45.4657,34.4651,356.1482],[45.4702,34.4695,389.0642],[45.4767,34.4691,408.3684],[45.4867,34.4629,396.9498],[45.5001,34.4625,442.5456],[45.5117,34.465,472.2736],[45.517,34.468,495.4425],[45.5208,34.4722,505.0064],[45.5315,34.4915,494.7181],[45.5384,34.5143,432.0435],[45.5366,34.5299,457.45],[45.5247,34.5499,427.2651],[45.5241,34.5625,384.7419],[45.5274,34.5739,363.1441],[45.536,34.5915,305.2525],[45.54,34.5934,302.6901],[45.552,34.5926,300.6615],[45.5799,34.5655,328.74],[45.5959,34.5574,335.5842],[45.6168,34.5521,346.6094],[45.629,34.5516,355.7643],[45.644,34.5584,372.4845],[45.647,34.5584,377.8061],[45.6523,34.5549,370.9715],[45.66,34.554,373.7269],[45.6873,34.5589,393.5824],[45.706,34.5562,435.6057],[45.7219,34.5447,452.2175],[45.7355,34.5397,443.9759],[45.7483,34.5416,482.3842],[45.7501,34.5466,477.7966],[45.7451,34.56,546.9103],[45.749,34.5779,679.4318],[45.7432,34.5879,627.6458],[45.7347,34.6122,632.7415],[45.7368,34.6195,623.7659],[45.7367,34.6284,598.9216],[45.7275,34.6561,571.5557],[45.7212,34.6667,562.0606],[45.7136,34.6685,767.1404],[45.7104,34.687,596.0333],[45.7082,34.6899,622.8353],[45.6909,34.7052,553.0704],[45.6771,34.713,667.5056],[45.6743,34.7169,626.7086],[45.6757,34.7241,607.9375],[45.6862,34.7384,539.5215],[45.6863,34.7504,520.3918],[45.6881,34.7536,509.1241],[45.7087,34.7697,516.6298],[45.7106,34.7744,537.1638],[45.7003,34.7943,761.3433],[45.6988,34.8084,820.8466],[45.7011,34.812,693.0707],[45.7375,34.8312,482.1864],[45.722,34.8808,498.6896],[45.7157,34.9071,565.9923],[45.7131,34.9732,684.3832],[45.7089,35.0145,579.5723],[45.7038,35.0369,586.7509],[45.6908,35.0728,370.4977],[45.6901,35.0786,389.3542],[45.679,35.0843,437.1684],[45.668,35.0876,532.7598],[45.6529,35.0867,795.1566],[45.6391,35.0817,638.5554],[45.6261,35.071,479.594],[45.6006,35.0439,652.4557],[45.5621,35.007,584.0338],[45.5689,34.9546,406.4566],[45.5677,34.942,385.8494],[45.5619,34.9274,393.5726],[45.5482,34.911,427.3645],[45.5117,34.8819,380.132],[45.4988,34.8673,470.9193],[45.4872,34.8511,492.9695],[45.4455,34.7837,314.6253],[45.4115,34.7125,305.0444],[45.3885,34.6763,294.0081],[45.3742,34.6602,294.4665],[45.3648,34.6535,282.3165],[45.3132,34.6274,224.5356],[45.2902,34.6124,213.3069],[45.2647,34.5918,213.9413],[45.231,34.5614,194.2217],[45.2134,34.5486,206.1807],[45.2056,34.5531,201.7841],[45.1925,34.5669,209.3116],[45.1833,34.5858,219.8976],[45.1805,34.5999,244.4065],[45.1783,34.6286,309.0166],[45.1801,34.7017,317.8589],[45.1745,34.7233,362.8224],[45.1643,34.7389,377.9819],[45.1503,34.7516,386.1376],[45.1368,34.76,403.0871],[45.1038,34.7713,380.9684],[45.0939,34.7755,383.6307],[45.0855,34.7812,386.7253],[45.0764,34.7904,391.3474],[45.0538,34.8194,403.6049],[45.0462,34.8246,413.3167],[45.0301,34.828,408.0803],[44.9876,34.8232,382.342],[44.9665,34.8259,442.7026],[44.9399,34.8362,436.5186],[44.9284,34.8434,437.713],[44.9184,34.8522,448.1292],[44.8693,34.8261,354.2735],[44.8318,34.8097,308.7232],[44.8157,34.8006,272.8904],[44.8106,34.7952,269.3258],[44.8057,34.7863,283.3317],[44.7898,34.7426,189.1115],[44.7791,34.7279,186.1635],[44.7642,34.7174,181.1656],[44.7112,34.6981,199.9621],[44.7015,34.6922,218.5472],[44.6942,34.6853,217.1033],[44.6838,34.6668,189.2032],[44.681,34.6538,169.8737],[44.682,34.6168,149.1293],[44.6808,34.6022,144.3007],[44.6747,34.5897,145.5157],[44.6606,34.5754,144.0194],[44.6474,34.5672,161.2826],[44.6265,34.5574,173.0428],[44.6098,34.5512,190.3057],[44.5907,34.5467,175.1915],[44.5786,34.5463,149.2359],[44.5665,34.548,148.5276],[44.5301,34.5576,129.7971],[44.5051,34.5611,96.0312],[44.4946,34.5584,102.3365],[44.4861,34.5532,108.1738],[44.4784,34.5459,111.4139],[44.4697,34.5334,112.5744],[44.4621,34.5144,100.3565],[44.454,34.4777,93.9197],[44.4566,34.4714,94.1238],[44.4578,34.4602,88.78],[44.4578,34.3899,84.4093],[44.4545,34.3783,83.9926],[44.4518,34.3508,83.7663],[44.4501,34.275,76.9046],[44.4451,34.2484,74.6319],[44.4354,34.2322,73.3157],[44.4281,34.2244,68.9992],[44.3906,34.1935,66.96],[44.3774,34.18,57.4156],[44.361,34.1511,57.4513],[44.3268,34.107,48.9293],[44.3018,34.0662,52.8902],[44.2812,34.043,49.6998],[44.2802,34.0348,43.6617],[44.2816,34.0246,37.3804],[44.2854,34.0144,38.7882],[44.2986,33.9942,50.2388],[44.3067,33.9865,50.5583],[44.3205,33.9778,47.7937],[44.3687,33.958,49.1087],[44.3828,33.9505,49.5043],[44.3906,33.944,49.6631],[44.3986,33.9339,49.0354],[44.4112,33.9066,48.1014],[44.4157,33.882,46.8626],[44.4131,33.857,44.3498],[44.4057,33.8386,44.3884],[44.3895,33.8083,35.7413],[44.382,33.79,37.9641],[44.3782,33.773,43.3623],[44.3764,33.7317,40.2121],[44.3844,33.7317,40.4439],[44.3949,33.7081,38.5728],[44.3971,33.6912,45.3049],[44.3925,33.6482,37.9752],[44.3862,33.6167,38.2225],[44.3779,33.6028,37.7581],[44.3377,33.5769,37.1889],[44.3264,33.5637,30.0],[44.3207,33.5527,38.0279],[44.3168,33.5388,36.5107],[44.316,33.5124,40.4998],[44.3304,33.5074,34.9093],[44.3537,33.495,34.8027],[44.404,33.4511,34.0978],[44.4285,33.4391,33.6426],[44.4409,33.4359,35.4003],[44.4561,33.4345,33.6517],[44.4714,33.4352,34.5848],[44.4862,33.4381,35.7507],[44.5186,33.4497,35.4772],[44.5269,33.4506,31.9523],[44.5393,33.4484,37.556],[44.5455,33.4453,38.4423],[44.5527,33.4388,36.9798],[44.5568,33.4303,38.7022],[44.5593,33.4165,36.1697],[44.5593,33.4013,36.0341],[44.5569,33.3856,36.336],[44.5529,33.3724,35.7151],[44.5329,33.3238,35.454],[44.5298,33.3072,34.2977]]]]}}