{"type":"Feature","properties":{"ISO3166-1-Alpha-3":"IRQ","country":"Iraq","fill":"#00F","id":"3243","name":"Diyala"},
"geometry":{"type": "Polygon","coordinates": [[[45.79621,34.90304,1378.2678],[45.7962,34.90306,1378.2678],[45.78979,34.91423,1616.1244],[45.78029,35.00598,1027.9452],[45.78153,35.01282,946.3586],[45.7839,35.01448,880.4087],[45.78669,35.01406,894.2634],[45.79434,35.01468,820.4724],[45.79837,35.01432,807.4514],[45.80282,35.01293,776.2965],[45.80674,35.01226,766.7148],[45.81171,35.01233,752.7147],[45.81615,35.01324,725.8256],[45.82008,35.01443,717.8066],[45.82318,35.01608,701.4047],[45.81243,35.03042,738.5233],[45.74401,35.09003,1014.2201],[45.73843,35.09726,916.28],[45.73378,35.10124,882.0707],[45.72613,35.10664,813.8535],[45.71951,35.11003,734.9762],[45.713,35.10992,661.8558],[45.70711,35.1068,610.2988],[45.69822,35.09892,401.2195],[45.69688,35.09375,393.7764],[45.69605,35.08698,383.7203],[45.69233,35.08186,377.7487],[45.68696,35.07561,375.5137],[45.67621,35.06528,372.4058],[45.67104,35.05876,367.0988],[45.66691,35.0507,361.4963],[45.66422,35.04693,368.8273],[45.65616,35.04378,392.2248],[45.65337,35.04233,389.5257],[45.65047,35.04011,357.3331],[45.64799,35.03908,356.3299],[45.64644,35.0397,355.5],[45.64624,35.04171,358.8729],[45.64644,35.04461,354.5],[45.64562,35.04678,355.171],[45.64334,35.04864,357.2373],[45.64004,35.04753,357.8108],[45.63621,35.04435,354.6184],[45.63011,35.03525,377.9469],[45.62753,35.0299,379.7638],[45.62815,35.02197,353.9934],[45.63073,35.0197,345.4903],[45.63353,35.01918,345.7242],[45.63683,35.02029,347.5848],[45.639,35.02076,343.2245],[45.64055,35.01913,344.9373],[45.63942,35.0159,343.1245],[45.63508,35.00848,353.2536],[45.6266,35.00412,338.8116],[45.62257,34.99996,338.2661],[45.61916,34.98564,331.5221],[45.60934,34.97851,331.5961],[45.61151,34.97257,329.445],[45.6144,34.97187,326.5948],[45.62391,34.97125,337.9922],[45.62763,34.97063,324.8268],[45.63063,34.96939,325.827],[45.63218,34.96761,325.2661],[45.63249,34.96544,323.4883],[45.63228,34.96259,322.4336],[45.63228,34.95996,320.8661],[45.6297,34.9536,320.8148],[45.62443,34.9444,324.3219],[45.60138,34.91407,307.5],[45.59322,34.90498,306.8808],[45.56748,34.8857,299.3916],[45.56449,34.88549,299.2967],[45.56118,34.88606,298.1047],[45.55808,34.88575,298.3056],[45.55549,34.88374,297.6111],[45.55467,34.87841,294.5073],[45.5527,34.87345,295.6111],[45.54836,34.86725,297.2426],[45.53854,34.85844,292.6995],[45.531,34.84317,287.3072],[45.52759,34.83149,285.3976],[45.51922,34.81309,282.5003],[45.51777,34.80896,277.5956],[45.5156,34.80581,276.8189],[45.50971,34.80353,277.0201],[45.50485,34.80023,273.7041],[45.5002,34.79514,275.2206],[45.48718,34.76679,280.1463],[45.47622,34.75067,262.3682],[45.4726,34.74338,259.2246],[45.47043,34.73791,258.2865],[45.47033,34.73488,257.371],[45.46919,34.73077,256.543],[45.46909,34.72711,253.5157],[45.4694,34.72375,254.5024],[45.47033,34.72106,252.0169],[45.47095,34.71837,253.4539],[45.47043,34.71553,253.0989],[45.46785,34.70801,249.512],[45.46537,34.70315,254.6321],[45.4539,34.6869,244.6253],[45.45059,34.6776,242.8574],[45.45028,34.67468,240.4237],[45.44935,34.67202,241.3599],[45.44449,34.66693,239.118],[45.43736,34.66204,237.3729],[45.41876,34.65339,231.6671],[45.40853,34.65,229.8344],[45.39974,34.6483,226.2563],[45.39354,34.6482,224.6769],[45.38351,34.64634,223.3436],[45.37979,34.64605,222.3779],[45.37235,34.64654,222.4735],[45.35902,34.63701,217.6028],[45.25009,34.52887,179.5614],[45.21732,34.5128,177.7892],[45.21453,34.52831,195.6317],[45.21267,34.53301,188.2018],[45.21009,34.53606,190.9947],[45.20606,34.53665,186.6391],[45.20296,34.53668,194.2239],[45.19934,34.53709,197.4017],[45.19159,34.53921,193.8812],[45.18869,34.5412,190.8009],[45.18632,34.54562,192.2419],[45.18621,34.54949,193.7149],[45.19345,34.56045,201.0074],[45.19624,34.56706,205.167],[45.19779,34.57316,209.7404],[45.198,34.57866,214.1129],[45.19717,34.58368,218.5297],[45.19117,34.59861,240.1823],[45.18993,34.60463,252.4727],[45.18962,34.61047,270.5288],[45.19097,34.61517,280.3324],[45.19376,34.61962,303.4037],[45.20761,34.63236,283.4316],[45.21205,34.63763,277.8856],[45.2136,34.64148,277.2718],[45.2136,34.64577,281.4311],[45.20234,34.67127,282.7037],[45.19676,34.69403,310.4195],[45.19583,34.70091,319.761],[45.19562,34.70556,327.6996],[45.19624,34.71041,330.7251],[45.19614,34.71667,340.1391],[45.1919,34.7392,389.8094],[45.18911,34.77457,440.2757],[45.1857,34.78364,458.7657],[45.17733,34.79434,460.8719],[45.16957,34.80227,475.3266],[45.15603,34.81178,481.9932],[45.14611,34.81604,521.5509],[45.13361,34.81937,491.5575],[45.11232,34.82147,451.7469],[45.10084,34.82051,456.0901],[45.09196,34.81847,445.2026],[45.0686,34.8071,400.4567],[45.06281,34.80565,390.9815],[45.05599,34.80695,387.3074],[45.04958,34.81098,394.9575],[45.03997,34.8216,399.157],[45.0192,34.83873,432.7585],[44.96597,34.86748,523.3476],[44.91863,34.8317,386.1068],[44.88577,34.81775,348.2663],[44.85972,34.80937,309.3463],[44.84804,34.80173,290.0174],[44.84153,34.79387,305.9597],[44.84091,34.78726,291.1107],[44.84205,34.78085,276.0643],[44.84277,34.77253,257.7608],[44.83864,34.7615,248.7124],[44.8252,34.743,206.3946],[44.80588,34.72664,192.9342],[44.79161,34.71703,186.6156],[44.77931,34.71269,184.9597],[44.7511,34.70579,177.1377],[44.73063,34.6962,188.9531],[44.72102,34.68897,193.454],[44.71627,34.68248,203.4717],[44.71627,34.67662,220.4845],[44.71834,34.67047,219.4705],[44.72257,34.66411,199.8603],[44.72733,34.65819,202.4921],[44.73063,34.64644,186.2094],[44.72908,34.63176,170.7151],[44.71337,34.60419,146.5562],[44.70077,34.58996,137.954],[44.6865,34.57859,143.1089],[44.67007,34.56934,141.269],[44.65302,34.55724,155.2978],[44.64196,34.54639,177.291],[44.63545,34.53637,193.9629],[44.63038,34.52438,183.7458],[44.62738,34.52404,178.3123],[44.62211,34.52673,177.173],[44.58563,34.55399,158.0768],[44.57478,34.55988,150.4558],[44.56599,34.56334,137.938],[44.55059,34.56634,114.5],[44.53075,34.57321,114.5],[44.52186,34.57735,114.5],[44.51773,34.57554,114.5],[44.50605,34.56296,102.403],[44.50388,34.5575,113.7121],[44.50295,34.55363,96.9214],[44.50233,34.54427,88.8872],[44.51752,34.51187,90.2439],[44.51711,34.50629,86.1292],[44.51463,34.49875,84.5646],[44.50264,34.48976,82.8512],[44.5014,34.48712,82.0358],[44.50264,34.48609,82.3958],[44.50533,34.48614,82.268],[44.50905,34.48479,86.2342],[44.51277,34.48159,87.6196],[44.51721,34.47368,82.2755],[44.51618,34.46991,80.9883],[44.51277,34.46728,79.0531],[44.50315,34.46477,79.378],[44.49923,34.46446,78.193],[44.49458,34.46366,83.2973],[44.49065,34.46097,78.2553],[44.486,34.45418,77.604],[44.48527,34.45046,76.2221],[44.486,34.44888,77.2923],[44.48786,34.44976,76.6885],[44.49034,34.45141,75.4946],[44.49282,34.45208,75.6198],[44.49613,34.45043,76.4557],[44.49561,34.4481,76.6479],[44.49344,34.44534,77.7453],[44.48879,34.44074,78.1309],[44.48879,34.43785,78.1684],[44.49086,34.43601,75.5177],[44.49468,34.43539,75.4399],[44.49799,34.43601,76.629],[44.50357,34.43891,77.4483],[44.50667,34.43924,74.959],[44.50967,34.43738,75.9102],[44.50905,34.43467,74.5263],[44.50719,34.43126,74.4997],[44.50377,34.42196,75.0749],[44.5014,34.41873,73.2381],[44.49468,34.41286,77.5161],[44.49582,34.40924,71.0577],[44.49819,34.40433,77.4195],[44.5016,34.39441,76.9712],[44.50109,34.38635,73.0138],[44.49437,34.3677,70.1082],[44.48445,34.34987,68.7932],[44.4767,34.33979,68.6353],[44.4767,34.33545,68.6415],[44.47949,34.32971,69.1546],[44.48507,34.323,68.1376],[44.49427,34.31431,67.7725],[44.50191,34.30917,67.7547],[44.50905,34.30592,67.5098],[44.52062,34.29393,66.0308],[44.50698,34.28646,65.126],[44.50967,34.26662,64.5387],[44.50884,34.26269,63.9913],[44.50533,34.26018,64.8104],[44.50036,34.25871,63.9698],[44.49282,34.25458,63.241],[44.49096,34.24905,61.8178],[44.49117,34.23075,62.3099],[44.4891,34.22662,62.0535],[44.48631,34.22569,61.7818],[44.48321,34.2277,61.5689],[44.47763,34.23295,61.045],[44.47453,34.23341,61.56],[44.47039,34.23148,59.7142],[44.46646,34.22889,60.7705],[44.46305,34.22719,60.6376],[44.45954,34.2267,59.4002],[44.44807,34.22626,59.6341],[44.43918,34.22362,57.7303],[44.43525,34.2214,57.3843],[44.41448,34.1959,57.8729],[44.41045,34.18864,56.6256],[44.40797,34.1805,56.9582],[44.4058,34.17753,55.5268],[44.4027,34.17598,58.7955],[44.39949,34.17623,58.0802],[44.39763,34.17732,56.1998],[44.39732,34.17879,56.333],[44.3998,34.18352,55.2567],[44.39949,34.18639,54.1572],[44.39763,34.18859,55.8592],[44.39174,34.18776,55.4867],[44.38833,34.18422,53.6098],[44.3843,34.17864,54.2726],[44.38141,34.17226,55.6079],[44.37727,34.16915,55.1819],[44.37293,34.16776,52.7044],[44.36084,34.16828,53.7584],[44.35164,34.16657,53.3958],[44.34813,34.16448,53.173],[44.34823,34.16202,54.4547],[44.3504,34.15941,51.5722],[44.35247,34.15574,51.7135],[44.3534,34.132,50.755],[44.35216,34.12926,50.1855],[44.34999,34.12805,52.2823],[44.3382,34.12774,50.0432],[44.32994,34.12611,49.1281],[44.3259,34.12324,48.9327],[44.32404,34.1197,47.7669],[44.32528,34.11593,47.8916],[44.33262,34.10523,47.2906],[44.33397,34.10174,46.1802],[44.33386,34.09758,45.7496],[44.33149,34.09123,46.3343],[44.32756,34.08797,46.3422],[44.30616,34.07559,43.5276],[44.30451,34.07231,46.0255],[44.30978,34.06544,46.2341],[44.31113,34.06051,45.8967],[44.30389,34.04402,51.2532],[44.3012,34.03157,41.5855],[44.29004,34.01826,38.7761],[44.28942,34.01343,38.4051],[44.28963,34.00513,39.0707],[44.29273,34.00255,37.8757],[44.29748,34.0017,36.0],[44.30461,34.0024,37.1151],[44.31268,34.00433,36.7272],[44.34006,34.00702,39.3441],[44.36673,34.00369,42.0178],[44.37283,34.00152,41.778],[44.38182,33.99831,41.2877],[44.42812,33.96348,51.2686],[44.44001,33.951,42.3276],[44.44776,33.93542,38.6743],[44.45096,33.91628,39.9873],[44.45003,33.8976,41.5646],[44.44414,33.88013,45.7618],[44.40993,33.83548,34.7812],[44.39133,33.79269,39.9456],[44.38936,33.7836,40.5639],[44.38926,33.77445,40.3238],[44.39174,33.76541,41.4876],[44.39691,33.75696,42.6413],[44.40363,33.7498,38.9143],[44.42347,33.73306,40.8538],[44.42595,33.72898,39.6651],[44.42585,33.72461,41.461],[44.41189,33.70603,38.5938],[44.40786,33.69869,39.8101],[44.39308,33.64461,42.2497],[44.40456,33.62159,32.7294],[44.40146,33.59679,36.9603],[44.39308,33.5709,36.6717],[44.35381,33.54157,39.0604],[44.33634,33.5309,35.6585],[44.31299,33.51276,41.7579],[44.2981,33.49783,38.3351],[44.24477,33.43333,32.851],[44.27485,33.37789,33.1237],[44.27785,33.37857,33.9174],[44.32983,33.39044,28.0],[44.34296,33.42563,38.9162],[44.34978,33.43251,35.6394],[44.35557,33.43163,35.6402],[44.42719,33.42915,35.2153],[44.43711,33.42749,35.3855],[44.45706,33.4184,36.646],[44.45706,33.41837,36.646],[44.49437,33.39075,37.07],[44.52579,33.41088,37.6385],[44.5292,33.40812,38.2859],[44.53333,33.40357,36.83],[44.53478,33.39225,38.6423],[44.53726,33.38318,37.7507],[44.54264,33.36915,34.5159],[44.54326,33.36626,31.4953],[44.54264,33.36476,32.439],[44.54202,33.36243,28.9073],[44.54109,33.35039,29.6548],[44.53602,33.34068,35.933],[44.53736,33.31102,29.8054],[44.5385,33.28081,32.2005],[44.53612,33.2734,34.1989],[44.53302,33.26676,32.1928],[44.52827,33.26427,33.8658],[44.52465,33.26451,34.346],[44.52434,33.26727,34.1588],[44.52682,33.27037,33.1107],[44.52682,33.27942,28.8869],[44.5199,33.26342,28.7039],[44.52217,33.25505,33.9098],[44.5261,33.24802,32.6657],[44.52651,33.24376,31.452],[44.52527,33.23988,27.9544],[44.51907,33.23363,31.1102],[44.51597,33.23107,31.5293],[44.50636,33.21924,31.257],[44.50482,33.17601,29.7617],[44.50439,33.1642,26.5237],[44.5169,33.14296,31.7877],[44.53478,33.10465,28.7623],[44.54264,33.07997,29.5569],[44.54636,33.05886,29.4395],[44.54594,33.0199,30.6786],[44.54005,33.006,31.286],[44.56227,33.00026,36.6976],[44.56506,33.00142,30.66],[44.5694,33.00408,30.7948],[44.57323,33.01018,30.4798],[44.57809,33.01997,27.6332],[44.58801,33.0339,27.5614],[44.59793,33.05995,28.6829],[44.60506,33.07416,29.9813],[44.61219,33.07718,29.8061],[44.61829,33.06775,30.8982],[44.62697,33.04816,24.0],[44.63224,33.03909,30.4755],[44.63865,33.03178,30.0534],[44.6464,33.02579,33.5198],[44.6556,33.02052,28.6018],[44.66594,33.01612,27.8471],[44.6772,33.0131,29.0086],[44.68857,33.01266,23.5],[44.69911,33.01612,27.2514],[44.71048,33.02408,25.9169],[44.71503,33.02563,26.0865],[44.70924,33.04072,28.1199],[44.70604,33.0454,27.0],[44.70046,33.05635,27.4656],[44.70976,33.06829,28.3551],[44.72753,33.08305,28.5446],[44.77094,33.11116,28.3708],[44.79296,33.13847,29.1954],[44.81518,33.16126,29.1603],[44.83471,33.17433,30.5294],[44.86468,33.17304,30.2642],[44.97992,33.14937,31.1114],[45.01506,33.14712,29.4264],[45.11211,33.15619,26.3181],[45.42558,33.08036,21.0642],[45.48366,33.06602,21.1598],[45.49183,33.06876,21.5174],[45.5033,33.07416,22.1773],[45.51581,33.08785,22.734],[45.53193,33.10235,23.6037],[45.57027,33.12966,25.3443],[45.5772,33.13581,25.9552],[45.60014,33.16482,28.3944],[45.62629,33.19159,31.088],[45.63962,33.20808,33.0426],[45.64892,33.22913,36.3456],[45.65296,33.24304,37.9781],[45.65947,33.25389,39.3956],[45.66908,33.26557,41.5393],[45.70401,33.30071,46.6448],[45.71517,33.31505,48.6391],[45.72086,33.32016,49.494],[45.72541,33.322,50.1938],[45.72954,33.32112,50.7592],[45.73367,33.31952,51.0677],[45.7375,33.31874,51.4546],[45.74184,33.31913,52.5861],[45.75703,33.32499,54.7875],[45.76881,33.33117,56.2494],[45.77719,33.33784,57.4116],[45.78783,33.34869,58.4995],[45.83465,33.37758,71.6653],[45.84261,33.38073,74.871],[45.8486,33.38254,76.3065],[45.85408,33.38274,77.9304],[45.86255,33.38458,82.9954],[45.87454,33.38858,89.1782],[45.89811,33.40052,104.6045],[45.90886,33.40763,128.2458],[45.91609,33.41522,149.4891],[45.92808,33.45103,192.8607],[45.9318,33.45742,207.8209],[45.94772,33.48013,246.0089],[45.96446,33.49597,259.0569],[45.96449,33.49599,259.0569],[45.96327,33.49656,259.0569],[45.95816,33.49739,264.3354],[45.95314,33.49659,267.2621],[45.94818,33.49426,268.324],[45.92968,33.47951,311.878],[45.8994,33.4763,223.939],[45.86974,33.48212,179.147],[45.85258,33.49436,163.0492],[45.86819,33.51157,197.3627],[45.91563,33.53581,313.7969],[45.92792,33.55087,437.6626],[45.9209,33.57299,421.5691],[45.89971,33.58516,455.3167],[45.88204,33.6002,438.768],[45.88596,33.63092,364.4152],[45.86436,33.62642,312.2212],[45.81579,33.6258,220.9468],[45.79755,33.61932,187.4399],[45.76845,33.59591,143.1991],[45.75202,33.58676,120.2458],[45.73455,33.58312,107.7617],[45.72773,33.5901,107.8672],[45.72799,33.62565,121.6093],[45.72463,33.63304,119.6555],[45.72112,33.64076,115.6077],[45.67399,33.66903,113.1819],[45.65879,33.68169,110.1755],[45.64515,33.69792,112.2019],[45.63513,33.71417,114.6566],[45.6282,33.73184,132.2934],[45.62391,33.75208,171.0565],[45.61673,33.76869,194.1427],[45.6036,33.78073,201.64],[45.5882,33.7915,177.9001],[45.57477,33.80393,175.2233],[45.48578,33.93865,234.8536],[45.48392,33.94005,237.7081],[45.48175,33.94088,237.1158],[45.47927,33.94119,237.7728],[45.44971,33.93739,183.9074],[45.42372,33.93878,169.0842],[45.40103,33.94945,149.4751],[45.38036,33.97356,139.5161],[45.40176,33.98162,133.2741],[45.41147,33.98715,151.9872],[45.41974,33.99426,146.3749],[45.41995,33.99426,146.3749],[45.41995,33.99436,146.3749],[45.43519,34.02214,184.5411],[45.44361,34.04766,194.7274],[45.45488,34.06986,212.1953],[45.47927,34.08764,217.7717],[45.49395,34.10068,216.8295],[45.53436,34.1282,265.6511],[45.54454,34.13949,272.0963],[45.54454,34.15063,276.1291],[45.5388,34.15923,300.8642],[45.53146,34.16792,302.5311],[45.52666,34.17931,311.2682],[45.52867,34.18856,320.2793],[45.54273,34.20747,338.7016],[45.54769,34.21649,327.7033],[45.56102,34.2646,329.9597],[45.56304,34.28928,320.7219],[45.55756,34.31196,344.5121],[45.54221,34.3316,269.0199],[45.52154,34.3425,247.5876],[45.49922,34.3424,237.2494],[45.47927,34.32915,229.0791],[45.46077,34.34046,225.619],[45.44795,34.36209,224.0235],[45.41705,34.44436,293.6439],[45.42677,34.45751,347.9295],[45.47927,34.46725,388.9597],[45.4865,34.47273,466.1859],[45.49302,34.47901,489.7217],[45.4987,34.48624,517.0874],[45.50345,34.49417,500.6451],[45.50485,34.52379,493.3355],[45.49653,34.56425,402.1882],[45.50066,34.59169,300.1382],[45.53963,34.58223,328.3206],[45.57394,34.5673,328.8217],[45.60484,34.56115,350.548],[45.67357,34.55665,390.4106],[45.69559,34.55024,400.5304],[45.70153,34.55128,412.9469],[45.70561,34.55774,452.2044],[45.7083,34.56838,454.711],[45.70856,34.57908,469.4562],[45.70561,34.58559,486.9737],[45.69445,34.59856,482.3362],[45.69125,34.61551,473.7306],[45.69078,34.63432,482.6877],[45.68763,34.65323,531.7765],[45.6835,34.66021,511.2838],[45.67838,34.66512,490.6765],[45.67347,34.67117,484.8488],[45.67037,34.68181,484.7373],[45.66686,34.68998,504.8344],[45.65952,34.69721,533.0081],[45.65053,34.703,570.8823],[45.64226,34.70687,638.358],[45.62737,34.72083,622.0757],[45.63502,34.73695,559.7432],[45.66282,34.76325,514.6732],[45.66593,34.77473,493.719],[45.6636,34.79493,473.163],[45.66675,34.80692,499.5883],[45.67657,34.81829,618.4931],[45.68923,34.82263,785.1845],[45.71771,34.82511,401.3638],[45.7454,34.84098,535.678],[45.75047,34.86537,845.0066],[45.7485,34.89074,1108.5803],[45.75512,34.90996,1422.3939],[45.77827,34.91089,1607.6294],[45.79621,34.90304,1378.2678]]]}}