{"type":"Feature","properties":{"GID_2":"IRQ.13.5_1","GID_0":"IRQ","country":"Iraq","GID_1":"IRQ.13_1","province":"Diyala","NL_NAME_1":"NA","county":"Khanaqin","VARNAME_2":"NA","NL_NAME_2":"NA","TYPE_2":"Kaza","ENGTYPE_2":"District","CC_2":"NA","HASC_2":"NA","name":"Khanaqin.county"},
"geometry":{"type": "MultiPolygon","coordinates": [[[[45.7375,34.8312,482.1864],[45.722,34.8808,498.6896],[45.7157,34.9071,565.9923],[45.7131,34.9732,684.3832],[45.7089,35.0145,579.5723],[45.7038,35.0369,586.7509],[45.6908,35.0728,370.4977],[45.6901,35.0786,389.3542],[45.679,35.0843,437.1684],[45.668,35.0876,532.7598],[45.647,35.0854,962.4218],[45.6391,35.0817,638.5554],[45.6261,35.071,479.594],[45.6006,35.0439,652.4557],[45.5621,35.007,584.0338],[45.5689,34.9546,406.4566],[45.5677,34.942,385.8494],[45.5619,34.9274,393.5726],[45.5482,34.911,427.3645],[45.5117,34.8819,380.132],[45.4988,34.8673,470.9193],[45.4872,34.8511,492.9695],[45.4455,34.7837,314.6253],[45.4115,34.7125,305.0444],[45.3885,34.6763,294.0081],[45.3742,34.6602,294.4665],[45.3648,34.6535,282.3165],[45.3132,34.6274,224.5356],[45.2902,34.6124,213.3069],[45.2647,34.5918,213.9413],[45.231,34.5614,194.2217],[45.2134,34.5486,206.1807],[45.2235,34.5125,174.6333],[45.2216,34.5062,174.8799],[45.2146,34.4977,174.0294],[45.2049,34.4902,167.6862],[45.1885,34.4827,166.7464],[45.159,34.4782,165.3808],[45.1466,34.4635,154.4712],[45.1369,34.458,152.3049],[45.0906,34.4571,144.9029],[45.0781,34.455,143.3741],[45.0655,34.4451,147.144],[45.0536,34.4268,173.8997],[45.046,34.4183,156.311],[45.0363,34.4113,141.1726],[45.0214,34.4049,136.9519],[45.0147,34.3909,116.3467],[45.0114,34.3878,113.494],[45.0049,34.3859,112.4842],[44.9778,34.3842,106.8974],[44.9709,34.3812,104.7228],[44.9557,34.3636,102.1712],[44.934,34.3517,101.9688],[44.9242,34.3444,102.3463],[44.8934,34.3128,118.1704],[44.8898,34.3039,130.0642],[44.8894,34.2883,159.0703],[44.895,34.2658,164.1706],[44.8932,34.261,178.1606],[44.889,34.2577,204.917],[44.8766,34.2516,163.0827],[44.8468,34.2471,118.833],[44.8345,34.2325,104.3052],[44.8247,34.2269,78.9316],[44.7788,34.2251,65.585],[44.7599,34.219,64.636],[44.742,34.216,64.8393],[44.7323,34.2121,64.711],[44.7069,34.2091,66.6594],[44.6873,34.2029,69.8511],[44.6478,34.201,67.9166],[44.6372,34.1982,68.9576],[44.6423,34.1766,66.4936],[44.6504,34.1592,63.0579],[44.6619,34.1486,61.6145],[44.6805,34.1412,63.1497],[44.6886,34.1339,60.595],[44.7027,34.117,57.3155],[44.7094,34.115,57.0712],[44.7364,34.1131,57.7235],[44.7481,34.1059,58.2791],[44.7578,34.0909,57.4785],[44.7751,34.0697,55.8395],[44.7911,34.0369,53.7442],[44.7949,34.022,56.1979],[44.8006,34.0105,51.431399999999996],[44.8169,34.0106,51.1695],[44.8265,34.0125,51.3995],[44.8452,34.0243,52.4963],[44.8526,34.026,53.5205],[44.8953,34.0266,48.8607],[44.9159,34.0246,58.2086],[44.9313,34.0166,61.8049],[44.9347,34.0132,60.7446],[44.9559,33.974,55.6091],[44.9989,33.9583,53.563],[45.0104,33.9474,54.1467],[45.0198,33.9341,54.7222],[45.0249,33.9315,52.4621],[45.0468,33.9291,49.8694],[45.0609,33.9241,49.1874],[45.0698,33.9227,50.6915],[45.0789,33.9231,50.9863],[45.0929,33.9283,50.8515],[45.1029,33.93,50.8658],[45.2024,33.9305,65.5188],[45.2251,33.9373,81.5323],[45.2632,33.938,95.2753],[45.2751,33.9401,101.6479],[45.3009,33.9598,124.4672],[45.3274,33.9629,135.7814],[45.3343,33.9671,153.3785],[45.341,33.9791,161.0731],[45.3434,33.987,179.6008],[45.3442,34.0277,204.1022],[45.3458,34.0373,211.0634],[45.3547,34.0557,231.4446],[45.3622,34.0591,235.5961],[45.371,34.0568,221.4648],[45.3761,34.0501,207.0668],[45.3822,34.0372,205.3804],[45.3846,34.0138,170.6432],[45.3874,34.0019,153.4137],[45.3915,33.9946,150.0877],[45.4008,33.985,140.0305],[45.4126,33.9786,121.5269],[45.4234,33.9765,141.3065],[45.4406,33.9819,163.631],[45.4469,33.9855,168.986],[45.4549,34.0016,146.0132],[45.4788,34.0138,160.9281],[45.4774,34.0311,183.2457],[45.4796,34.0347,178.1582],[45.484,34.0372,179.7013],[45.4829,34.0543,170.4901],[45.4774,34.0583,165.1141],[45.479,34.0651,188.6392],[45.4841,34.0722,193.5585],[45.4991,34.0814,233.2461],[45.5026,34.0934,209.2517],[45.5097,34.1027,243.726],[45.5188,34.11,232.7643],[45.538,34.1144,305.7067],[45.5438,34.1212,301.888],[45.5501,34.1247,260.3835],[45.5586,34.1255,284.4706],[45.5724,34.1344,275.0268],[45.5804,34.1433,333.4987],[45.5812,34.1478,339.7968],[45.5778,34.1575,314.4112],[45.5657,34.1797,300.0558],[45.5716,34.2008,335.3777],[45.5794,34.2151,343.8503],[45.5911,34.2482,373.9471],[45.5934,34.2596,374.4387],[45.5944,34.28,373.1301],[45.5879,34.3027,358.42],[45.5751,34.3274,330.7368],[45.5595,34.3447,325.3336],[45.5481,34.3491,313.8073],[45.5275,34.3487,232.6516],[45.5197,34.3465,242.8831],[45.5145,34.3422,236.5797],[45.5034,34.3268,229.7686],[45.493,34.3396,242.8415],[45.4916,34.3478,263.2211],[45.4774,34.3736,254.2185],[45.4714,34.4001,286.7119],[45.4635,34.4242,316.1775],[45.4544,34.4366,334.3559],[45.4532,34.4576,351.6908],[45.4657,34.4651,356.1482],[45.4702,34.4695,389.0642],[45.4767,34.4691,408.3684],[45.4867,34.4629,396.9498],[45.5001,34.4625,442.5456],[45.5117,34.465,472.2736],[45.517,34.468,495.4425],[45.5208,34.4722,505.0064],[45.5315,34.4915,494.7181],[45.5384,34.5143,432.0435],[45.5366,34.5299,457.45],[45.5247,34.5499,427.2651],[45.5241,34.5625,384.7419],[45.5274,34.5739,363.1441],[45.536,34.5915,305.2525],[45.54,34.5934,302.6901],[45.552,34.5926,300.6615],[45.5799,34.5655,328.74],[45.5959,34.5574,335.5842],[45.6168,34.5521,346.6094],[45.629,34.5516,355.7643],[45.644,34.5584,372.4845],[45.647,34.5584,377.8061],[45.6523,34.5549,370.9715],[45.66,34.554,373.7269],[45.6873,34.5589,393.5824],[45.706,34.5562,435.6057],[45.7219,34.5447,452.2175],[45.7355,34.5397,443.9759],[45.7483,34.5416,482.3842],[45.7501,34.5466,477.7966],[45.7451,34.56,546.9103],[45.749,34.5779,679.4318],[45.7432,34.5879,627.6458],[45.7347,34.6122,632.7415],[45.7368,34.6195,623.7659],[45.7367,34.6284,598.9216],[45.7275,34.6561,571.5557],[45.7212,34.6667,562.0606],[45.7136,34.6685,767.1404],[45.7104,34.687,596.0333],[45.7082,34.6899,622.8353],[45.6909,34.7052,553.0704],[45.6771,34.713,667.5056],[45.6743,34.7169,626.7086],[45.6757,34.7241,607.9375],[45.6862,34.7384,539.5215],[45.6863,34.7504,520.3918],[45.6881,34.7536,509.1241],[45.7087,34.7697,516.6298],[45.7106,34.7744,537.1638],[45.7003,34.7943,761.3433],[45.6988,34.8084,820.8466],[45.7011,34.812,693.0707],[45.7375,34.8312,482.1864]]]]}}