{"type":"Feature","properties":{"GID_2":"IRQ.7.3_1","GID_0":"IRQ","country":"Iraq","GID_1":"IRQ.7_1","province":"As-Sulaymaniyah","NL_NAME_1":"NA","county":"Dukan","VARNAME_2":"NA","NL_NAME_2":"NA","TYPE_2":"Kaza","ENGTYPE_2":"District","CC_2":"NA","HASC_2":"NA","name":"Dukan.county"},
"geometry":{"type": "MultiPolygon","coordinates": [[[[44.8807,35.8656,495.3902],[44.8773,35.8504,458.3935],[44.8777,35.8324,479.4118],[44.8818,35.8228,498.3251],[44.893,35.8088,535.2319],[44.896,35.7955,575.7997],[44.9079,35.7849,623.4849],[44.9133,35.777,643.54],[44.9137,35.7704,645.7046],[44.9109,35.761,639.262],[44.9101,35.7516,652.5907],[44.9197,35.7277,700.6261],[44.9234,35.7251,706.3875],[44.9444,35.7219,886.8254],[44.95,35.7255,842.1632],[44.9617,35.7238,884.5142],[45.0118,35.6972,961.4867],[45.0185,35.6891,935.8007],[45.0298,35.6665,876.8917],[45.0366,35.6586,861.0512],[45.041,35.6559,861.4346],[45.0482,35.6541,852.2559],[45.0797,35.6519,876.0404],[45.0899,35.656,993.9742],[45.0998,35.6663,1159.0155],[45.1063,35.6746,986.3599],[45.1181,35.6963,826.5873],[45.1216,35.6994,799.4703],[45.1448,35.7078,767.493],[45.1674,35.7116,817.3699],[45.1904,35.7201,913.616],[45.1949,35.7265,933.3338],[45.1992,35.7439,995.0748],[45.2025,35.7472,1004.6545],[45.2095,35.7494,1055.7549],[45.2361,35.7495,1751.8469],[45.2382,35.7608,1736.4028],[45.2637,35.7976,1477.8362],[45.2662,35.8023,1328.2581],[45.2678,35.8119,1246.384],[45.2656,35.8233,1629.25],[45.2547,35.8349,1191.5457],[45.2508,35.8457,1016.6497],[45.2513,35.8524,1064.7185],[45.2589,35.8708,1999.3798],[45.2583,35.8803,2037.6138],[45.2504,35.8955,1597.5623],[45.237,35.9061,1650.0164],[45.2306,35.9143,1655.5117],[45.2258,35.9337,1874.4189],[45.2261,35.9408,1718.0793],[45.2287,35.9485,1697.2319],[45.2337,35.9538,2226.6289],[45.2397,35.9545,2378.8914],[45.254,35.951,1902.7195],[45.2637,35.9521,1793.1516],[45.2817,35.9613,1251.9663],[45.2885,35.9688,1347.6243],[45.2854,35.9731,1513.7023],[45.2673,35.9863,1947.094],[45.2536,36.0075,1929.2343],[45.2275,36.033,1873.8988],[45.2079,36.0427,1317.7079],[45.1893,36.0459,1715.9209],[45.1825,36.049,1407.0815],[45.1768,36.0543,1134.2662],[45.1689,36.0671,1046.9978],[45.1634,36.0728,894.8049],[45.1474,36.0814,1169.5267],[45.1264,36.0889,1066.0999],[45.1149,36.0996,896.8723],[45.1055,36.1133,834.726],[45.0916,36.1216,835.7393],[45.0836,36.1241,953.5847],[44.9892,36.1248,510.308],[44.988,36.1212,503.7282],[44.9855,36.1194,499.4921],[44.9621,36.1082,485.0],[44.9574,36.1045,485.0],[44.9513,36.0958,485.0],[44.9474,36.0817,485.0],[44.9397,36.0655,485.0],[44.9319,36.0568,513.9597],[44.925,36.0538,529.4088],[44.8589,36.0534,1002.767],[44.85,36.055,1157.4766],[44.8359,36.0603,1025.0968],[44.8066,36.0621,1073.1843],[44.788,36.0685,809.4452],[44.7382,36.0694,917.9946],[44.7128,36.0673,799.2669],[44.7036,36.0625,667.8707],[44.6934,36.0534,605.7651],[44.698,36.0483,613.2151],[44.7249,36.0314,628.4265],[44.7425,36.0183,609.1484],[44.7774,35.9868,608.4215],[44.826,35.9474,594.3467],[44.8849,35.9081,532.9613],[44.892,35.9001,442.3068],[44.8952,35.8932,390.7433],[44.896,35.8832,458.44],[44.8939,35.8763,606.4874],[44.8894,35.8707,641.4633],[44.8807,35.8656,495.3902]]]]}}