{"type":"Feature","properties":{"GID_2":"IRQ.16.4_1","GID_0":"IRQ","country":"Iraq","GID_1":"IRQ.16_1","province":"Ninawa","NL_NAME_1":"NA","county":"AlShikhan","VARNAME_2":"NA","NL_NAME_2":"NA","TYPE_2":"Kaza","ENGTYPE_2":"District","CC_2":"NA","HASC_2":"NA","name":"Al_Shikhan.county"},
"geometry":{"type": "MultiPolygon","coordinates": [[[[43.5158,36.5775,338.9673],[43.506,36.6129,353.2939],[43.5084,36.62,357.615],[43.5158,36.6305,359.2196],[43.5192,36.6387,356.4268],[43.5204,36.6583,370.768],[43.5182,36.6724,391.5272],[43.509,36.6846,402.9088],[43.4641,36.7299,438.8861],[43.4524,36.7479,485.7137],[43.4468,36.7533,501.1122],[43.4363,36.757,502.3298],[43.4098,36.7575,484.9896],[43.3941,36.7564,552.8364],[43.3796,36.7513,542.6581],[43.3693,36.7495,553.9684],[43.2983,36.7493,814.369],[43.2821,36.7502,766.47],[43.2671,36.7553,669.8298],[43.2569,36.7562,625.0164],[43.2325,36.7494,617.0695],[43.2308,36.7322,521.0789],[43.2171,36.6926,436.5361],[43.2152,36.6622,388.834],[43.2159,36.6591,395.7974],[43.2211,36.6551,415.4646],[43.2478,36.6525,406.2427],[43.2529,36.6498,406.9091],[43.2556,36.645,408.0337],[43.2562,36.6342,398.9583],[43.2541,36.6276,387.2088],[43.2508,36.6243,370.5883],[43.236,36.618,348.901],[43.2324,36.6096,393.3971],[43.2326,36.5909,371.7455],[43.2391,36.572,341.0306],[43.2401,36.5499,356.0803],[43.2627,36.5497,368.0183],[43.2749,36.5515,362.6149],[43.2907,36.5597,351.9385],[43.3057,36.5782,393.8361],[43.3126,36.5813,411.2373],[43.3239,36.5817,427.6412],[43.3304,36.5797,424.0034],[43.3336,36.5764,425.8932],[43.3371,36.5586,429.5104],[43.3415,36.5521,426.0398],[43.3481,36.5502,411.139],[43.3753,36.5497,442.5302],[43.3864,36.5475,459.1961],[43.4,36.5298,746.903],[43.4125,36.5197,897.0088],[43.4248,36.5177,881.8976],[43.4705,36.517,448.7931],[43.5073,36.5035,328.2057],[43.5197,36.5017,364.723],[43.5192,36.5265,319.695],[43.513,36.5381,324.7204],[43.5117,36.5467,326.752],[43.5122,36.5588,331.1703],[43.5158,36.5775,338.9673]]]]}}