{"type":"Feature","properties":{"GID_2":"IRQ.1.2_1","GID_0":"IRQ","country":"Iraq","GID_1":"IRQ.1_1","province":"Al-Anbar","NL_NAME_1":"NA","county":"AlFallujah","VARNAME_2":"NA","NL_NAME_2":"NA","TYPE_2":"Kaza","ENGTYPE_2":"District","CC_2":"NA","HASC_2":"NA","name":"Al_Fallujah.county"},
"geometry":{"type": "MultiPolygon","coordinates": [[[[44.0958,33.3091,34.835],[44.0951,33.3209,37.0604],[44.0888,33.3421,35.934],[44.087,33.3632,34.6117],[44.0819,33.3778,33.8128],[44.0776,33.4002,33.9404],[44.0737,33.4098,34.6519],[44.0728,33.4195,34.3153],[44.0754,33.4274,33.9912],[44.0859,33.4411,33.4131],[44.1121,33.4607,32.9257],[44.1022,33.4789,32.3505],[44.0795,33.5142,31.9072],[44.0648,33.5434,32.4348],[44.0321,33.5968,32.923],[44.0179,33.6132,35.1514],[44.0071,33.6214,34.3344],[43.9876,33.6327,38.4514],[43.9702,33.6401,39.6539],[43.9578,33.6435,39.4265],[43.9453,33.6451,39.2341],[43.9169,33.6447,38.7929],[43.8399,33.6378,53.0487],[43.8158,33.6378,52.9714],[43.7734,33.6433,56.2589],[43.7242,33.6559,55.8215],[43.7169,33.6567,56.1537],[43.7151,33.655,56.6365],[43.7098,33.6468,58.7064],[43.7067,33.6381,62.9555],[43.7038,33.6217,71.2901],[43.6995,33.6084,74.8159],[43.7023,33.5856,72.9271],[43.6828,33.5282,74.6112],[43.6788,33.506,61.489],[43.6711,33.4899,54.7825],[43.6262,33.4407,43.2555],[43.6104,33.4087,44.4801],[43.6,33.3751,44.934],[43.5955,33.3662,45.7681],[43.5771,33.3527,81.1866],[43.5628,33.3359,43.5],[43.5444,33.3218,43.5],[43.5383,33.3131,43.5],[43.536,33.298,43.5],[43.5364,33.2768,43.5],[43.5434,33.2523,43.5],[43.5443,33.2314,43.5],[43.5433,33.2158,47.9579],[43.5381,33.2013,52.4559],[43.5364,33.191,63.047],[43.5375,33.118899999999996,31.9861],[43.5277,33.1072,31.7163],[43.5089,33.1002,32.7997],[43.5009,33.0938,34.9869],[43.498,33.0896,34.1513],[43.4937,33.0754,37.5505],[43.4768,33.0414,38.8652],[43.4661,33.0357,44.0114],[43.4569,33.0277,48.5127],[43.4478,33.0161,35.7278],[43.4479,32.9326,36.3615],[43.4495,32.9237,37.596],[43.4547,32.9096,34.0984],[43.4568,32.8711,21.584],[43.4546,32.8325,32.0566],[43.4493,32.8184,22.3112],[43.4463,32.8004,27.659],[43.4394,32.778,27.2027],[43.44,32.7603,29.7315],[43.4464,32.742,29.3311],[43.4473,32.7169,27.2436],[43.4463,32.697,28.5287],[43.4409,32.6828,34.0724],[43.4393,32.6739,37.3231],[43.4388,32.6259,51.9261],[43.4399,32.6113,55.4416],[43.4423,32.6027,55.5677],[43.4465,32.594,56.3865],[43.4548,32.5838,59.3602],[43.4712,32.5858,55.4065],[43.4929,32.5912,51.4359],[43.5192,32.6013,31.8384],[43.5898,32.6376,18.7813],[43.6521,32.6742,18.5],[43.6724,32.684,18.5],[43.6987,32.6922,20.041],[43.7507,32.7031,26.9088],[43.78,32.7151,28.5563],[43.8164,32.7242,20.3581],[43.8684,32.7306,33.8331],[43.9225,32.7325,30.5705],[43.9351,32.7312,28.2245],[43.9702,32.7249,24.3837],[44.0663,32.6979,28.3436],[44.0895,32.694,29.3326],[44.0943,32.6947,30.6159],[44.0929,32.7024,34.7636],[44.0948,32.7287,32.4686],[44.1019,32.7691,31.5511],[44.1058,32.8049,35.6548],[44.1027,32.8703,32.3385],[44.0813,32.9002,43.7891],[44.0746,32.9124,41.3973],[44.0666,32.9332,34.3804],[44.0613,32.964,37.1098],[44.0582,33.0389,52.6586],[44.0522,33.0627,41.916],[44.0446,33.0788,47.0303],[44.0379,33.0892,52.724],[44.029,33.0988,53.266],[44.0208,33.1048,52.0679],[44.0103,33.1096,46.2672],[43.9571,33.1215,49.7591],[43.8928,33.1483,45.0258],[43.8625,33.1539,56.2317],[43.852,33.1566,61.9026],[43.8426,33.161,53.7562],[43.8369,33.1659,55.5528],[43.8328,33.1722,54.8576],[43.8304,33.1796,46.4308],[43.83,33.1903,42.5008],[43.8324,33.2003,39.6413],[43.8358,33.2057,39.8615],[43.8383,33.2178,40.0253],[43.8584,33.2431,43.5296],[43.8678,33.2462,41.0378],[43.8844,33.2407,39.2324],[43.891,33.2409,39.7397],[43.8955,33.2429,39.6298],[43.9222,33.2637,38.5774],[43.9363,33.2816,36.1222],[43.9489,33.291,35.5231],[43.9534,33.292,35.9891],[43.9628,33.2908,36.2871],[43.9883,33.273,35.6278],[43.9942,33.2731,36.0995],[44.0019,33.2791,35.2249],[44.0083,33.2818,34.6167],[44.0242,33.2771,35.5096],[44.0358,33.2775,35.5852],[44.0463,33.2808,36.05],[44.0611,33.2966,37.9912],[44.0704,33.3032,37.8002],[44.0958,33.3091,34.835]]]]}}