{"type":"Feature","properties":{"GID_2":"IRQ.4.2_1","GID_0":"IRQ","country":"Iraq","GID_1":"IRQ.4_1","province":"Al-Qadisiyah","NL_NAME_1":"NA","county":"Afak","VARNAME_2":"NA","NL_NAME_2":"NA","TYPE_2":"Kaza","ENGTYPE_2":"District","CC_2":"NA","HASC_2":"NA","name":"Afak.county"},
"geometry":{"type": "MultiPolygon","coordinates": [[[[45.7661,31.6194,8.1881],[45.7685,31.633,8.4432],[45.7683,31.6616,8.0595],[45.7598,31.7189,9.6677],[45.7544,31.7371,9.2892],[45.7169,31.7987,9.8791],[45.7042,31.8249,21.2223],[45.698,31.8427,10.7107],[45.6954,31.8678,10.7839],[45.6988,31.9107,10.7169],[45.6896,31.9434,10.5643],[45.6831,31.9575,10.8492],[45.5993,32.0824,12.4434],[45.5554,32.1374,11.5],[45.5353,32.1596,11.5],[45.527,32.1674,13.4469],[45.4316,32.2382,14.3122],[45.4168,32.2514,14.5523],[45.3816,32.2895,15.1608],[45.3328,32.3299,14.8569],[45.307,32.3458,15.3423],[45.2923,32.3501,15.7068],[45.2924,32.2972,15.2589],[45.2902,32.283,15.7345],[45.2811,32.2714,15.6812],[45.2626,32.2568,18.0269],[45.2582,32.2431,17.7091],[45.2483,32.2239,16.6989],[45.2391,32.2167,16.7402],[45.2204,32.2135,17.2385],[45.2106,32.2081,17.2235],[45.206,32.2019,17.3087],[45.194,32.1633,19.1139],[45.1879,32.1546,18.9834],[45.1787,32.1465,18.2592],[45.1678,32.1431,17.5752],[45.136,32.1425,18.6343],[45.1276,32.1392,18.7404],[45.1243,32.1308,18.9228],[45.1232,32.0961,18.4183],[45.1175,32.0853,19.5471],[45.1077,32.0799,18.5338],[45.0724,32.0771,18.674],[45.0625,32.0702,18.9692],[45.0573,32.0646,19.4111],[45.0535,32.0554,20.5178],[45.0549,32.0489,19.4131],[45.0737,32.0104,18.7904],[45.0775,31.996,18.6503],[45.0871,31.9769,18.3823],[45.0978,31.965699999999998,17.9398],[45.1141,31.9553,17.4615],[45.1194,31.9496,17.4736],[45.1227,31.9416,16.5696],[45.1248,31.9282,16.0819],[45.1275,31.9234,16.1601],[45.1324,31.9207,16.105],[45.1466,31.9181,16.1296],[45.1514,31.9154,16.0661],[45.1542,31.9106,16.0218],[45.1581,31.8932,15.1233],[45.1728,31.8808,15.6632],[45.1769,31.8745,15.231],[45.1773,31.8677,15.4483],[45.1672,31.8356,14.5764],[45.1727,31.814,14.5485],[45.1851,31.7789,13.4232],[45.1882,31.7445,13.2178],[45.1924,31.7378,13.4871],[45.207,31.7261,13.2662],[45.2159,31.7094,13.1926],[45.2189,31.6961,13.2468],[45.2188,31.6799,12.8302],[45.258,31.6827,13.2103],[45.3053,31.6831,11.9851],[45.3772,31.6789,11.0311],[45.4179,31.6741,11.7883],[45.5741,31.6453,7.8069],[45.7022,31.6115,7.984],[45.7357,31.6116,7.1777],[45.755,31.6188,7.5266],[45.7661,31.6194,8.1881]]]]}}