{"type":"Feature","properties":{"GID_2":"IRQ.14.2_1","GID_0":"IRQ","country":"Iraq","GID_1":"IRQ.14_1","province":"Karbala'","NL_NAME_1":"NA","county":"AlJadwalalGharbi","VARNAME_2":"NA","NL_NAME_2":"NA","TYPE_2":"Kaza","ENGTYPE_2":"District","CC_2":"NA","HASC_2":"NA","name":"Al_Jadwalal_Gharbi.county"},
"geometry":{"type": "MultiPolygon","coordinates": [[[[44.2892,32.2995,24.3781],[44.2867,32.3133,25.2438],[44.28,32.3906,26.6058],[44.2713,32.4305,27.1357],[44.2635,32.4472,29.6104],[44.2474,32.4694,27.0019],[44.1831,32.5374,28.4294],[44.1636,32.5653,30.4406],[44.1621,32.5888,28.9391],[44.1651,32.6055,28.2023],[44.1716,32.619,31.3662],[44.1918,32.6311,28.0749],[44.1989,32.6412,28.2538],[44.2025,32.6587,32.8811],[44.1993,32.674,37.1511],[44.1906,32.6831,32.5042],[44.1734,32.6929,29.3581],[44.1502,32.6946,28.343],[44.1303,32.6907,31.2022],[44.1314,32.6771,31.805],[44.1403,32.6588,33.2336],[44.143,32.656,33.8085],[44.1535,32.6536,32.0327],[44.157,32.6488,28.3211],[44.1588,32.6349,26.7037],[44.1615,32.6285,32.5192],[44.161,32.6233,30.8726],[44.1418,32.5861,27.6282],[44.1271,32.5752,30.3585],[44.1151,32.5684,28.173],[44.1004,32.5537,26.5075],[44.0633,32.5391,34.7381],[44.0576,32.5338,37.2013],[44.054,32.5273,42.1943],[44.0516,32.5119,48.8557],[44.0597,32.4905,49.8059],[44.0616,32.4803,47.4722],[44.0617,32.4199,66.0798],[44.0636,32.4043,67.1553],[44.0894,32.3531,68.6645],[44.0982,32.3452,67.7574],[44.1322,32.3238,60.785],[44.1439,32.3128,61.6451],[44.1561,32.2931,58.7901],[44.1653,32.2717,61.0056],[44.1827,32.2729,57.5847],[44.2247,32.281,44.1981],[44.2613,32.2897,34.0614],[44.2772,32.2966,29.3121],[44.2892,32.2995,24.3781]]]]}}