{"type":"Feature","properties":{"GID_2":"IRQ.15.3_1","GID_0":"IRQ","country":"Iraq","GID_1":"IRQ.15_1","province":"Maysan","NL_NAME_1":"NA","county":"AlMiamona","VARNAME_2":"NA","NL_NAME_2":"NA","TYPE_2":"Kaza","ENGTYPE_2":"District","CC_2":"NA","HASC_2":"NA","name":"Al_Miamona.county"},
"geometry":{"type": "MultiPolygon","coordinates": [[[[46.9357,31.1351,1.2133],[46.9449,31.1371,1.0925],[46.9864,31.1354,1.0338],[47.0243,31.1387,0.8063],[47.1192,31.1395,0.5438],[47.1435,31.1429,0.3006],[47.1416,31.1638,0.361],[47.1058,31.2355,0.2034],[47.0939,31.2897,0.8107],[47.09,31.2994,1.0543],[47.086,31.3216,2.6128999999999998],[47.082,31.3313,0.6631],[47.0791,31.3492,0.8114],[47.0729,31.368,1.0979],[47.0725,31.4634,2.8482],[47.0742,31.4733,3.1711],[47.1106,31.5786,4.4371],[47.1135,31.604,5.0016],[47.1196,31.6234,5.0619],[47.1228,31.6488,5.314],[47.1309,31.66,5.9535],[47.1509,31.6792,5.5566],[47.1678,31.6895,6.7792],[47.1891,31.7052,3.7954],[47.1906,31.7138,4.057],[47.1809,31.7373,3.9543],[47.1658,31.7463,5.3476],[47.1336,31.7509,6.7351],[47.1181,31.7591,6.5257],[47.1148,31.7625,5.9252],[47.1084,31.775,7.4935],[47.1027,31.792,6.3441],[47.0964,31.7966,5.812],[47.0892,31.7975,6.29],[47.0817,31.7967,5.5686],[47.0747,31.7937,5.6042],[47.0444,31.767,6.277],[47.0122,31.7515,7.3518],[46.99,31.7472,6.9517],[46.9681,31.7297,6.4538],[46.9571,31.7263,6.4272],[46.9499,31.7273,6.9792],[46.9164,31.7398,6.5422],[46.8972,31.7419,6.6522],[46.878,31.7398,6.6508],[46.8478,31.7265,6.4993],[46.8176,31.7256,7.9367],[46.7979,31.7276,7.9416],[46.7882,31.7315,8.2559],[46.77,31.7348,6.7984],[46.7651,31.7376,8.0632],[46.7591,31.7527,7.592],[46.7542,31.7604,7.5404],[46.7281,31.786,7.2],[46.7211,31.789,7.2645],[46.6934,31.7927,8.7204],[46.6736,31.7893,9.3089],[46.6639,31.7835,8.3413],[46.6584,31.7728,8.1383],[46.657,31.754,7.6179],[46.6551,31.7474,7.2697],[46.652,31.7442,7.3419],[46.6454,31.7422,7.4506],[46.5603,31.7423,7.5617],[46.5504,31.744,7.8594],[46.536,31.7492,8.5557],[46.5156,31.7502,9.0172],[46.4324,31.7496,8.707],[46.4237,31.7482,8.4627],[46.4097,31.7423,8.3742],[46.4107,31.707,8.3894],[46.4148,31.6949,8.4437],[46.4375,31.6505,8.0578],[46.4471,31.6394,7.8916],[46.5242,31.5343,6.5519],[46.5475,31.4977,6.4984],[46.5652,31.4609,5.9829],[46.5772,31.441,5.2643],[46.5935,31.422,5.0524],[46.6127,31.4029,4.5854],[46.6704,31.3657,4.8473],[46.6926,31.3495,4.7567],[46.7155,31.3303,4.2763],[46.7298,31.3138,4.0509],[46.7364,31.3018,4.0918],[46.7405,31.2897,4.2018],[46.7427,31.2772,3.3403],[46.7459,31.225,3.0821],[46.75,31.2076,3.585],[46.7561,31.1947,3.5549],[46.7728,31.1717,2.706],[46.7805,31.1639,2.4004],[46.7961,31.1525,1.8968],[46.8202,31.1427,2.0242],[46.8409,31.1378,2.1551],[46.8773,31.1345,1.9605],[46.9357,31.1351,1.2133]]]]}}