{"type":"Feature","properties":{"GID_1":"IRQ.9_1","GID_0":"IRQ","country":"Iraq","province":"Babil","VARNAME_1":"Babylon|Hilla","NL_NAME_1":"NA","TYPE_1":"Muhafazah","ENGTYPE_1":"Province","CC_1":"NA","HASC_1":"IQ.BB","ISO_1":"IQ-BB","name":"Babil.province"},
"geometry":{"type": "MultiPolygon","coordinates": [[[[45.1444,32.3758,17.9692],[45.1518,32.3828,18.0946],[45.1565,32.3902,18.3968],[45.1885,32.4061,18.9426],[45.1846,32.4151,18.2676],[45.1846,32.434,18.4251],[45.1623,32.4431,18.8103],[45.0945,32.4656,19.2515],[45.078,32.4744,19.1836],[45.0482,32.496,20.1799],[45.0342,32.5074,21.0964],[45.0187,32.523,21.6683],[44.9518,32.6014,21.668],[44.9234,32.6322,22.1933],[44.8888,32.6648,21.9208],[44.8562,32.6866,22.4127],[44.8398,32.6934,23.1336],[44.8008,32.7042,24.0518],[44.7938,32.708,25.2059],[44.7533,32.7402,24.9473],[44.7329,32.7513,23.7756],[44.7143,32.7589,23.4091],[44.6724,32.7706,24.446],[44.6008,32.7752,27.1573],[44.5877,32.778,27.3279],[44.5705,32.7872,25.8433],[44.5645,32.7941,25.757],[44.5606,32.8034,25.3636],[44.5535,32.8401,25.0665],[44.5421,32.8732,25.2429],[44.5357,32.8832,25.4805],[44.5281,32.8907,26.46],[44.4935,32.9134,27.1621],[44.484,32.9248,28.3762],[44.4825,32.9296,27.8126],[44.4884,32.9531,27.728],[44.4984,32.9687,27.8436],[44.5145,32.9808,29.4719],[44.5417,32.9911,29.0634],[44.5492,32.9985,26.5789],[44.5536,33.0097,35.3461],[44.5536,33.0396,32.0843],[44.5587,33.0612,29.9581],[44.5454,33.1083,31.0722],[44.5343,33.1247,29.8639],[44.5072,33.149,30.3269],[44.502,33.1554,31.958],[44.4992,33.1645,34.4807],[44.499,33.181,30.4729],[44.4901,33.1828,31.9735],[44.452,33.1811,30.6355],[44.356,33.1813,31.7313],[44.3389,33.1831,29.8499],[44.3112,33.19,30.1337],[44.2911,33.1907,30.0301],[44.2873,33.1892,30.3057],[44.2817,33.1834,31.3218],[44.2735,33.1678,29.5749],[44.2608,33.155,29.8403],[44.231,33.1405,33.5251],[44.2232,33.1334,32.1432],[44.2131,33.1343,32.0232],[44.1987,33.1397,32.0],[44.1628,33.1593,34.9724],[44.1449,33.1669,34.7816],[44.0996,33.1797,35.7313],[44.0758,33.1826,35.2583],[44.0311,33.1788,37.7667],[43.9999,33.179,38.1697],[43.9719,33.1835,37.8962],[43.9016,33.2027,41.2629],[43.8727,33.2055,40.4386],[43.8358,33.2057,39.8615],[43.8324,33.2003,39.6413],[43.83,33.1903,42.5008],[43.8304,33.1796,46.4308],[43.8328,33.1722,54.8576],[43.8369,33.1659,55.5528],[43.8426,33.161,53.7562],[43.852,33.1566,61.9026],[43.8625,33.1539,56.2317],[43.8928,33.1483,45.0258],[43.9571,33.1215,49.7591],[44.0103,33.1096,46.2672],[44.0208,33.1048,52.0679],[44.029,33.0988,53.266],[44.0379,33.0892,52.724],[44.0522,33.0627,41.916],[44.0582,33.0389,52.6586],[44.0613,32.964,37.1098],[44.0666,32.9332,34.3804],[44.0746,32.9124,41.3973],[44.0813,32.9002,43.7891],[44.1027,32.8703,32.3385],[44.1058,32.8049,35.6548],[44.1019,32.7691,31.5511],[44.0948,32.7287,32.4686],[44.0929,32.7024,34.7636],[44.0943,32.6947,30.6159],[44.1077,32.6908,29.2272],[44.1303,32.6907,31.2022],[44.1502,32.6946,28.343],[44.1734,32.6929,29.3581],[44.1906,32.6831,32.5042],[44.1993,32.674,37.1511],[44.2025,32.6587,32.8811],[44.1989,32.6412,28.2538],[44.1918,32.6311,28.0749],[44.1716,32.619,31.3662],[44.1651,32.6055,28.2023],[44.1621,32.5888,28.9391],[44.1636,32.5653,30.4406],[44.1831,32.5374,28.4294],[44.2552,32.4601,28.7751],[44.2635,32.4472,29.6104],[44.2713,32.4305,27.1357],[44.28,32.3906,26.6058],[44.2867,32.3133,25.2438],[44.2892,32.2995,24.3781],[44.2977,32.2919,25.0911],[44.3042,32.2823,24.183],[44.3075,32.2739,23.9924],[44.3085,32.2614,23.8778],[44.304,32.241,30.3839],[44.284,32.2094,31.9795],[44.278,32.1929,34.6211],[44.2764,32.1625,38.9781],[44.278,32.1421,41.8613],[44.2829,32.1272,43.2825],[44.2947,32.1098,41.6904],[44.3079,32.0965,41.0089],[44.315,32.0927,38.5758],[44.3207,32.092,38.1088],[44.3329,32.0954,33.579],[44.3508,32.1037,26.2949],[44.364,32.1122,23.6977],[44.3975,32.1381,23.3787],[44.4265,32.1533,22.1158],[44.4382,32.1539,22.2012],[44.4647,32.1477,22.1008],[44.4789,32.1373,22.2193],[44.5076,32.1261,20.2628],[44.5334,32.1094,21.912],[44.5673,32.0976,21.3289],[44.5774,32.0915,21.3997],[44.5844,32.0837,22.0453],[44.6024,32.0817,22.6586],[44.6529,32.0697,20.0952],[44.6805,32.0651,20.2263],[44.7015,32.0648,21.4863],[44.7237,32.07,20.2324],[44.7451,32.0829,20.5912],[44.7514,32.0903,20.5092],[44.7571,32.1034,21.6573],[44.7583,32.1199,20.5015],[44.7535,32.1586,21.7252],[44.7591,32.1701,22.1493],[44.7675,32.176,21.0976],[44.7766,32.1782,24.1952],[44.7879,32.1777,22.4002],[44.8242,32.1718,23.987],[44.8419,32.1736,22.5708],[44.856,32.1797,23.7907],[44.9317,32.2278,20.9369],[45.035,32.3157,20.0293],[45.0495,32.3249,19.6009],[45.1025,32.3506,20.338],[45.1304,32.3661,18.0142],[45.1444,32.3758,17.9692]]]]}}