{"type":"Feature","properties":{"ISO3166-1-Alpha-3":"IRQ","country":"Iraq","fill":"#FF0","id":"3472","name":"Babil"},
"geometry":{"type": "Polygon","coordinates": [[[44.21811,33.13384,31.5],[44.1962,33.1395,33.5],[44.13222,33.17123,34.0365],[44.10731,33.17754,34.3291],[44.08323,33.18038,35.3374],[43.98815,33.18089,39.3665],[43.89957,33.20056,41.542],[43.8542,33.20557,42.2504],[43.82035,33.2017,38.8299],[43.82537,33.18061,50.5518],[43.8387,33.16658,53.0769],[43.888,33.15627,44.0517],[43.98525,33.11508,40.1872],[44.01574,33.0894,55.0067],[44.03972,33.03005,57.0112],[44.0575,32.95515,34.9356],[44.0699,32.92822,37.6385],[44.09729,32.90192,40.3899],[44.1409,32.87631,37.3333],[44.12964,32.78115,29.0064],[44.15734,32.77766,29.9538],[44.19227,32.76968,29.5912],[44.19754,32.76906,29.8132],[44.20219,32.76968,30.6103],[44.21294,32.77472,30.3873],[44.21821,32.7766,30.8594],[44.22286,32.77681,31.2152],[44.22896,32.77472,30.4719],[44.23578,32.7704,30.6121],[44.26007,32.74958,32.295],[44.2641,32.74167,35.7209],[44.26441,32.73575,32.7896],[44.26503,32.72444,31.8206],[44.25573,32.71614,35.5943],[44.22038,32.60762,32.3363],[44.22266,32.57023,28.9246],[44.23919,32.53626,29.1919],[44.29552,32.46649,26.9371],[44.30255,32.44644,30.2156],[44.29304,32.4265,25.9406],[44.28808,32.41006,24.7863],[44.29552,32.38919,23.0237],[44.31629,32.35451,26.8633],[44.3195,32.34371,24.6112],[44.33366,32.29581,25.4476],[44.34048,32.28622,28.7776],[44.34668,32.28092,25.0206],[44.34265,32.26382,26.3093],[44.31846,32.25224,23.9979],[44.31113,32.24217,23.6981],[44.31268,32.23126,23.9152],[44.32063,32.21269,24.1894],[44.33955,32.18695,25.8628],[44.34606,32.18049,26.2548],[44.3535,32.17078,22.6092],[44.35846,32.16225,24.6583],[44.37365,32.14499,25.6932],[44.40921,32.17388,22.8915],[44.42998,32.18592,23.6706],[44.43453,32.18568,23.4395],[44.4428,32.18708,22.8232],[44.45055,32.18638,21.9488],[44.49974,32.2163,19.7887],[44.52703,32.20403,20.713],[44.54935,32.18801,20.6567],[44.57912,32.17354,20.1358],[44.62987,32.15946,21.1535],[44.65994,32.15135,20.0288],[44.71523,32.12279,21.0423],[44.72826,32.11871,20.5278],[44.74025,32.11884,19.8952],[44.74965,32.12145,21.2886],[44.75802,32.1254,20.4826],[44.76474,32.13075,21.1778],[44.78396,32.1508,21.9423],[44.78986,32.15489,22.1098],[44.80495,32.16251,21.0664],[44.81032,32.16628,21.3314],[44.81456,32.17176,22.6653],[44.81528,32.1791,24.1984],[44.81394,32.18827,24.0295],[44.80598,32.19437,23.7841],[44.80164,32.19863,23.9136],[44.79998,32.20325,23.9361],[44.80288,32.2102,23.2192],[44.80867,32.21899,23.4753],[44.81838,32.22788,25.935],[44.82572,32.23075,23.3477],[44.83171,32.23026,22.6251],[44.8375,32.22615,22.7113],[44.84887,32.2163,22.028199999999998],[44.85507,32.21372,20.9328],[44.86189,32.21703,22.5168],[44.89124,32.24062,22.1248],[44.93507,32.26909,19.9362],[44.99935,32.29129,20.132],[45.08534,32.33999,20.7149],[45.09216,32.34539,20.2411],[45.10436,32.35792,19.0008],[45.11635,32.36552,17.7974],[45.161,32.38846,18.4714],[45.17516,32.39314,18.0251],[45.18373,32.39508,18.0551],[45.19841,32.39443,18.2347],[45.19676,32.41521,18.7484],[45.19397,32.4466,18.3374],[45.18105,32.44675,18.7338],[45.12131,32.449,19.2154],[45.10457,32.45311,19.6739],[45.08844,32.46262,19.5829],[45.06922,32.47895,19.402],[45.05175,32.49763,20.2845],[45.01268,32.57202,22.2294],[44.9699,32.69185,22.3154],[44.9637,32.70271,22.3755],[44.95016,32.71529,22.8479],[44.93589,32.7249,22.8312],[44.91016,32.73715,22.5596],[44.87771,32.74875,22.6185],[44.87243,32.75637,22.9131],[44.86375,32.7588,23.2635],[44.82727,32.76175,24.3173],[44.77673,32.77526,23.2406],[44.71317,32.80593,23.2097],[44.70635,32.8073,23.3502],[44.56475,32.81575,24.2002],[44.55866,32.81769,24.1908],[44.5539,32.82084,24.6607],[44.54698,32.82632,25.3303],[44.54036,32.84213,26.7837],[44.53426,32.86678,25.4484],[44.53085,32.96814,28.5619],[44.52331,32.99793,28.8649],[44.54005,33.006,31.286],[44.54594,33.0199,30.6786],[44.54636,33.05886,29.4395],[44.54264,33.07997,29.5569],[44.53478,33.10465,28.7623],[44.5169,33.14296,31.7877],[44.50439,33.1642,26.5237],[44.50482,33.17601,29.7617],[44.50481,33.17601,29.7617],[44.33882,33.18309,29.8499],[44.31319,33.18914,30.8631],[44.30038,33.19082,30.9446],[44.28725,33.18916,30.3057],[44.25738,33.15397,30.2162],[44.23919,33.13891,32.3583],[44.21811,33.13384,31.5]]]}}