{"type":"Feature","properties":{"featurecla":"River","scalerank":4,"rivernum":135,"dissolve":"135River","name":"Tigris2","name_alt":null,"note":null,"min_zoom":4.0,"strokeweig":0.35,"name_en":"Tigris","min_label":5.0},
"geometry":{"type": "LineString","coordinates": [[44.055419921875,34.075067449994116,52.4341],[44.092871093750006,34.071795965619117,55.361],[44.148535156250006,34.059686590619116,44.619],[44.18603515625,34.05756256718162,46.9069],[44.194921875,34.05597565311912,46.1219],[44.20361328125,34.05267975468162,41.7119],[44.2099609375,34.048358465619117,42.1913],[44.221289062500006,34.03803131718162,46.9785],[44.2275390625,34.03375885624412,46.1222],[44.233642578125,34.03229401249412,39.5747],[44.239160156250023,34.033710028119117,39.7714],[44.249267578125,34.040301824994117,39.8792],[44.2705078125,34.046747137494116,39.6918],[44.291406250000023,34.04169342655662,49.0495],[44.331152343750006,34.01959869999412,44.1625],[44.3779296875,34.001336981244116,42.9385],[44.427978515625,33.96356842655662,51.2686],[44.43994140625,33.951044012494116,42.3276],[44.447656250000023,33.93549225468162,38.6743],[44.450878906250011,33.91632721561912,39.9873],[44.450097656250023,33.89765045780662,41.5646],[44.444042968750011,33.880145574994117,45.7618],[44.409912109375,33.83551666874412,34.7812],[44.391210937500006,33.792743231244117,39.9456],[44.389404296875,33.78363678593162,40.5639],[44.38916015625,33.77448151249412,40.3238],[44.3916015625,33.76544830936912,41.4608],[44.396875,33.75702545780662,42.6413],[44.403564453125,33.749872137494116,38.9143],[44.4234375,33.73309967655662,40.8538],[44.425878906250006,33.729022528119117,39.6651],[44.42578125,33.72467682499412,41.461],[44.41171875,33.706073309369117,38.5938],[44.4078125,33.698749090619117,39.8101],[44.391015625000023,33.637567449994116,38.5028],[44.385351562500006,33.629901434369117,38.7269],[44.37744140625,33.62543366093162,40.3692],[44.3662109375,33.624627996869116,32.2373],[44.354296875000017,33.62543366093162,35.4734],[44.342871093750006,33.62482330936912,43.7856],[44.33203125,33.621356512494117,38.1866],[44.322656250000023,33.61347077030662,37.5508],[44.319726562500023,33.60346100468162,40.7837],[44.328320312500011,33.584491278119117,35.9956],[44.326171875,33.57416412968162,39.1737],[44.313232421875,33.56110260624412,37.0841],[44.31005859375,33.55585358280662,38.1917],[44.30859375,33.55011627811912,37.8607],[44.308349609375,33.53217194218162,38.568],[44.305273437500006,33.51471588749412,34.2292],[44.304882812500011,33.508807684369117,35.1188],[44.305273437500006,33.50311920780662,37.5143],[44.311132812500006,33.481073309369116,35.0981],[44.313232421875,33.476190496869116,38.5411],[44.316308593750023,33.471795965619116,36.0161],[44.3203125,33.46808502811912,36.5303],[44.336816406250023,33.459344793744116,37.744],[44.341699218750023,33.45563385624412,39.2238],[44.348388671875,33.44525787968162,38.2566],[44.348730468750006,33.434442449994116,37.9683],[44.343017578125,33.411737371869116,28.5],[44.342871093750006,33.40485260624412,38.8153],[44.344628906250023,33.398797918744116,37.7875],[44.347753906250006,33.393329168744117,34.6543],[44.352636718750006,33.38849518436912,37.0565],[44.362402343750006,33.38178131718162,35.831],[44.36669921875,33.377948309369117,37.8066],[44.369873046875,33.37287018436912,37.2525],[44.376367187500023,33.348651434369117,37.2136],[44.390380859375,33.32550690311912,35.4011],[44.383544921875,33.322137762494116,34.8229],[44.37841796875,33.317010809369116,34.7953],[44.375585937500006,33.310419012494116,36.0352],[44.375878906250023,33.302752996869117,36.3542],[44.379638671875,33.29474518436912,33.5],[44.385986328125,33.28925202030662,37.5297],[44.393798828125,33.285907293744117,35.5199],[44.40234375,33.284295965619116,35.8733],[44.412353515625,33.28424713749412,34.4464],[44.417089843750006,33.285028387494116,26.5],[44.4345703125,33.29132721561912,28.761],[44.43896484375,33.29181549686912,27.1929],[44.447851562500006,33.28912994999412,26.5],[44.451904296875,33.28290436405662,27.7103],[44.455078125,33.266229559369116,34.681],[44.458251953125,33.26068756718162,36.2592],[44.4625,33.25641510624412,33.2564],[44.4677734375,33.25324127811912,32.7717],[44.4736328125,33.250848699994116,34.1128],[44.483789062500023,33.243768621869116,34.1761],[44.489355468750006,33.233026434369116,34.1278],[44.4912109375,33.22040436405662,32.6874],[44.48974609375,33.207635809369116,32.9622],[44.488671875000023,33.20502350468162,29.2267],[44.4859375,33.200555731244116,29.4597],[44.484960937500006,33.198016668744117,28.7258],[44.4833984375,33.185809637494117,27.213],[44.484375,33.17877838749412,27.6893],[44.48681640625,33.173114324994117,32.0341],[44.4912109375,33.169061590619116,31.2864],[44.497949218750023,33.16681549686912,26.5525],[44.508691406250023,33.166278387494117,27.9095],[44.512109375000023,33.16559479374412,30.0944],[44.516015625000023,33.164081121869117,28.1854],[44.527099609375,33.157733465619117,32.411],[44.550537109375,33.13617584843162,31.5906],[44.55625,33.128924871869117,33.5252],[44.560791015625,33.12103912968162,32.8734],[44.568603515625,33.09808991093162,26.1585],[44.57080078125,33.08356354374412,31.6595],[44.572851562500006,33.077997137494116,27.6868],[44.576416015625,33.07294342655662,31.6976],[44.5810546875,33.06976959843162,30.784],[44.5869140625,33.070086981244117,30.4108],[44.59140625,33.07330963749412,30.7374],[44.595117187500023,33.07758209843162,30.6847],[44.59912109375,33.08112213749412,31.0943],[44.6044921875,33.082049871869117,24.5],[44.612207031250023,33.07721588749412,29.8061],[44.618261718750006,33.06781647343162,30.8982],[44.626855468750023,33.048211981244116,24.0],[44.632080078125,33.03912994999412,30.4755],[44.638671875,33.03180573124412,30.0534],[44.646386718750023,33.02582428593162,33.5198],[44.655664062500023,33.02057526249412,28.6018],[44.665722656250011,33.01618073124412,27.8471],[44.67724609375,33.01312897343162,29.0086],[44.688574218750006,33.012713934369117,23.5],[44.698974609375,33.01618073124412,27.2514],[44.71044921875,33.02411530155662,25.9169],[44.714941406250006,33.02570221561912,26.0865],[44.720458984375,33.02643463749412,25.4971],[44.727148437500006,33.02667877811912,31.0415],[44.733642578125,33.02582428593162,30.0262],[44.738525390625,33.02326080936912,27.7551],[44.741113281250023,33.01373932499412,23.0],[44.736083984375,33.00311920780662,31.6847],[44.728613281250006,32.992547918744116,35.8228],[44.72421875,32.983417059369117,29.8483],[44.724853515625,32.97797272343162,28.8004],[44.727929687500023,32.974237371869116,28.3137],[44.732812500000023,32.972040106244116,28.0675],[44.73828125,32.97113678593162,27.5823],[44.744384765625,32.97174713749412,27.2441],[44.7490234375,32.97418854374412,27.9407],[44.757080078125,32.98212311405662,28.2024],[44.766845703125,32.988055731244117,25.0353],[44.776269531250023,32.98651764530662,30.9406],[44.784912109375,32.98041412968162,31.6802],[44.806640625,32.95978424686912,28.2818],[44.814355468750023,32.95734284061912,23.1956],[44.822656250000023,32.96210358280662,21.8223],[44.82958984375,32.97016022343162,22.3247],[44.833740234375,32.97247955936912,21.6645],[44.83935546875,32.97211334843162,27.2864],[44.844628906250023,32.969012762494117,23.5297],[44.84814453125,32.964227606244116,27.1843],[44.8525390625,32.95294830936912,25.2071],[44.858154296875,32.94318268436912,25.1785],[44.865820312500006,32.937127996869116,26.1714],[44.875390625000023,32.93427155155662,28.0278],[44.89697265625,32.932635809369117,27.5737],[44.9072265625,32.928827215619116,27.1378],[44.9169921875,32.92328522343162,29.8526],[44.92578125,32.91693756718162,27.3573],[44.93408203125,32.908563543744116,24.0678],[44.948632812500023,32.88959381718162,26.2057],[44.95751953125,32.881463934369116,26.8974],[44.969140625000023,32.875995184369117,24.4664],[44.980566406250006,32.87506744999412,24.9372],[44.992089843750023,32.877704168744117,25.1741],[45.031494140625,32.898065496869116,25.0883],[45.04150390625,32.90033600468162,23.689],[45.05078125,32.89923737186912,20.4118],[45.06005859375,32.89484284061912,27.6559],[45.065673828125,32.887567449994116,25.0497],[45.064355468750023,32.87799713749412,24.7373],[45.056054687500023,32.870965887494116,25.3726],[45.03369140625,32.86408112186912,25.6117],[45.0263671875,32.85675690311912,25.1512],[45.026953125,32.846698309369117,24.7543],[45.034423828125,32.837176824994117,19.0],[45.090722656250023,32.792743231244117,24.2578],[45.097070312500023,32.789081121869117,23.5848],[45.103515625,32.78632233280662,23.3016],[45.1103515625,32.78534577030662,23.4036],[45.117431640625,32.787127996869117,22.5604],[45.13046875,32.79376862186912,23.4102],[45.136962890625,32.794452215619117,23.3808],[45.144921875000023,32.792010809369117,23.6412],[45.163671875,32.78119537968162,24.0593],[45.170507812500006,32.778583074994117,24.4547],[45.178613281250023,32.777118231244117,22.7991],[45.267333984375,32.774286199994116,23.2899],[45.27880859375,32.766229559369116,23.9154],[45.279199218750023,32.75202057499412,22.8001],[45.273535156250006,32.736200262494116,22.1551],[45.257519531250011,32.70905182499412,26.477],[45.25439453125,32.70087311405662,22.5253],[45.255761718750023,32.69342682499412,22.698],[45.261962890625,32.689227606244117,21.8962],[45.270410156250023,32.688836981244116,20.6483],[45.28662109375,32.69232819218162,20.013],[45.293847656250023,32.692889715619117,19.7237],[45.300048828125,32.69183991093162,19.9896],[45.306054687500023,32.68915436405662,20.4091],[45.311718750000011,32.68488190311912,21.5539],[45.31689453125,32.67963287968162,21.8548],[45.3203125,32.67413971561912,25.6706],[45.324951171875,32.661395574994117,21.2477],[45.3291015625,32.653436590619116,17.1592],[45.334716796875,32.647967840619117,18.9417],[45.341894531250006,32.645868231244116,20.5736],[45.350488281250023,32.647967840619117,20.9244],[45.35791015625,32.65131256718162,21.4369],[45.36474609375,32.65277741093162,18.4716],[45.371484375000023,32.65192291874412,19.2024],[45.37890625,32.648211981244117,21.2452],[45.3896484375,32.638055731244116,21.3403],[45.397070312500006,32.62567780155662,20.237],[45.415722656250011,32.58454010624412,17.7718],[45.419824218750023,32.57831452030662,20.0441],[45.42626953125,32.57355377811912,20.1353],[45.435302734375,32.57037994999412,21.1868],[45.440185546875,32.569696356244116,20.4337],[45.444726562500023,32.57025787968162,15.5],[45.44775390625,32.57184479374412,19.2593],[45.4501953125,32.57416412968162,20.1114],[45.45458984375,32.579461981244116,19.8791],[45.462158203125,32.584588934369116,20.2014],[45.502685546875,32.59552643436912,19.5115],[45.50732421875,32.595819403119116,19.0634],[45.51171875,32.595233465619117,19.3028],[45.513671875,32.59454987186912,19.2091],[45.515625,32.59345123905662,19.7458],[45.518652343750006,32.59027741093162,15.5514],[45.519775390625,32.58954498905662,15.5514],[45.520410156250023,32.58930084843162,17.4965],[45.52099609375,32.58930084843162,17.4965],[45.5224609375,32.588983465619116,18.4698],[45.525,32.58624909061912,15.6734],[45.52685546875,32.583270574994117,20.4886],[45.529296875,32.57672760624412,19.6963],[45.52880859375,32.56720612186912,19.7722],[45.520117187500006,32.550165106244116,20.189],[45.5205078125,32.540887762494116,19.9363],[45.526269531250023,32.53436920780662,19.6436],[45.534765625,32.53204987186912,19.0357],[45.544042968750006,32.532977606244117,14.8836],[45.552148437500023,32.53620026249412,16.7888],[45.566796875000023,32.54865143436912,19.8347],[45.574609375000023,32.553827215619116,20.1331],[45.584375,32.55548737186912,19.0305],[45.58935546875,32.553583074994116,19.8374],[45.5927734375,32.54962799686912,15.2637],[45.595800781250006,32.544940496869117,19.2269],[45.59921875,32.540887762494116,18.9049],[45.60546875,32.53790924686912,18.7087],[45.613183593750023,32.53668854374412,17.6119],[45.62109375,32.53693268436912,18.3026],[45.627685546875,32.538348699994117,13.5],[45.6337890625,32.54193756718162,19.3914],[45.647851562500023,32.55866119999412,19.1526],[45.654296875,32.56268952030662,18.9458],[45.660546875000023,32.563983465619117,18.5207],[45.692480468750006,32.558612371869117,17.6527],[45.6982421875,32.55597565311912,17.6434],[45.706152343750006,32.547967840619116,19.2575],[45.71728515625,32.528827215619117,17.9835],[45.725341796875,32.521502996869117,12.5],[45.730712890625,32.51886627811912,17.8775],[45.735742187500023,32.51752350468162,17.6343],[45.740820312500006,32.51788971561912,16.8771],[45.779296875,32.53168366093162,20.1479],[45.78515625,32.532342840619116,18.1443],[45.791113281250006,32.531366278119116,18.274],[45.795996093750006,32.52863190311912,17.7485],[45.799560546875,32.52472565311912,19.0403],[45.804785156250006,32.51520416874412,21.3319],[45.8076171875,32.50861237186912,12.0],[45.80908203125,32.502215887494117,13.6369]]}}