{"type":"Feature","properties":{"ISO3166-1-Alpha-3":"IRQ","country":"Iraq","fill":"#000","id":"3227","name":"Wasit"},
"geometry":{"type": "Polygon","coordinates": [[[46.08916,33.11568,121.8353],[46.10538,33.11839,124.7726],[46.12647,33.13178,140.4148],[46.15344,33.15426,167.5054],[46.16719,33.16834,182.278],[46.17432,33.18118,192.9759],[46.1737,33.19022,201.4742],[46.16212,33.19637,227.476],[46.15768,33.20567,244.5863],[46.15835,33.21387,262.8553],[46.1644,33.23306,330.7454],[46.16419,33.24335,392.5869],[46.1553,33.26022,599.1014],[46.14135,33.2721,676.9036],[46.10952,33.29371,616.6093],[46.06972,33.34086,632.6237],[46.03624,33.36794,402.4457],[46.03107,33.38251,449.6395],[46.0305,33.3992,427.6664],[46.02745,33.41951,424.2989],[46.01939,33.4384,531.0664],[46.00802,33.45566,453.9466],[45.97443,33.4908,245.6209],[45.97138,33.49276,255.253],[45.96823,33.49424,257.5427],[45.96449,33.49599,259.0569],[45.96446,33.49597,259.0569],[45.94772,33.48013,246.0089],[45.9318,33.45742,207.8209],[45.92808,33.45103,192.8607],[45.91609,33.41522,149.4891],[45.90886,33.40763,128.2458],[45.89811,33.40052,104.6045],[45.87454,33.38858,89.1782],[45.86255,33.38458,82.9954],[45.85408,33.38274,77.9304],[45.8486,33.38254,76.3065],[45.84261,33.38073,74.871],[45.83465,33.37758,71.6653],[45.78783,33.34869,58.4995],[45.77719,33.33784,57.4116],[45.76881,33.33117,56.2494],[45.75703,33.32499,54.7875],[45.74184,33.31913,52.5861],[45.7375,33.31874,51.4546],[45.73367,33.31952,51.0677],[45.72954,33.32112,50.7592],[45.72541,33.322,50.1938],[45.72086,33.32016,49.494],[45.71517,33.31505,48.6391],[45.70401,33.30071,46.6448],[45.66908,33.26557,41.5393],[45.65947,33.25389,39.3956],[45.65296,33.24304,37.9781],[45.64892,33.22913,36.3456],[45.63962,33.20808,33.0426],[45.62629,33.19159,31.088],[45.60014,33.16482,28.3944],[45.5772,33.13581,25.9552],[45.57027,33.12966,25.3443],[45.53193,33.10235,23.6037],[45.51581,33.08785,22.734],[45.5033,33.07416,22.1773],[45.49183,33.06876,21.5174],[45.48366,33.06602,21.1598],[45.42558,33.08036,21.0642],[45.11211,33.15619,26.3181],[45.01506,33.14712,29.4264],[44.97992,33.14937,31.1114],[44.86468,33.17304,30.2642],[44.83471,33.17433,30.5294],[44.81518,33.16126,29.1603],[44.79296,33.13847,29.1954],[44.77094,33.11116,28.3708],[44.72753,33.08305,28.5446],[44.70976,33.06829,28.3551],[44.70046,33.05635,27.4656],[44.70604,33.0454,27.0],[44.70924,33.04072,28.1199],[44.71503,33.02563,26.0865],[44.71048,33.02408,25.9169],[44.69911,33.01612,27.2514],[44.68857,33.01266,23.5],[44.6772,33.0131,29.0086],[44.66594,33.01612,27.8471],[44.6556,33.02052,28.6018],[44.6464,33.02579,33.5198],[44.63865,33.03178,30.0534],[44.63224,33.03909,30.4755],[44.62697,33.04816,24.0],[44.61829,33.06775,30.8982],[44.61219,33.07718,29.8061],[44.60506,33.07416,29.9813],[44.59793,33.05995,28.6829],[44.58801,33.0339,27.5614],[44.57809,33.01997,27.6332],[44.57323,33.01018,30.4798],[44.5694,33.00408,30.7948],[44.56506,33.00142,30.66],[44.56227,33.00026,36.6976],[44.54005,33.006,31.286],[44.52331,32.99793,28.8649],[44.53085,32.96814,28.5619],[44.53426,32.86678,25.4484],[44.54036,32.84213,26.7837],[44.54698,32.82632,25.3303],[44.5539,32.82084,24.6607],[44.55866,32.81769,24.1908],[44.56475,32.81575,24.2002],[44.70635,32.8073,23.3502],[44.71317,32.80593,23.2097],[44.77673,32.77526,23.2406],[44.82727,32.76175,24.3173],[44.86375,32.7588,23.2635],[44.87243,32.75637,22.9131],[44.87771,32.74875,22.6185],[44.91016,32.73715,22.5596],[44.93589,32.7249,22.8312],[44.95016,32.71529,22.8479],[44.9637,32.70271,22.3755],[44.9699,32.69185,22.3154],[45.01268,32.57202,22.2294],[45.05175,32.49763,20.2845],[45.06922,32.47895,19.402],[45.08844,32.46262,19.5829],[45.10457,32.45311,19.6739],[45.12131,32.449,19.2154],[45.18105,32.44675,18.7338],[45.19397,32.4466,18.3374],[45.19676,32.41521,18.7484],[45.19841,32.39443,18.2347],[45.25629,32.38779,16.3862],[45.26269,32.37187,16.1914],[45.28781,32.36278,15.8561],[45.3584,32.35562,14.0],[45.36987,32.34069,14.0],[45.39189,32.33508,15.2361],[45.3955,32.32681,14.0],[45.39385,32.31738,14.6254],[45.38062,32.29046,15.1561],[45.37814,32.2763,15.006],[45.38351,32.26129,15.1995],[45.3985,32.24651,14.5938],[45.49793,32.16682,13.8136],[45.51622,32.146,13.6549],[45.52852,32.12719,13.4725],[45.53813,32.11484,11.9519],[45.55405,32.106,11.5],[45.61709,32.08621,12.5558],[45.68603,32.06892,11.7299],[45.68913,32.0568,11.4769],[45.68179,32.05145,11.5157],[45.67807,32.04688,11.6486],[45.67859,32.0406,11.7352],[45.72572,31.94779,9.2677],[45.82597,31.94234,10.9503],[45.88726,31.96417,11.7449],[45.89263,31.9641,11.2819],[45.89728,31.96087,10.9068],[45.90121,31.9611,11.0866],[45.90514,31.96301,11.2378],[45.90958,31.9672,11.5905],[45.91227,31.96828,11.5089],[45.91485,31.96735,11.4476],[45.91754,31.96482,12.4451],[45.9225,31.96169,11.5326],[45.92725,31.96257,12.1837],[45.96188,31.98466,12.5486],[45.97015,31.98691,13.1284],[45.97893,31.98624,13.1369],[45.98823,31.98381,12.623],[46.00373,31.98125,11.3059],[46.01097,31.98143,12.2504],[46.01541,31.98342,12.1986],[46.01913,31.99102,11.3259],[46.0243,31.99497,12.0305],[46.05758,32.00464,12.5079],[46.31741,32.00544,11.2987],[46.44216,32.00942,10.8848],[46.48205,32.00533,10.3015],[46.51802,31.98955,9.6975],[46.55574,31.98141,9.5882],[46.57683,31.98358,9.0125],[46.6037,32.13372,9.5533],[46.59171,32.15225,8.6858],[46.57218,32.17716,9.2913],[46.45022,32.22191,9.5196],[46.43172,32.23452,8.8067],[46.42862,32.2495,9.0921],[46.4342,32.26754,8.7973],[46.47626,32.36986,10.2748],[46.47771,32.37849,10.3028],[46.47378,32.3865,10.6066],[46.46913,32.39249,10.7278],[46.4528,32.40381,11.2069],[46.44402,32.41161,11.7324],[46.44505,32.42048,11.6994],[46.45125,32.4319,10.3366],[46.4651,32.45032,12.3137],[46.4682,32.45657,12.3971],[46.47151,32.47096,12.8065],[46.47492,32.48112,13.0477],[46.47616,32.49187,12.7185],[46.47492,32.55274,14.2517],[46.48112,32.60062,20.5585],[46.54613,32.76697,57.402],[46.55357,32.77658,61.083],[46.57579,32.78973,63.7266],[46.58509,32.79955,66.4061],[46.6006,32.82252,87.4948],[46.60061,32.82254,87.4948],[46.50732,32.86802,87.9881],[46.47931,32.89179,103.3889],[46.37963,32.93176,92.1448],[46.27343,32.95949,74.4111],[46.15556,32.94835,37.5081],[46.09701,32.95432,28.2136],[46.07572,32.99434,39.5809],[46.07572,32.9945,39.5809],[46.08802,33.00672,66.2023],[46.10466,33.01806,63.0686],[46.11949,33.03101,81.1983],[46.12616,33.04798,111.1798],[46.12042,33.06168,135.5899],[46.106,33.0725,123.4441],[46.08719,33.07922,120.7033],[46.04327,33.08346,103.7172],[46.02931,33.09351,100.3907],[46.0303,33.10568,124.2139],[46.0504,33.11511,116.8242],[46.07241,33.11677,119.9545],[46.08916,33.11568,121.8353]]]}}