{"type":"Feature","properties":{"id":142302.0,"name":null,"lge_id":null,"pfafstette":24259.0,"lke_type":null,"altitude":0,"objectid":89312,"scalerank":11,"featurecla":"Lake","note":"_untitled_89312","funkyname":0,"min_zoom":6.7,"min_label":7.7},
"geometry":{"type": "Polygon","coordinates": [[[45.481700066021233,32.920782782025327,18.7758],[45.481700066021233,32.920782782025327,18.7758],[45.475474480083733,32.924933172650327,18.8168],[45.452281120708733,32.923468328900327,18.8138],[45.430186394146233,32.934515692181577,18.8248],[45.410411003521233,32.941656805462827,18.8089],[45.381480339458733,32.936285711712827,18.924],[45.367198112896233,32.915777899212827,19.1154],[45.373545769146233,32.898504949994077,18.8205],[45.414561394146233,32.894659735150327,18.253],[45.448008659771233,32.907110907025327,18.4287],[45.465586784771233,32.913702703900327,18.7388],[45.481700066021233,32.920782782025327,18.7758]]]}}