{"type":"Feature","properties":{"GID_1":"IRQ.18_1","GID_0":"IRQ","country":"Iraq","province":"Wasit","VARNAME_1":"Kut|Kut-al-Imara","NL_NAME_1":"NA","TYPE_1":"Muhafazah","ENGTYPE_1":"Province","CC_1":"NA","HASC_1":"IQ.WA","ISO_1":"IQ-WA","name":"Wasit.province"},
"geometry":{"type": "MultiPolygon","coordinates": [[[[45.6896,31.9434,10.5643],[45.6988,31.9107,10.7169],[45.7671,31.9085,9.4613],[45.8097,31.9103,9.1766],[45.8371,31.9131,8.8241],[45.8694,31.9211,9.2015],[46.0194,31.9684,11.9569],[46.0443,31.9734,12.42],[46.0865,31.9784,11.9],[46.117,31.9813,11.5742],[46.1451,31.9821,9.5135],[46.311,31.9804,10.6562],[46.3223,31.9817,10.6322],[46.3303,31.9738,10.3657],[46.3483,31.9801,10.7285],[46.3899,31.9889,11.0225],[46.4133,31.9879,10.8832],[46.4965,31.9729,8.0339],[46.512,31.9742,8.1964],[46.5301,31.9815,9.2172],[46.5448,32.0726,9.7591],[46.5446,32.0962,9.7879],[46.5393,32.1198,9.7766],[46.5314,32.1343,10.1305],[46.518,32.1472,9.3312],[46.4547,32.1826,10.3215],[46.4402,32.1947,9.9098],[46.4292,32.2097,10.3358],[46.4245,32.221,9.8819],[46.4222,32.2331,9.7043],[46.4253,32.2964,8.9921],[46.4225,32.3178,9.9911],[46.4186,32.327,10.3626],[46.397,32.3501,10.1822],[46.3934,32.356,9.965],[46.3883,32.3724,10.2564],[46.3874,32.3841,10.582],[46.3913,32.4066,10.938],[46.407,32.4499,11.7271],[46.4157,32.5281,13.2356],[46.4246,32.5717,17.6211],[46.4787,32.7407,43.4177],[46.4884,32.7649,49.5697],[46.4961,32.7794,53.9543],[46.5159,32.8038,63.4354],[46.5434,32.8322,78.4165],[46.5644,32.8609,111.0155],[46.5453,32.868,108.8088],[46.5339,32.8745,108.9764],[46.5174,32.8933,132.4192],[46.5086,32.899,135.4844],[46.497,32.9034,131.7839],[46.4755,32.9075,115.388],[46.4535,32.9227,119.901],[46.4024,32.9453,125.2038],[46.3709,32.9501,108.0974],[46.3304,32.9526,88.6203],[46.2738,32.952,68.006],[46.2565,32.9503,62.3435],[46.2506,32.9484,59.993],[46.2378,32.9483,55.7528],[46.2142,32.9506,51.8594],[46.1896,32.9551,50.1743],[46.1752,32.9549,43.1112],[46.1614,32.9527,40.8111],[46.1528,32.9554,39.5418],[46.144,32.9558,37.0374],[46.1071,32.9672,32.1642],[46.0987,32.9729,34.9483],[46.0954,32.9791,37.4516],[46.1,33.0049,56.6402],[46.1019,33.0087,67.4203],[46.1072,33.0138,66.7628],[46.1155,33.0157,75.7482],[46.1229,33.0152,83.8164],[46.1362,33.0217,88.898],[46.1593,33.0456,137.5693],[46.1682,33.0574,144.2738],[46.1684,33.0608,157.7831],[46.1619,33.0637,146.9081],[46.1215,33.07,152.1875],[46.1108,33.0735,169.3742],[46.1037,33.0806,138.5245],[46.0986,33.0824,141.7193],[46.0821,33.0837,106.0494],[46.0674,33.0869,116.4498],[46.0491,33.0936,137.0764],[46.0469,33.0963,152.4393],[46.0466,33.1004,138.8764],[46.0497,33.121,109.025],[46.0516,33.1241,108.1954],[46.0567,33.1253,106.7777],[46.0715,33.118899999999996,113.7147],[46.0911,33.1134,128.4425],[46.1157,33.1091,135.7126],[46.1295,33.1109,135.7098],[46.1422,33.119,139.8024],[46.161,33.1385,157.2672],[46.1723,33.1476,169.9699],[46.1821,33.1604,181.8268],[46.1998,33.1741,200.5672],[46.2048,33.1801,216.7774],[46.2064,33.1841,218.1192],[46.2055,33.1877,214.1481],[46.2032,33.1897,209.7751],[46.1858,33.1914,207.7865],[46.1844,33.1947,215.0958],[46.1894,33.2235,312.2417],[46.1962,33.2398,445.2203],[46.1973,33.2534,640.1205],[46.187,33.262,687.048],[46.1564,33.2744,701.9442],[46.1454,33.2811,733.8055],[46.1346,33.2921,939.8334],[46.1169,33.3175,850.7551],[46.0852,33.3519,621.8727],[46.0628,33.3639,668.23],[46.0507,33.3739,519.028],[46.0456,33.3823,516.5065],[46.0423,33.392,506.2233],[46.0391,33.4162,360.243],[46.0365,33.4241,522.7662],[46.0389,33.4474,696.5032],[46.0369,33.4604,747.5714],[46.0333,33.4677,743.7136],[46.0185,33.4765,608.6688],[46.0064,33.4799,547.3356],[45.9979,33.4976,353.5305],[45.9947,33.5012,299.0403],[45.9902,33.5024,301.8363],[45.9843,33.5014,281.2508],[45.9628,33.4887,241.4837],[45.9477,33.485,301.7966],[45.9514,33.4647,200.002],[45.9503,33.4517,181.0748],[45.9445,33.4344,159.2665],[45.9391,33.4244,163.5889],[45.9212,33.4008,138.2143],[45.9047,33.3866,113.4547],[45.8595,33.3638,78.508],[45.8265,33.3419,62.0621],[45.7305,33.2694,45.0364],[45.6875,33.2332,38.7822],[45.6655,33.2077,35.7677],[45.6351,33.1567,29.3786],[45.6156,33.1285,26.5482],[45.5878,33.0977,25.0863],[45.5357,33.0483,21.8023],[45.5187,33.0369,20.8539],[45.5006,33.029,20.5267],[45.4376,33.0122,19.9324],[45.42,33.0207,20.1935],[45.4082,33.0241,20.293],[45.3299,33.0418,20.373],[44.963,33.1184,30.7409],[44.882,33.1405,28.2437],[44.8576,33.1452,28.3548],[44.8385,33.144,29.4516],[44.8172,33.136,28.903199999999998],[44.7804,33.1042,27.9388],[44.7257,33.068,27.3809],[44.7129,33.0544,27.1556],[44.6991,33.0342,28.4271],[44.6905,33.0248,28.7104],[44.6825,33.0194,28.3484],[44.6727,33.0164,27.0],[44.6622,33.0157,28.3608],[44.6463,33.019,29.1899],[44.5819,33.0529,31.1218],[44.5587,33.0612,29.9581],[44.5536,33.0396,32.0843],[44.5536,33.0097,35.3461],[44.5492,32.9985,26.5789],[44.5417,32.9911,29.0634],[44.5145,32.9808,29.4719],[44.4984,32.9687,27.8436],[44.4884,32.9531,27.728],[44.4825,32.9296,27.8126],[44.484,32.9248,28.3762],[44.4935,32.9134,27.1621],[44.5281,32.8907,26.46],[44.5357,32.8832,25.4805],[44.5421,32.8732,25.2429],[44.5535,32.8401,25.0665],[44.5606,32.8034,25.3636],[44.5645,32.7941,25.757],[44.5705,32.7872,25.8433],[44.5877,32.778,27.3279],[44.6008,32.7752,27.1573],[44.6724,32.7706,24.446],[44.7143,32.7589,23.4091],[44.7329,32.7513,23.7756],[44.7533,32.7402,24.9473],[44.7938,32.708,25.2059],[44.8008,32.7042,24.0518],[44.8398,32.6934,23.1336],[44.8562,32.6866,22.4127],[44.8888,32.6648,21.9208],[44.9234,32.6322,22.1933],[44.9518,32.6014,21.668],[45.0187,32.523,21.6683],[45.0342,32.5074,21.0964],[45.0482,32.496,20.1799],[45.078,32.4744,19.1836],[45.0945,32.4656,19.2515],[45.1623,32.4431,18.8103],[45.1846,32.434,18.4251],[45.1846,32.4151,18.2676],[45.1885,32.4061,18.9426],[45.1958,32.4031,18.392],[45.2104,32.4009,19.5965],[45.2242,32.3938,16.7175],[45.2644,32.3522,14.7309],[45.2708,32.3502,15.443],[45.2967,32.3497,15.5542],[45.3192,32.3393,15.3244],[45.3328,32.3299,14.8569],[45.3816,32.2895,15.1608],[45.4168,32.2514,14.5523],[45.4316,32.2382,14.3122],[45.527,32.1674,13.4469],[45.5554,32.1374,11.5],[45.5993,32.0824,12.4434],[45.6831,31.9575,10.8492],[45.6896,31.9434,10.5643]]]]}}