{"type":"Feature","properties":{"GID_2":"IRQ.17.1_1","GID_0":"IRQ","country":"Iraq","GID_1":"IRQ.17_1","province":"Salaad-Din","NL_NAME_1":"NA","county":"Al-Faris","VARNAME_2":"NA","NL_NAME_2":"NA","TYPE_2":"Kaza","ENGTYPE_2":"District","CC_2":"NA","HASC_2":"NA","name":"Al-Faris.county"},
"geometry":{"type": "MultiPolygon","coordinates": [[[[44.1121,33.4607,32.9257],[44.1466,33.4401,32.1337],[44.1803,33.4174,31.2364],[44.1927,33.4114,30.9815],[44.1995,33.4111,31.0928],[44.2219,33.4192,31.28],[44.2518,33.4247,33.1772],[44.2568,33.4383,34.9824],[44.2642,33.4523,36.1814],[44.2942,33.4828,36.9887],[44.3044,33.5003,37.8289],[44.316,33.5124,40.4998],[44.3168,33.5388,36.5107],[44.3207,33.5527,38.0279],[44.3264,33.5637,30.0],[44.3377,33.5769,37.1889],[44.3741,33.5995,37.0746],[44.384,33.6114,40.2044],[44.3925,33.6482,37.9752],[44.3971,33.6912,45.3049],[44.3949,33.7081,38.5728],[44.3844,33.7317,40.4439],[44.3764,33.7317,40.2121],[44.3627,33.7263,37.8471],[44.3336,33.7221,36.1149],[44.3093,33.7138,34.7266],[44.2964,33.704,37.4578],[44.2523,33.6602,37.8725],[44.2435,33.6542,38.0442],[44.1716,33.6303,36.7064],[44.1326,33.6278,34.343],[44.1253,33.6261,34.8952],[44.1165,33.6202,33.9786],[44.0829,33.5899,32.9007],[44.0755,33.5868,32.9961],[44.0551,33.5844,32.7132],[44.0461,33.5784,33.0651],[44.0444,33.5765,33.3775],[44.0648,33.5434,32.4348],[44.0795,33.5142,31.9072],[44.1022,33.4789,32.3505],[44.1121,33.4607,32.9257]]]]}}