{"type":"Feature","properties":{"GID_2":"IRQ.6.5_1","GID_0":"IRQ","country":"Iraq","GID_1":"IRQ.6_1","province":"Arbil","NL_NAME_1":"NA","county":"Mergasur","VARNAME_2":"NA","NL_NAME_2":"NA","TYPE_2":"Kaza","ENGTYPE_2":"District","CC_2":"NA","HASC_2":"NA","name":"Mergasur.county"},
"geometry":{"type": "MultiPolygon","coordinates": [[[[43.8124,36.9841,1111.7454],[43.8155,36.9772,1262.9667],[43.8205,36.9716,1508.2549],[43.8289,36.9645,1280.5146],[43.8488,36.9527,1264.7828],[43.8865,36.9361,1241.8507],[43.9523,36.9132,934.379],[43.9728,36.9027,861.4701],[43.9954,36.8798,536.0702],[44.0298,36.8347,962.8639],[44.0424,36.825,846.5903],[44.0641,36.817,713.4724],[44.1225,36.8009,700.329],[44.1845,36.7759,1522.1594],[44.2063,36.7636,1049.5942],[44.2272,36.7483,825.6198],[44.2428,36.732,578.5684],[44.2474,36.7242,607.7129],[44.2645,36.7334,580.5145],[44.2784,36.7447,437.7419],[44.2847,36.7535,463.2225],[44.29,36.7701,523.7492],[44.2961,36.7729,582.7746],[44.3065,36.7709,675.9194],[44.3303,36.762,962.0153],[44.3384,36.7554,1022.911],[44.3482,36.7407,905.538],[44.3563,36.7343,804.753],[44.404,36.718,1540.6387],[44.4136,36.7172,1541.3636],[44.433,36.7227,1509.8389],[44.4624,36.7251,723.4176],[44.4691,36.7294,617.7137],[44.4811,36.7509,831.1765],[44.5002,36.7795,1383.0603],[44.512,36.791,1070.3356],[44.5261,36.8011,823.7852],[44.5288,36.8078,730.6089],[44.5267,36.8153,906.9563],[44.5236,36.8196,766.163],[44.5033,36.8389,876.1096],[44.477,36.8538,945.6622],[44.463,36.8673,951.2271],[44.4506,36.8735,983.1974],[44.4364,36.8778,1000.6561],[44.4277,36.8839,1114.5532],[44.4178,36.8964,1012.0847],[44.4129,36.9097,1082.0651],[44.3967,36.9242,926.4216],[44.3834,36.9433,885.2633],[44.3319,36.9914,717.0161],[44.3235,36.9825,849.9489],[44.32,36.9671,624.3445],[44.3033,36.9749,682.4161],[44.2819,36.9753,758.8485],[44.2771,36.9768,924.699],[44.2688,36.983,1041.3374],[44.2604,37.0033,1196.9055],[44.2435,37.0267,1674.0114],[44.2427,37.0341,1794.9813],[44.2482,37.046,1335.8701],[44.2469,37.0501,1215.8929],[44.2423,37.055,1114.5402],[44.2241,37.0655,1349.3481],[44.2149,37.0733,1387.7889],[44.2056,37.087,1714.0079],[44.2023,37.0981,2394.542],[44.2027,37.1048,2362.6768],[44.2085,37.115,2305.3423],[44.2173,37.1252,2197.0469],[44.2335,37.1398,2046.743],[44.2423,37.1567,1789.6313],[44.2563,37.1539,1693.2184],[44.2686,37.1552,1644.7404],[44.2817,37.1622,1765.2065],[44.2901,37.175,1194.1696],[44.2903,37.1844,973.5555],[44.2791,37.2039,1424.8534],[44.2821,37.2267,1610.886],[44.2789,37.2363,1537.4364],[44.2678,37.2515,1587.3729],[44.2374,37.2791,1947.434],[44.2156,37.2842,2458.644],[44.1945,37.2914,1784.4493],[44.1799,37.2995,1784.9399],[44.1683,37.3007,1561.4302],[44.1563,37.306,1690.0973],[44.1418,37.3157,1498.9587],[44.112,37.3125,1390.059],[44.0941,37.3131,1196.8513],[44.075,37.3165,1006.1855],[44.0615,37.3221,955.956],[44.04,37.3207,956.6259],[44.0367,37.3213,1062.2214],[44.033,37.325,929.7321],[44.0298,37.3247,1038.6827],[44.0232,37.3178,946.8226],[44.029,37.311,1270.126],[44.0348,37.2983,1731.2952],[44.0424,37.2697,1850.9299],[44.0477,37.2248,1762.9675],[44.0487,37.1962,1359.7495],[44.0476,37.1824,996.606],[44.0433,37.1642,1053.7816],[44.0281,37.1356,1248.7135],[44.0164,37.1195,1007.6143],[44.0032,37.1053,1163.3418],[43.9725,37.0808,820.1815],[43.9275,37.0489,1145.5115],[43.8954,37.0294,1261.9751],[43.8266,36.9956,666.9805],[43.8124,36.9841,1111.7454]]]]}}