{"type":"Feature","properties":{"GID_2":"IRQ.3.1_1","GID_0":"IRQ","country":"Iraq","GID_1":"IRQ.3_1","province":"Al-Muthannia","NL_NAME_1":"NA","county":"AlKhithir","VARNAME_2":"NA","NL_NAME_2":"NA","TYPE_2":"Kaza","ENGTYPE_2":"District","CC_2":"NA","HASC_2":"NA","name":"Al_Khithir.county"},
"geometry":{"type": "MultiPolygon","coordinates": [[[[45.6525,30.8535,12.7605],[45.6446,30.8896,10.4693],[45.642,30.9099,5.4708],[45.6432,30.9376,5.1503],[45.6499,30.9617,5.4041],[45.6564,30.9731,5.1384],[45.6884,31.0152,5.766],[45.7124,31.058,6.6208],[45.7198,31.0659,6.5578],[45.7261,31.0701,6.661],[45.7642,31.0837,8.1829],[45.7692,31.0879,8.1018],[45.7728,31.0941,7.8728],[45.7742,31.1012,7.3079],[45.7737,31.1084,7.2148],[45.7686,31.1215,6.9352],[45.7455,31.1509,6.5059],[45.7382,31.1624,6.1154],[45.7339,31.1734,7.1902],[45.7317,31.1895,6.2615],[45.7332,31.2012,6.9596],[45.7412,31.2245,7.2291],[45.7695,31.2745,6.6306],[45.7721,31.2839,6.536],[45.7719,31.2938,6.2378],[45.7682,31.3029,6.6755],[45.7563,31.3132,6.7802],[45.7335,31.3242,7.1783],[45.7304,31.3228,7.5558],[45.7234,31.3245,7.1297],[45.7172,31.3298,7.1744],[45.7135,31.3383,7.0402],[45.7128,31.3448,6.9837],[45.7161,31.3589,6.6548],[45.7214,31.3677,6.3702],[45.753,31.4004,6.0255],[45.767,31.4179,6.558],[45.7779,31.4371,6.3398],[45.7806,31.4453,7.2871],[45.782,31.4559,6.9245],[45.7806,31.4717,6.471],[45.7684,31.5114,7.3791],[45.7668,31.5236,7.5017],[45.7689,31.5333,7.2135],[45.7871,31.5619,8.8791],[45.7898,31.5768,7.7363],[45.7882,31.588,7.2392],[45.785,31.5962,7.0856],[45.7779,31.6072,7.7091],[45.7661,31.6194,8.1881],[45.755,31.6188,7.5266],[45.7357,31.6116,7.1777],[45.7022,31.6115,7.984],[45.6931,31.6011,8.2159],[45.6764,31.5743,7.6508],[45.6724,31.5706,7.6963],[45.6478,31.5575,7.6795],[45.6432,31.551,7.1921],[45.6322,31.5246,6.5481],[45.6131,31.4965,7.4048],[45.5962,31.4823,8.7171],[45.5841,31.4608,10.0807],[45.5773,31.453,9.5161],[45.5507,31.4383,9.1134],[45.5427,31.4316,8.9369],[45.5116,31.3736,8.1231],[45.4937,31.3586,9.042],[45.4856,31.3473,8.5836],[45.4778,31.3405,7.9318],[45.4797,31.3353,7.4307],[45.4794,31.3275,7.5091],[45.4678,31.2998,9.5917],[45.4654,31.2766,8.6203],[45.462,31.2683,8.486],[45.4536,31.265,8.5084],[45.4223,31.2629,8.8391],[45.402,31.2561,9.0312],[45.3958,31.2514,9.661],[45.3933,31.2345,9.8222],[45.3928,31.1706,8.7649],[45.3893,31.1619,8.7833],[45.3711,31.1404,10.4739],[45.3632,31.1244,9.5006],[45.3604,31.0989,10.8845],[45.3541,31.0799,12.7962],[45.3526,31.038,20.5564],[45.3492,31.0214,21.7733],[45.367,31.0136,21.4016],[45.3933,30.9903,23.7286],[45.4087,30.9807,21.9843],[45.4202,30.9691,24.932],[45.4304,30.9555,26.7828],[45.4614,30.9389,21.6141],[45.4777,30.9316,20.9824],[45.4919,30.9273,20.1049],[45.5256,30.8997,21.1093],[45.5381,30.8976,20.9649],[45.5645,30.897,17.4441],[45.5764,30.8928,15.2598],[45.6002,30.8768,13.3302],[45.621,30.8497,18.1016],[45.6269,30.8444,18.118],[45.6379,30.8439,17.1311],[45.6465,30.848,16.1366],[45.6525,30.8535,12.7605]]]]}}