{"type":"Feature","properties":{"GID_2":"IRQ.7.6_1","GID_0":"IRQ","country":"Iraq","GID_1":"IRQ.7_1","province":"As-Sulaymaniyah","NL_NAME_1":"NA","county":"Penjwin","VARNAME_2":"NA","NL_NAME_2":"NA","TYPE_2":"Kaza","ENGTYPE_2":"District","CC_2":"NA","HASC_2":"NA","name":"Penjwin.county"},
"geometry":{"type": "MultiPolygon","coordinates": [[[[45.762,35.8013,2133.4846],[45.7608,35.79,1752.7397],[45.7637,35.7824,1817.3864],[45.7842,35.76,1604.9152],[45.7887,35.7413,1103.7766],[45.7918,35.7345,1256.873],[45.8078,35.7211,1587.1267],[45.8104,35.716,1417.4781],[45.8111,35.6987,1164.0851],[45.8043,35.6764,1350.9299],[45.8056,35.6666,1341.5739],[45.8118,35.6622,1377.4807],[45.8263,35.6597,1576.4736],[45.8332,35.6555,1747.0388],[45.8453,35.6338,1584.0244],[45.8555,35.6196,1625.7666],[45.8583,35.6125,1656.5289],[45.8582,35.6056,1430.8171],[45.8538,35.5995,1504.952],[45.828,35.5959,1070.5778],[45.8231,35.5933,1159.2472],[45.8197,35.5849,1095.595],[45.8177,35.5661,1242.1843],[45.815,35.5612,1240.6282],[45.8101,35.5586,1226.9885],[45.7957,35.556,1492.0439],[45.7893,35.5517,1323.2551],[45.7867,35.5406,1424.968],[45.7874,35.5264,1039.9154],[45.7979,35.5018,1111.2488],[45.8029,35.4934,1090.1188],[45.8148,35.4942,1048.4287],[45.8358,35.5005,1201.5664],[45.8458,35.4995,896.8054],[45.8556,35.4955,830.436],[45.878,35.4914,746.9324],[45.9355,35.471,1070.1045],[45.9442,35.4695,1234.8867],[45.9578,35.4699,1422.5947],[45.981,35.4766,1496.9901],[46.0009,35.4772,1896.824],[45.9893,35.4996,1715.3849],[45.9924,35.5086,1300.3748],[45.9978,35.514,1275.311],[46.0112,35.5173,1395.1364],[46.0122,35.5254,1530.6289],[46.0089,35.5277,1458.1987],[46.0,35.5472,1344.0078],[45.9832,35.5661,1701.9037],[45.978,35.5746,1663.9696],[45.9798,35.5767,1645.4127],[45.987,35.5771,1502.4966],[46.0,35.5741,1518.3168],[46.0055,35.5694,1486.8801],[46.0133,35.5698,1465.0045],[46.0181,35.5733,1499.7551],[46.0166,35.5772,1461.1613],[46.0077,35.5854,1383.1426],[46.0122,35.5983,1325.6367],[46.0135,35.6115,1315.7379],[46.012,35.6254,1276.0378],[46.0,35.6346,1262.7883],[46.0,35.6378,1275.0094],[46.0038,35.6419,1329.6194],[46.009,35.6535,1311.139],[46.0081,35.6667,1398.8068],[46.0151,35.6798,1641.1461],[46.0472,35.6962,1521.6694],[46.0549,35.698,1685.1594],[46.0886,35.6841,1469.4296],[46.1037,35.685,1464.3279],[46.1342,35.6939,1916.028],[46.1551,35.6873,1969.6638],[46.1684,35.6926,2217.4292],[46.1726,35.6968,2183.6577],[46.1799,35.7101,1966.1967],[46.1886,35.7106,1979.5924],[46.2016,35.7194,2025.6173],[46.2064,35.7201,2174.4922],[46.2322,35.7117,2313.9214],[46.2392,35.7123,2377.1904],[46.2534,35.721,2191.7549],[46.2795,35.7296,2114.8623],[46.2827,35.735,2082.1199],[46.2822,35.7433,2131.8691],[46.3002,35.747,2001.926],[46.3037,35.7562,2354.1716],[46.3058,35.7575,2385.6255],[46.3218,35.7588,2356.7192],[46.3306,35.7646,2293.6006],[46.3342,35.7719,2238.1199],[46.3484,35.7884,2333.0754],[46.3492,35.7983,2102.3491],[46.3489,35.8091,1873.8887],[46.3451,35.8162,1868.6545],[46.3397,35.821,1810.7765],[46.3122,35.8252,2070.0837],[46.2945,35.8313,2099.552],[46.2908,35.8308,2130.5217],[46.273,35.8149,2100.5691],[46.2679,35.8121,2069.4939],[46.2522,35.81,2141.7217],[46.2459,35.8115,2194.5391],[46.2301,35.8109,2001.4373],[46.2277,35.81,1995.656],[46.2157,35.7976,2142.4709],[46.2108,35.7957,2116.905],[46.2032,35.7997,2163.8979],[46.1748,35.798,2349.9275],[46.1605,35.8004,2264.2578],[46.1564,35.8018,2308.5879],[46.145,35.8131,2457.2554],[46.1354,35.8282,2203.0256],[46.1352,35.8314,2266.1118],[46.1436,35.8417,2462.7354],[46.1422,35.8442,2601.3135],[46.1167,35.842,2185.6538],[46.1017,35.8559,2364.8975],[46.0933,35.8607,2477.9292],[46.0869,35.8601,2573.4287],[46.0638,35.8523,2185.6882],[46.0496,35.8503,1968.6406],[46.0328,35.8362,1984.0367],[46.0254,35.8332,2127.9382],[46.0148,35.8322,2090.0867],[46.0037,35.8331,1909.106],[46.0,35.8375,1828.5062],[45.9754,35.8426,1758.2402],[45.9641,35.8433,1904.9408],[45.9568,35.8397,1670.3455],[45.9518,35.833,1611.8496],[45.9407,35.8245,1650.0707],[45.908,35.8377,1622.7848],[45.8968,35.8394,1746.4409],[45.8864,35.8373,1722.3562],[45.8803,35.8321,1738.5142],[45.8706,35.8143,1843.7761],[45.8493,35.8166,1744.803],[45.825,35.8117,1864.1095],[45.815,35.8142,1770.0018],[45.7989,35.8226,1768.0569],[45.7808,35.8117,1731.1967],[45.7732,35.803,2000.1539],[45.762,35.8013,2133.4846]]]]}}