{"type":"Feature","properties":{"ISO3166-1-Alpha-3":"IRQ","country":"Iraq","fill":"#F0F","id":"3062","name":"Karbala'"},
"geometry":{"type": "Polygon","coordinates": [[[44.12964,32.78115,29.0064],[43.95818,32.8258,46.5586],[43.84366,32.82572,30.3563],[43.75901,32.81681,49.7737],[43.67974,32.78415,27.5272],[43.49267,32.64465,24.2725],[43.4656,32.62964,38.8455],[43.45464,32.627,46.2199],[43.43335,32.62447,56.2712],[43.31088,32.60984,85.8801],[43.26395,32.59478,114.4826],[43.21073,32.57098,133.1954],[43.21765,32.5407,140.2849],[43.24184,32.51013,132.659],[43.47738,32.30823,117.2374],[43.64233,32.20344,93.8499],[43.69059,32.16845,129.5514],[44.15672,32.28193,61.5808],[44.25004,32.30661,34.1941],[44.27609,32.30924,27.5461],[44.28808,32.30028,24.3781],[44.29645,32.29596,24.5763],[44.3012,32.30139,24.7345],[44.30575,32.31252,26.3774],[44.3074,32.31862,25.0487],[44.3195,32.34371,24.6112],[44.31629,32.35451,26.8633],[44.29552,32.38919,23.0237],[44.28808,32.41006,24.7863],[44.29304,32.4265,25.9406],[44.30255,32.44644,30.2156],[44.29552,32.46649,26.9371],[44.23919,32.53626,29.1919],[44.22266,32.57023,28.9246],[44.22038,32.60762,32.3363],[44.25573,32.71614,35.5943],[44.26503,32.72444,31.8206],[44.26441,32.73575,32.7896],[44.2641,32.74167,35.7209],[44.26007,32.74958,32.295],[44.23578,32.7704,30.6121],[44.22896,32.77472,30.4719],[44.22286,32.77681,31.2152],[44.21821,32.7766,30.8594],[44.21294,32.77472,30.3873],[44.20219,32.76968,30.6103],[44.19754,32.76906,29.8132],[44.19227,32.76968,29.5912],[44.15734,32.77766,29.9538],[44.12964,32.78115,29.0064]]]}}