{"type":"Feature","properties":{"GID_1":"IRQ.14_1","GID_0":"IRQ","country":"Iraq","province":"Karbala'","VARNAME_1":"Kerbela","NL_NAME_1":"NA","TYPE_1":"Muhafazah","ENGTYPE_1":"Province","CC_1":"NA","HASC_1":"IQ.KA","ISO_1":"IQ-KA","name":"Karbala'.province"},
"geometry":{"type": "MultiPolygon","coordinates": [[[[43.7628,32.709,29.3724],[43.7507,32.7031,26.9088],[43.6987,32.6922,20.041],[43.6724,32.684,18.5],[43.6521,32.6742,18.5],[43.5898,32.6376,18.7813],[43.5192,32.6013,31.8384],[43.4929,32.5912,51.4359],[43.4712,32.5858,55.4065],[43.4548,32.5838,59.3602],[43.4525,32.5804,60.3671],[43.4447,32.5771,59.9257],[43.4249,32.5724,66.9517],[43.2918,32.5578,112.8303],[43.2006,32.5377,134.9654],[43.1786,32.5308,139.7584],[43.1654,32.5228,144.9348],[43.1622,32.5179,147.07],[43.1611,32.5124,151.5369],[43.163,32.505,149.5254],[43.1721,32.4916,153.7976],[43.1904,32.4745,152.8311],[43.2898,32.395,143.5086],[43.3461,32.3479,139.287],[43.3873,32.3103,135.2995],[43.5638,32.1688,121.4282],[43.6063,32.1319,118.6867],[43.6215,32.1208,119.2717],[43.6442,32.0983,157.5569],[43.6614,32.0888,147.4933],[43.6667,32.095,145.0918],[43.6756,32.1002,146.4941],[43.7185,32.1177,136.2297],[44.0535,32.2296,90.2522],[44.1453,32.2621,65.2016],[44.1653,32.2717,61.0056],[44.1827,32.2729,57.5847],[44.2247,32.281,44.1981],[44.2613,32.2897,34.0614],[44.2772,32.2966,29.3121],[44.2892,32.2995,24.3781],[44.2867,32.3133,25.2438],[44.28,32.3906,26.6058],[44.2713,32.4305,27.1357],[44.2635,32.4472,29.6104],[44.2474,32.4694,27.0019],[44.1831,32.5374,28.4294],[44.1636,32.5653,30.4406],[44.1621,32.5888,28.9391],[44.1651,32.6055,28.2023],[44.1716,32.619,31.3662],[44.1918,32.6311,28.0749],[44.1958,32.6359,30.5957],[44.2011,32.6469,27.5845],[44.2022,32.6646,33.3872],[44.1993,32.674,37.1511],[44.1906,32.6831,32.5042],[44.1734,32.6929,29.3581],[44.1613,32.6948,28.5704],[44.1391,32.6932,30.0804],[44.1303,32.6907,31.2022],[44.1077,32.6908,29.2272],[44.0943,32.6947,30.6159],[44.0895,32.694,29.3326],[44.0663,32.6979,28.3436],[43.9702,32.7249,24.3837],[43.9225,32.7325,30.5705],[43.8684,32.7306,33.8331],[43.8164,32.7242,20.3581],[43.78,32.7151,28.5563],[43.7628,32.709,29.3724]]]]}}