{"type":"Feature","properties":{"GID_2":"IRQ.14.1_1","GID_0":"IRQ","country":"Iraq","GID_1":"IRQ.14_1","province":"Karbala'","NL_NAME_1":"NA","county":"AinAlTamur","VARNAME_2":"NA","NL_NAME_2":"NA","TYPE_2":"Kaza","ENGTYPE_2":"District","CC_2":"NA","HASC_2":"NA","name":"Ain_Al_Tamur.county"},
"geometry":{"type": "MultiPolygon","coordinates": [[[[43.4548,32.5838,59.3602],[43.4525,32.5804,60.3671],[43.4447,32.5771,59.9257],[43.4249,32.5724,66.9517],[43.2918,32.5578,112.8303],[43.2006,32.5377,134.9654],[43.1786,32.5308,139.7584],[43.1654,32.5228,144.9348],[43.1622,32.5179,147.07],[43.1611,32.5124,151.5369],[43.163,32.505,149.5254],[43.1721,32.4916,153.7976],[43.1904,32.4745,152.8311],[43.2898,32.395,143.5086],[43.3461,32.3479,139.287],[43.3873,32.3103,135.2995],[43.5017,32.2192,127.4792],[43.5638,32.1688,121.4282],[43.6063,32.1319,118.6867],[43.6215,32.1208,119.2717],[43.626,32.127,115.8033],[43.6312,32.1471,108.0824],[43.6449,32.1862,96.6621],[43.6466,32.2068,94.1563],[43.6528,32.2258,89.5431],[43.6547,32.2551,83.3889],[43.6679,32.2931,64.6416],[43.672,32.3154,54.5606],[43.676,32.325,50.9701],[43.6789,32.3504,45.4495],[43.6852,32.3698,44.039],[43.687,32.3903,44.7219],[43.6932,32.4094,47.1849],[43.6953,32.4471,48.5023],[43.6979,32.4522,47.2512],[43.7086,32.4598,45.7551],[43.7161,32.4687,41.9116],[43.7244,32.4924,40.1939],[43.7283,32.5148,34.14],[43.7405,32.5483,26.9039],[43.7433,32.5738,21.8482],[43.7485,32.5882,21.4407],[43.7514,32.6137,18.5],[43.7567,32.6281,28.5049],[43.7584,32.6381,25.1968],[43.7581,32.6804,26.3362],[43.7552,32.6937,26.156],[43.7507,32.7031,26.9088],[43.6987,32.6922,20.041],[43.6724,32.684,18.5],[43.6521,32.6742,18.5],[43.5898,32.6376,18.7813],[43.5192,32.6013,31.8384],[43.4929,32.5912,51.4359],[43.4712,32.5858,55.4065],[43.4548,32.5838,59.3602]]]]}}