{"type":"Feature","properties":{"GID_2":"IRQ.11.4_1","GID_0":"IRQ","country":"Iraq","GID_1":"IRQ.11_1","province":"Dhi-Qar","NL_NAME_1":"NA","county":"Shatrah","VARNAME_2":"NA","NL_NAME_2":"NA","TYPE_2":"Kaza","ENGTYPE_2":"District","CC_2":"NA","HASC_2":"NA","name":"Shatrah.county"},
"geometry":{"type": "MultiPolygon","coordinates": [[[[46.6127,31.4029,4.5854],[46.5935,31.422,5.0524],[46.5772,31.441,5.2643],[46.5652,31.4609,5.9829],[46.5475,31.4977,6.4984],[46.5242,31.5343,6.5519],[46.4471,31.6394,7.8916],[46.4375,31.6505,8.0578],[46.431,31.6435,7.9704],[46.4274,31.6357,8.3445],[46.4257,31.6218,8.3574],[46.4252,31.5786,8.3198],[46.4232,31.572,8.2334],[46.42,31.5688,8.0305],[46.4083,31.5664,6.4],[46.3814,31.5667,6.4676],[46.371,31.5676,6.0728],[46.3534,31.5726,6.947],[46.3362,31.5677,7.3208],[46.3271,31.5673,7.8915],[46.3183,31.5688,8.0397],[46.3037,31.5741,7.5954],[46.2831,31.5743,5.8867],[46.254,31.5653,5.0935],[46.2389,31.557,5.3038],[46.2347,31.5502,6.9044],[46.2322,31.5358,6.8986],[46.2278,31.5295,7.1132],[46.1917,31.52,5.1174],[46.1656,31.5187,6.6976],[46.159,31.5166,8.292],[46.1546,31.5102,9.1552],[46.1522,31.492,8.6749],[46.1482,31.487,8.8015],[46.1421,31.4885,9.0618],[46.1285,31.4988,9.7305],[46.1211,31.5022,8.1804],[46.0961,31.5034,6.784],[46.0828,31.5004,7.0656],[46.0686,31.4921,7.9676],[46.0635,31.4815,7.9643],[46.0637,31.4696,7.8447],[46.0726,31.4463,8.1706],[46.0726,31.4327,7.516],[46.0695,31.4247,7.2326],[46.0435,31.3867,6.4726],[46.0416,31.3767,7.422],[46.0409,31.3557,6.2201],[46.0376,31.3473,5.7519],[46.0327,31.3446,5.7556],[46.0242,31.3435,5.6811],[45.9758,31.344,5.5721],[45.9654,31.3457,6.4819],[45.955,31.3501,5.9874],[45.9333,31.3558,5.8755],[45.9066,31.3406,5.1881],[45.9011,31.3347,5.8278],[45.8989,31.3281,5.4579],[45.9013,31.3208,5.7486],[45.9075,31.3134,5.6711],[45.9384,31.2837,5.3597],[45.958,31.274,5.089],[45.9801,31.2698,5.1843],[45.9892,31.2626,5.047],[45.9986,31.2502,4.424],[46.0213,31.2365,4.0921],[46.031,31.2114,4.1536],[46.0347,31.1888,4.1957],[46.0415,31.1686,4.2184],[46.046,31.1619,4.6075],[46.055,31.1569,4.1977],[46.0662,31.1528,4.3086],[46.0869,31.1511,3.7664],[46.1014,31.1461,3.8169],[46.1116,31.1444,4.1578],[46.2311,31.144,6.5082],[46.2436,31.1462,5.8449],[46.2578,31.1557,6.0628],[46.2651,31.1587,6.2875],[46.3006,31.1602,6.4712],[46.3073,31.1622,5.6119],[46.3105,31.1653,6.013],[46.3126,31.1768,6.2464],[46.311,31.1867,6.5132],[46.2968,31.2158,7.3286],[46.2943,31.2242,6.6855],[46.2942,31.2313,6.7974],[46.2984,31.2509,8.1338],[46.3149,31.2986,4.5908],[46.3226,31.3103,4.2759],[46.326,31.3124,4.1406],[46.3328,31.3121,3.8313],[46.3409,31.3082,3.7331],[46.3529,31.2918,6.0994],[46.3654,31.2815,5.3904],[46.3895,31.2734,4.9641],[46.4162,31.2704,4.9711],[46.423,31.2674,5.8803],[46.4287,31.262,4.3276],[46.4366,31.2492,5.027],[46.4453,31.2412,5.2636],[46.4897,31.2113,4.9872],[46.4963,31.2093,5.4303],[46.5011,31.211,5.2571],[46.5094,31.2245,5.2223],[46.5119,31.2328,5.547],[46.5133,31.3095,4.4602],[46.5223,31.3385,5.8853],[46.5302,31.3546,6.0555],[46.5412,31.3656,5.7458],[46.5574,31.3733,3.6354],[46.572,31.377,4.1903],[46.5923,31.3858,5.3442],[46.6127,31.4029,4.5854]]]]}}