{"type":"Feature","properties":{"GID_2":"IRQ.15.1_1","GID_0":"IRQ","country":"Iraq","GID_1":"IRQ.15_1","province":"Maysan","NL_NAME_1":"NA","county":"AlAmarah","VARNAME_2":"NA","NL_NAME_2":"NA","TYPE_2":"Kaza","ENGTYPE_2":"District","CC_2":"NA","HASC_2":"NA","name":"Al_Amarah.county"},
"geometry":{"type": "MultiPolygon","coordinates": [[[[47.2057,32.4562,104.3371],[47.1585,32.4475,58.5679],[47.1437,32.4245,52.9067],[47.1338,32.4041,49.5161],[47.103,32.3715,42.9261],[47.0924,32.351,40.1666],[47.088,32.3289,40.1566],[47.0681,32.3033,36.2762],[47.0522,32.2713,30.4584],[47.0482,32.2569,27.97],[47.0324,32.2249,21.9059],[47.0038,32.1837,15.0191],[46.9762,32.1293,8.962],[46.9557,32.1038,8.1879],[46.9378,32.0689,7.4019],[46.9324,32.0631,7.3551],[46.9203,32.0606,7.2203],[46.863,32.061,8.3856],[46.8466,32.0591,9.6372],[46.8236,32.0505,9.1166],[46.8092,32.0341,8.7419],[46.8014,32.0303,9.3105],[46.783,32.0266,8.2365],[46.757,32.0072,8.1171],[46.7448,32.0054,8.352],[46.7152,32.0129,7.9619],[46.6782,32.0129,8.9611],[46.6666,32.0083,9.2231],[46.6559,31.995,9.168],[46.6493,31.9904,9.4424],[46.6293,31.9832,9.5964],[46.5961,31.9804,9.0493],[46.5766,31.9744,9.3831],[46.5483,31.9746,9.7068],[46.5301,31.9815,9.2172],[46.512,31.9742,8.1964],[46.4965,31.9729,8.0339],[46.4057,31.9889,10.8975],[46.382,31.9879,11.5024],[46.3483,31.9801,10.7285],[46.3303,31.9738,10.3657],[46.3318,31.9706,10.2599],[46.3302,31.9618,9.8504],[46.3264,31.9546,10.2814],[46.3019,31.9286,9.295],[46.298,31.9212,9.3273],[46.2957,31.9104,8.9953],[46.296,31.8993,9.6143],[46.3024,31.8828,10.0387],[46.3304,31.8468,9.3194],[46.361,31.8162,9.0118],[46.3799,31.7902,9.1315],[46.4097,31.7423,8.3742],[46.4237,31.7482,8.4627],[46.4324,31.7496,8.707],[46.5156,31.7502,9.0172],[46.536,31.7492,8.5557],[46.5504,31.744,7.8594],[46.5603,31.7423,7.5617],[46.6454,31.7422,7.4506],[46.652,31.7442,7.3419],[46.6551,31.7474,7.2697],[46.657,31.754,7.6179],[46.6584,31.7728,8.1383],[46.6639,31.7835,8.3413],[46.6736,31.7893,9.3089],[46.6934,31.7927,8.7204],[46.7211,31.789,7.2645],[46.7281,31.786,7.2],[46.7542,31.7604,7.5404],[46.7591,31.7527,7.592],[46.7651,31.7376,8.0632],[46.77,31.7348,6.7984],[46.7882,31.7315,8.2559],[46.7979,31.7276,7.9416],[46.8176,31.7256,7.9367],[46.8478,31.7265,6.4993],[46.878,31.7398,6.6508],[46.8972,31.7419,6.6522],[46.9164,31.7398,6.5422],[46.9499,31.7273,6.9792],[46.9571,31.7263,6.4272],[46.9681,31.7297,6.4538],[46.99,31.7472,6.9517],[47.0122,31.7515,7.3518],[47.0444,31.767,6.277],[47.0747,31.7937,5.6042],[47.0817,31.7967,5.5686],[47.0892,31.7975,6.29],[47.0964,31.7966,5.812],[47.1012,31.7938,6.0652],[47.1148,31.7625,5.9252],[47.1181,31.7591,6.5257],[47.1336,31.7509,6.7351],[47.1618,31.7475,5.9127],[47.1694,31.7445,4.4225],[47.1809,31.7373,3.9543],[47.1865,31.7395,3.9175],[47.1996,31.7412,5.2087],[47.2246,31.7407,5.9251],[47.2438,31.7317,6.2379],[47.247,31.7281,6.4496],[47.2533,31.7097,6.6267],[47.2647,31.6933,6.2766],[47.2714,31.6937,6.587],[47.2755,31.6955,6.2398],[47.2782,31.6988,6.0724],[47.3077,31.7559,5.6396],[47.3163,31.7695,5.6188],[47.325,31.7728,4.7774],[47.3496,31.7732,5.3297],[47.3639,31.7712,5.2855],[47.3736,31.7672,4.4032],[47.3915,31.764,4.696],[47.4104,31.7579,5.0899],[47.4358,31.7549,4.1848],[47.4774,31.7351,3.662],[47.4871,31.7339,4.0846],[47.5042,31.7351,4.3192],[47.5158,31.7312,3.8444],[47.5246,31.7235,4.0657],[47.5369,31.7056,3.5274],[47.5468,31.6955,2.7721],[47.5572,31.6895,2.8924],[47.5632,31.6794,2.0936],[47.5683,31.6766,2.4358],[47.5756,31.6759,2.7684],[47.5889,31.6829,2.1746],[47.6002,31.6857,2.3358],[47.6082,31.6843,2.1798],[47.626,31.6776,2.6928],[47.6469,31.6766,2.0],[47.6554,31.6778,2.0],[47.6606,31.6805,4.4186],[47.6756,31.6993,1.7423],[47.6943,31.7141,2.9108],[47.7022,31.7296,3.4462],[47.7064,31.7519,4.9914],[47.7137,31.7607,5.8015],[47.7205,31.7637,6.4247],[47.7294,31.7647,6.5997],[47.7924,31.7646,5.4155],[47.8,31.7659,5.4067],[47.8075,31.7699,5.6097],[47.8363,31.8003,6.8656],[47.8423,31.8091,7.3321],[47.8185,31.8264,10.5931],[47.8048,31.8412,10.7944],[47.7995,31.8524,11.4565],[47.7991,31.8637,11.9968],[47.8036,31.8801,13.6579],[47.7756,31.9027,16.0737],[47.7556,31.9123,18.4536],[47.7455,31.9197,19.5869],[47.7375,31.9296,20.8396],[47.7353,31.9547,23.8295],[47.7314,31.9639,24.7151],[47.7104,31.9888,26.4762],[47.7089,31.9989,27.2283],[47.6813,32.0317,33.1334],[47.6598,32.0431,35.4579],[47.6558,32.0471,36.9597],[47.6528,32.0556,39.8396],[47.6515,32.0789,34.3341],[47.648,32.0843,47.893],[47.6329,32.0927,77.2564],[47.6118,32.1101,60.4545],[47.6009,32.1157,60.6069],[47.5893,32.1163,76.7965],[47.5716,32.1139,67.3769],[47.5634,32.116,67.0552],[47.5555,32.1296,70.5566],[47.5399,32.1371,59.2249],[47.5358,32.1424,57.7645],[47.5343,32.1605,69.5999],[47.5358,32.1745,79.4255],[47.5459,32.1842,91.5196],[47.5547,32.1901,101.2],[47.5627,32.1996,101.4541],[47.5679,32.2143,99.2997],[47.5673,32.2239,106.3494],[47.557,32.2319,104.673],[47.5382,32.2384,126.9081],[47.5284,32.2482,126.4755],[47.5218,32.2575,127.7806],[47.4998,32.2727,120.3485],[47.4961,32.2822,127.0406],[47.4985,32.2917,114.4524],[47.5027,32.2979,128.464],[47.5022,32.3008,136.5266],[47.4889,32.3128,143.148],[47.4747,32.3192,149.3819],[47.4641,32.3208,157.4589],[47.4591,32.3189,160.2061],[47.4514,32.3201,161.326],[47.4453,32.3235,146.94],[47.443,32.3284,147.4791],[47.4441,32.3331,140.3684],[47.4421,32.3421,149.4422],[47.438,32.3461,154.6915],[47.4291,32.3505,159.2603],[47.4262,32.3528,159.8921],[47.4258,32.3556,165.6742],[47.4443,32.3578,164.8067],[47.4494,32.362,168.2989],[47.4561,32.3742,173.9713],[47.4542,32.3902,193.2484],[47.4489,32.4012,216.2547],[47.4404,32.4102,201.4426],[47.431399999999996,32.4157,190.1667],[47.4172,32.4297,179.5755],[47.4102,32.4408,174.5567],[47.3934,32.4601,170.1695],[47.3851,32.4671,183.1285],[47.3747,32.4684,181.256],[47.3515,32.4672,185.3875],[47.3367,32.4706,199.0402],[47.3207,32.4788,218.9651],[47.3038,32.4908,251.4271],[47.2983,32.4926,259.7207],[47.2908,32.4915,229.6357],[47.2813,32.4837,205.6367],[47.2613,32.4717,199.5337],[47.2337,32.4636,164.7533],[47.2214,32.458,99.6245],[47.2142,32.456,89.7733],[47.2057,32.4562,104.3371]]]]}}