{"type":"Feature","properties":{"GID_2":"IRQ.16.2_1","GID_0":"IRQ","country":"Iraq","GID_1":"IRQ.16_1","province":"Ninawa","NL_NAME_1":"NA","county":"AlBa'aj","VARNAME_2":"NA","NL_NAME_2":"NA","TYPE_2":"Kaza","ENGTYPE_2":"District","CC_2":"NA","HASC_2":"NA","name":"Al_Ba'aj.county"},
"geometry":{"type": "MultiPolygon","coordinates": [[[[41.814,34.9638,308.5424],[41.8441,35.0002,297.1291],[41.8521,35.0163,291.0045],[41.8565,35.0305,296.2874],[41.8678,35.0485,302.9006],[41.8726,35.0705,306.9938],[41.8764,35.0803,308.1444],[41.8781,35.0902,304.5389],[41.8774,35.1056,298.7141],[41.8734,35.115,297.9794],[41.8641,35.1281,289.011],[41.8601,35.1398,290.1561],[41.8598,35.1469,292.8015],[41.8639,35.1665,305.7416],[41.875,35.1869,313.5956],[41.8866,35.1984,300.9898],[41.9003,35.2086,286.3137],[41.9215,35.2353,266.175],[41.929,35.2539,254.9195],[41.9458,35.2752,256.9174],[41.9498,35.2845,255.5878],[41.95,35.3049,260.7958],[41.9438,35.3244,250.0302],[41.9417,35.3449,236.0177],[41.9353,35.3642,228.5051],[41.9323,35.3825,217.5915],[41.9357,35.4167,221.216],[41.9406,35.4314,220.6981],[41.945,35.4536,224.3866],[41.953,35.4695,222.3492],[41.9654,35.4832,217.6712],[41.9684,35.4903,219.4294],[41.9663,35.5129,220.9946],[41.9596,35.5318,214.4282],[41.9567,35.5466,210.8477],[41.9581,35.5586,214.6816],[41.9628,35.5702,221.4449],[41.972,35.5854,230.778],[41.994,35.6027,248.196],[42.0045,35.625,244.1987],[42.0262,35.6425,252.2539],[42.0407,35.6771,251.4479],[42.052,35.6974,256.1789],[42.0637,35.7088,264.2204],[42.0791,35.7184,270.0448],[42.087,35.7258,266.1407],[42.0931,35.7344,258.5659],[42.0981,35.7477,255.436],[42.1012,35.7512,253.2292],[42.1226,35.7632,261.331],[42.1303,35.77,258.5293],[42.1379,35.7881,261.4875],[42.1442,35.7963,266.0995],[42.1625,35.8099,271.7843],[42.1762,35.8282,278.5143],[42.1911,35.8379,279.7503],[42.216,35.8602,272.7967],[42.2309,35.87,277.3989],[42.2452,35.8868,267.2514],[42.2604,35.8948,258.1836],[42.2738,35.8995,257.8184],[42.296,35.9239,263.5817],[42.3273,35.9416,259.1312],[42.3345,35.9497,258.4645],[42.3557,35.9805,244.8671],[42.3462,35.9831,248.1725],[42.3204,35.985,253.8807],[42.3131,35.9881,252.2312],[42.3035,35.9962,252.5593],[42.2943,36.006,249.9264],[42.2898,36.0133,253.8916],[42.2856,36.043,244.55],[42.268,36.058,253.4119],[42.2543,36.0832,255.4673],[42.2508,36.0863,256.0562],[42.244,36.0882,258.2712],[42.1074,36.0885,289.1799],[42.0976,36.0893,291.111],[42.0835,36.0947,298.501],[42.0744,36.0963,298.527],[41.9772,36.0968,319.1326],[41.9658,36.0945,321.1904],[41.9509,36.0767,317.2431],[41.9403,36.073,317.5173],[41.8465,36.0727,322.665],[41.8373,36.071,321.9005],[41.8231,36.0657,320.4889],[41.8133,36.065,320.0393],[41.5907,36.065,320.6865],[41.5773,36.0661,320.799],[41.5722,36.0687,320.5736],[41.5592,36.0851,325.6512],[41.5463,36.093,329.6264],[41.5407,36.0986,331.3224],[41.5274,36.1246,352.9222],[41.5164,36.1357,356.4524],[41.4842,36.1512,376.7021],[41.4664,36.157,380.2474],[41.4382,36.1842,395.0009],[41.4284,36.1913,396.4404],[41.4162,36.1932,391.3733],[41.3813,36.1934,390.712],[41.3728,36.1967,392.8185],[41.37,36.2015,398.4163],[41.3592,36.236,433.2666],[41.3482,36.2471,437.7567],[41.3344,36.2494,441.2331],[41.2897,36.2492,443.5555],[41.2669,36.092,334.518],[41.258,36.0546,321.4246],[41.3811,35.8353,309.3078],[41.3943,35.6303,229.8557],[41.2826,35.4861,263.7845],[41.2749,35.3849,221.8653],[41.2424,35.2855,223.5477],[41.2333,35.248,217.2385],[41.2253,35.2042,206.7085],[41.2181,35.1322,158.349],[41.2204,35.0929,162.9891],[41.2783,35.1063,185.5785],[41.3083,35.1077,195.0295],[41.336,35.1041,201.5039],[41.3577,35.095,210.6686],[41.4234,35.0578,187.7027],[41.4464,35.0476,184.6847],[41.4634,35.042,189.6629],[41.4954,35.0352,196.829],[41.5502,35.0352,223.2318],[41.582,35.0307,229.8861],[41.6756,35.0065,274.5239],[41.7395,34.9924,286.2667],[41.7976,34.9713,302.733],[41.814,34.9638,308.5424]]]]}}