{"type":"Feature","properties":{"featurecla":"River","scalerank":3,"rivernum":62,"dissolve":"62River","name":"Euphrates5","name_alt":null,"note":null,"min_zoom":3.0,"strokeweig":1.0,"name_en":"Euphrates","min_label":4.0},
"geometry":{"type": "LineString","coordinates": [[46.363037109375,30.96539948124412,4.6671],[46.427148437500023,30.949969793744117,3.4064],[46.467382812500006,30.90180084843162,5.4772],[46.478759765625,30.89472077030662,6.3677],[46.48974609375,30.892694403119116,2.581],[46.511474609375,30.883661199994116,2.6334],[46.5234375,30.88165924686912,5.2702],[46.5361328125,30.884295965619117,2.4724],[46.54736328125,30.890399481244117,2.554],[46.564453125,30.90216705936912,2.5845],[46.748242187500011,30.961786199994116,1.5422],[46.950439453125,30.959833074994116,1.3519],[46.972070312500023,30.962176824994117,1.7837],[46.992285156250006,30.973504949994116,1.0371],[47.009033203125,30.97931549686912,1.3304],[47.03173828125,30.978290106244117,1.3177],[47.117919921875,30.964960028119116,1.2977],[47.163281250000011,30.96356842655662,1.0786],[47.23388671875,30.971307684369116,1.2742],[47.255859375,30.97040436405662,1.278],[47.266503906250023,30.96588776249412,1.5632],[47.2861328125,30.95209381718162,1.2052],[47.29736328125,30.949969793744117,2.3603],[47.307031250000023,30.95490143436912,2.5524],[47.314697265625,30.97272369999412,2.0548],[47.320898437500006,30.97662994999412,2.3251],[47.33642578125,30.97992584843162,1.7291],[47.410546875000023,31.011004949994117,2.2516],[47.433349609375,31.01642487186912,4.6961],[47.453222656250006,31.01496002811912,3.1701],[47.4619140625,31.00079987186912,1.5875],[47.46240234375,30.99164459843162,1.1748],[47.463623046875,30.98322174686912,1.1142],[47.468505859375,30.96845123905662,1.2199]]}}