{"type":"Feature","properties":{"featurecla":"River","scalerank":4,"rivernum":135,"dissolve":"135River","name":"Tigris","name_alt":null,"note":null,"min_zoom":4.0,"strokeweig":0.35,"name_en":"Tigris","min_label":5.0},
"geometry":{"type": "LineString","coordinates": [[45.806884765625,32.51093170780662,20.116],[45.812109375,32.50592682499412,17.203],[45.81884765625,32.50641510624412,19.7557],[45.83154296875,32.512469793744117,11.0205],[45.840917968750006,32.52533600468162,16.792],[45.851464843750023,32.536493231244116,18.2239],[45.863867187500006,32.54523346561912,18.129],[45.893164062500006,32.55475494999412,18.1778],[45.900634765625,32.55573151249412,17.5406],[45.907324218750006,32.554706121869117,17.4091],[45.913671875,32.552118231244116,17.1997],[45.91953125,32.550409246869116,16.7525],[45.925195312500023,32.551141668744116,10.0237],[45.9306640625,32.55585358280662,10.5916],[45.932861328125,32.560321356244117,17.2661],[45.936914062500023,32.575311590619116,15.1494],[45.941162109375,32.585223699994117,16.7258],[45.947656250000023,32.59552643436912,16.4543],[45.955664062500006,32.60443756718162,16.7064],[45.964746093750023,32.61017487186912,16.4404],[45.9765625,32.613397528119116,15.9743],[46.030859375,32.622186590619116,17.2202],[46.036035156250023,32.625116278119116,16.2735],[46.047753906250023,32.63654205936912,14.7452],[46.052832031250006,32.63947174686912,15.0608],[46.095800781250006,32.65314362186912,15.0879],[46.104296875000017,32.654559637494117,14.8092],[46.140625,32.650165106244117,15.2665],[46.161865234375,32.640887762494117,9.8305],[46.176513671875,32.62982819218162,15.2355],[46.206445312500023,32.58344147343162,15.0642],[46.218994140625,32.572381903119116,15.1951],[46.233789062500023,32.565204168744117,14.1382],[46.249755859375,32.56085846561912,14.5804],[46.296972656250006,32.55451080936912,14.1823],[46.31201171875,32.550165106244116,14.4495],[46.3359375,32.53302643436912,14.5323],[46.348876953125,32.52826569218162,13.6819],[46.398339843750023,32.523944403119117,11.0969],[46.465234375000023,32.53070709843162,9.9068],[46.481640625000011,32.52936432499412,13.1649],[46.4970703125,32.52558014530662,13.3013],[46.555419921875,32.50421784061912,11.2398],[46.635644531250023,32.492450262494117,12.4687],[46.651464843750006,32.48639557499412,12.5981],[46.663183593750006,32.479364324994116,12.1046],[46.673095703125,32.470721746869117,12.1908],[46.747802734375,32.367206121869117,8.2568],[46.74951171875,32.35822174686912,11.089],[46.74755859375,32.349872137494117,10.6977],[46.740625,32.343768621869117,10.1585],[46.7236328125,32.33746979374412,11.7701],[46.716064453125,32.333026434369117,11.8916],[46.710058593750006,32.325702215619117,11.0679],[46.706933593750023,32.31818268436912,8.6147],[46.70556640625,32.31037018436912,10.748],[46.7060546875,32.302508856244117,9.1985],[46.708398437500023,32.294696356244117,11.1356],[46.717871093750006,32.27667877811912,11.1093],[46.721582031250023,32.267352606244117,10.2406],[46.721777343750006,32.25726959843162,10.3831],[46.71923828125,32.24860260624412,10.3719],[46.71484375,32.24115631718162,5.0],[46.708886718750023,32.234881903119117,6.3365],[46.701904296875,32.229364324994116,5.3406],[46.693603515625,32.220819403119116,10.1363],[46.69189453125,32.21137116093162,5.0],[46.695068359375,32.20123932499412,9.9828],[46.711181640625,32.174579168744117,9.8928],[46.71337890625,32.168573309369116,9.5755],[46.714111328125,32.16351959843162,9.4194],[46.714257812500023,32.14813873905662,10.1157],[46.715722656250023,32.137567449994116,10.1283],[46.719482421875,32.128778387494116,9.8776],[46.72607421875,32.12177155155662,10.0838],[46.7353515625,32.11640045780662,11.1382],[46.75732421875,32.10932037968162,8.432],[46.7671875,32.104120184369116,8.3153],[46.7744140625,32.095477606244117,9.9847],[46.781005859375,32.081561590619117,9.5326],[46.7841796875,32.07782623905662,9.0667],[46.7890625,32.07514069218162,9.6909],[46.79443359375,32.074237371869117,9.0526],[46.799902343750006,32.07453034061912,8.7949],[46.82373046875,32.07953522343162,7.4304],[46.830078125,32.079364324994117,7.3356],[46.8369140625,32.07782623905662,7.4642],[46.843847656250006,32.075311590619116,8.1989],[46.8564453125,32.06830475468162,8.0434],[46.86279296875,32.06207916874412,8.3856],[46.86669921875,32.05475494999412,8.5732],[46.893652343750006,31.961932684369117,8.2165],[46.899316406250023,31.94855377811912,8.4191],[46.906347656250006,31.93683502811912,8.519],[46.948339843750006,31.893182684369116,7.9293],[46.954833984375,31.87787506718162,7.4544],[46.965576171875,31.869256903119116,7.6996],[46.9892578125,31.86225006718162,7.4384],[47.012792968750006,31.86310455936912,8.1257],[47.023681640625,31.87787506718162,6.8222],[47.034423828125,31.87897369999412,7.5167],[47.083886718750023,31.890643621869117,7.7691],[47.098730468750006,31.895868231244116,6.9328],[47.109619140625,31.88287994999412,9.6852],[47.123242187500011,31.874530340619117,7.0689],[47.134765625,31.86383698124412,8.3575],[47.139746093750006,31.844012762494117,8.7828],[47.137597656250023,31.83295319218162,8.4535],[47.128320312500023,31.819598699994117,7.1919],[47.126074218750006,31.80988190311912,5.3694],[47.1279296875,31.797235418744116,6.1923],[47.132080078125,31.78803131718162,6.162],[47.13671875,31.78034088749412,7.6388],[47.139746093750006,31.772333074994116,6.5787],[47.143945312500023,31.729266668744117,6.5655],[47.149804687500023,31.71137116093162,6.3707],[47.183349609375,31.695331121869117,4.9642],[47.191650390625,31.67548248905662,6.146],[47.1943359375,31.641376043744117,6.6946],[47.205468750000023,31.629510809369116,6.0988],[47.221289062500006,31.62067291874412,4.5483],[47.23583984375,31.60944244999412,4.2159],[47.2421875,31.590448309369116,5.9922],[47.28369140625,31.531512762494117,4.8418],[47.292382812500023,31.527460028119116,6.9142],[47.314697265625,31.52191803593162,4.5022],[47.324121093750023,31.51850006718162,4.9029],[47.336035156250006,31.51080963749412,4.6324],[47.35546875,31.48773834843162,4.2962],[47.37451171875,31.472528387494116,4.9179],[47.379980468750006,31.463885809369117,4.4653],[47.376220703125,31.45331452030662,4.5341],[47.369531250000023,31.44135162968162,4.0086],[47.369531250000023,31.43012116093162,4.1389],[47.375585937500006,31.41937897343162,4.1545],[47.386816406250006,31.40863678593162,4.2446],[47.400097656250011,31.400506903119116,3.5268],[47.414160156250006,31.394159246869116,2.1433],[47.42626953125,31.386737371869117,3.5534],[47.433984375000023,31.375116278119116,4.3679],[47.43515625,31.355829168744116,1.5968],[47.427978515625,31.343866278119116,2.3929],[47.418554687500006,31.33466217655662,5.2761],[47.4140625,31.323602606244116,6.2417],[47.426025390625,31.28461334843162,3.2658],[47.437255859375,31.26325104374412,2.2907],[47.441162109375,31.24750397343162,2.7672],[47.442578125000011,31.23090241093162,2.8591],[47.44140625,31.216815496869117,2.5728],[47.426513671875,31.180926824994117,2.6355],[47.427734375,31.16962311405662,3.1962],[47.44140625,31.15631744999412,1.9472],[47.453857421875,31.153436590619116,3.0121],[47.455664062500006,31.149188543744117,2.8946],[47.437597656250006,31.131463934369116,1.4398],[47.423095703125,31.108905340619117,2.8006],[47.4208984375,31.106952215619117,2.5438],[47.421972656250006,31.09772369999412,2.514],[47.426660156250023,31.093622137494116,1.643],[47.431640625,31.09027741093162,2.407],[47.433984375000023,31.08307526249412,1.5668],[47.4287109375,31.05048248905662,0.8905],[47.427978515625,31.03485748905662,2.2909],[47.433984375000023,31.018817449994117,4.978]]}}