{"type":"Feature","properties":{"GID_2":"IRQ.16.6_1","GID_0":"IRQ","country":"Iraq","GID_1":"IRQ.16_1","province":"Ninawa","NL_NAME_1":"NA","county":"Mosul","VARNAME_2":"NA","NL_NAME_2":"NA","TYPE_2":"Kaza","ENGTYPE_2":"District","CC_2":"NA","HASC_2":"NA","name":"Mosul.county"},
"geometry":{"type": "MultiPolygon","coordinates": [[[[43.3586,35.9673,211.2946],[43.3457,35.9728,186.6711],[43.3374,35.9828,210.5842],[43.3288,36.0039,241.8028],[43.3247,36.0343,187.9871],[43.313,36.06,194.0121],[43.3089,36.0822,196.4814],[43.3012,36.0983,197.9227],[43.2812,36.1239,200.3473],[43.2789,36.14,202.5014],[43.2785,36.1968,239.246],[43.2752,36.2068,253.6633],[43.2575,36.2437,248.865],[43.2544,36.254,240.8263],[43.2496,36.2601,242.7613],[43.2316,36.2668,259.0394],[43.2174,36.276,235.3938],[43.2088,36.2911,225.8614],[43.1937,36.3234,228.7461],[43.193,36.3331,237.2972],[43.1971,36.347,238.4798],[43.1966,36.3531,247.2032],[43.1726,36.3748,233.1252],[43.1626,36.3906,248.9485],[43.1399,36.4184,278.6838],[43.1111,36.4296,258.4924],[43.0334,36.4311,257.5836],[43.0047,36.4403,268.3306],[42.9985,36.4449,281.1505],[42.9941,36.4513,285.3807],[42.9901,36.4736,290.5639],[42.9829,36.4827,264.4646],[42.9316,36.5087,275.2073],[42.9168,36.5105,278.8289],[42.8491,36.5104,272.2522],[42.8291,36.5123,254.4424],[42.8048,36.5205,271.668],[42.7875,36.529,275.6367],[42.7709,36.5393,271.7162],[42.7601,36.5523,260.6604],[42.753,36.5561,252.8582],[42.7253,36.549,277.173],[42.7005,36.5388,275.3833],[42.6978,36.534,259.8481],[42.694,36.5159,281.8295],[42.6745,36.4898,293.3895],[42.6731,36.4802,299.3207],[42.6753,36.4722,295.1636],[42.6821,36.4603,312.1292],[42.6857,36.4573,311.4399],[42.7111,36.4505,320.7952],[42.7254,36.4407,325.5945],[42.7478,36.4298,328.639],[42.7523,36.4254,328.103],[42.7525,36.4224,326.9135],[42.7417,36.4004,326.8098],[42.7345,36.3884,338.3104],[42.7309,36.3853,337.8701],[42.7075,36.377,346.4955],[42.6816,36.3719,363.4171],[42.6655,36.3634,376.4868],[42.6582,36.3544,383.6171],[42.6547,36.3289,430.344],[42.6503,36.3147,516.9384],[42.6509,36.3086,550.3612],[42.6563,36.3034,531.5161],[42.6879,36.2872,421.1818],[42.6938,36.2818,383.0293],[42.6964,36.2655,336.5192],[42.6949,36.2322,304.0133],[42.6924,36.227,299.1739],[42.6838,36.2197,292.1817],[42.6742,36.2063,280.6776],[42.6657,36.1981,274.404],[42.6589,36.1938,271.4142],[42.6447,36.1894,266.4225],[42.6359,36.1821,261.3757],[42.6257,36.155,248.5536],[42.6219,36.1325,241.3019],[42.6117,36.1053,232.8427],[42.6028,36.0981,232.6384],[42.5806,36.0937,234.8512],[42.5742,36.0894,233.4795],[42.5692,36.0834,232.8486],[42.5615,36.0674,230.5519],[42.5575,36.045,223.1487],[42.5456,36.0193,224.372],[42.5413,35.9971,217.6643],[42.5362,35.9825,211.5115],[42.5361,35.9613,223.9569],[42.5427,35.9401,223.927],[42.5434,35.9284,217.9537],[42.5629,35.9179,210.2424],[42.5734,35.9,205.4237],[42.5751,35.8899,208.9357],[42.5757,35.8421,211.6683],[42.5845,35.8211,212.4732],[42.5894,35.8151,212.6553],[42.5994,35.8097,216.0063],[42.6182,35.8066,218.1072],[42.6337,35.7988,214.5596],[42.6389,35.7924,218.8591],[42.655,35.7609,212.2622],[42.6601,35.7545,210.3634],[42.6755,35.7464,210.3913],[42.6937,35.7433,213.5531],[42.7116,35.7375,206.117],[42.7186,35.7378,203.1469],[42.7248,35.742,201.1115],[42.7268,35.7486,199.1953],[42.7265,35.7586,201.4407],[42.7232,35.7672,198.8805],[42.7081,35.7834,186.798],[42.6885,35.7965,198.0892],[42.6828,35.802,196.8408],[42.665,35.8293,195.0435],[42.6559,35.8578,210.3902],[42.6538,35.8872,216.1627],[42.6494,35.9011,221.4154],[42.65,35.9071,225.9318],[42.6556,35.9117,222.0181],[42.6789,35.9183,212.2058],[42.7019,35.9127,206.2411],[42.7868,35.9116,227.1247],[42.7954,35.9081,230.5172],[42.8058,35.8946,226.5422],[42.8151,35.89,230.3352],[42.8215,35.8913,223.7114],[42.8335,35.8978,221.4097],[42.8502,35.9192,230.6318],[42.8564,35.9242,238.4886],[42.863,35.9262,239.4462],[42.8697,35.9242,241.0262],[42.876,35.9193,241.4408],[42.8881,35.9063,240.241],[42.8969,35.8934,245.7536],[42.9036,35.8894,247.2366],[42.914,35.8899,245.1653],[42.928,35.895,239.1299],[42.942,35.8959,236.9063],[42.9539,35.8938,233.9874],[42.9718,35.8822,235.0614],[42.979,35.8804,233.9303],[43.0162,35.8804,229.9383],[43.0357,35.8857,234.0988],[43.0417,35.8851,235.3847],[43.0459,35.8794,232.3252],[43.0466,35.862,225.8936],[43.0447,35.853,223.5109],[43.0379,35.8364,233.3353],[43.037,35.8283,238.169],[43.04,35.8214,240.5231],[43.0506,35.8124,239.3925],[43.0532,35.8072,239.0433],[43.0557,35.7779,211.6028],[43.0603,35.7601,201.9014],[43.0588,35.7536,199.1449],[43.0481,35.7311,206.2515],[43.0471,35.7241,202.5746],[43.0486,35.7178,200.389],[43.0547,35.7134,199.2839],[43.0846,35.7114,197.0385],[43.1139,35.7032,198.4193],[43.1182,35.7005,202.907],[43.1195,35.6957,195.603],[43.118,35.689,194.1052],[43.1133,35.6826,197.6173],[43.0848,35.6659,184.3018],[43.0636,35.6357,191.739],[43.0546,35.6135,199.9922],[43.0541,35.5886,209.1796],[43.1684,35.5881,183.5748],[43.2046,35.5914,157.8365],[43.2386,35.6033,158.9888],[43.2617,35.6149,151.7722],[43.3217,35.6612,187.0946],[43.3419,35.6721,192.821],[43.3436,35.6871,196.6549],[43.3422,35.7491,216.0228],[43.3445,35.767,210.8955],[43.3496,35.7858,233.2262],[43.3576,35.8007,237.6989],[43.3646,35.8088,230.2126],[43.3905,35.8315,212.1586],[43.4103,35.8561,202.5628],[43.4258,35.8798,227.6248],[43.4307,35.8964,249.934],[43.4297,35.9055,215.6157],[43.4263,35.9151,226.7232],[43.419,35.9259,213.6605],[43.4108,35.9331,204.179],[43.3678,35.9569,204.6467],[43.3606,35.9628,215.5805],[43.3586,35.9673,211.2946]]]]}}