{"type":"Feature","properties":{"GID_2":"IRQ.1.3_1","GID_0":"IRQ","country":"Iraq","GID_1":"IRQ.1_1","province":"Al-Anbar","NL_NAME_1":"NA","county":"AlHaditha","VARNAME_2":"NA","NL_NAME_2":"NA","TYPE_2":"Kaza","ENGTYPE_2":"District","CC_2":"NA","HASC_2":"NA","name":"Al_Haditha.county"},
"geometry":{"type": "MultiPolygon","coordinates": [[[[42.2214,34.8915,269.1872],[42.2074,34.8719,276.7789],[42.1953,34.8325,278.8499],[42.1832,34.8069,279.6864],[42.1692,34.7652,283.0417],[42.1606,34.7573,283.7358],[42.1444,34.7498,283.838],[42.1133,34.7475,290.5871],[42.1067,34.7456,291.0605],[42.1035,34.7424,292.0253],[42.0938,34.7064,302.7733],[42.0917,34.6857,308.6877],[42.0869,34.6679,322.5461],[42.0906,34.6588,318.0241],[42.102,34.6482,311.8628],[42.1092,34.6453,311.8477],[42.1351,34.6415,312.2763],[42.1505,34.6246,314.9716],[42.1678,34.618,316.1115],[42.2072,34.5942,318.9128],[42.2185,34.5791,316.691],[42.23,34.5683,314.2733],[42.2575,34.5582,305.5259],[42.2721,34.5545,289.0587],[42.2889,34.5448,264.1046],[42.2915,34.5397,255.709],[42.2926,34.5311,245.1461],[42.2933,34.4781,191.6903],[42.2999,34.4543,207.1739],[42.3016,34.4205,165.6324],[42.2983,34.3935,146.6638],[42.2782,34.3519,141.3107],[42.274,34.3376,132.5],[42.2693,34.3304,132.5],[42.2506,34.313,132.5],[42.2318,34.305,132.5],[42.2167,34.2864,132.5],[42.1971,34.2732,157.2859],[42.1859,34.2622,146.3711],[42.1822,34.2531,150.7317],[42.1852,34.2407,163.5077],[42.1837,34.2328,159.5617],[42.1708,34.2225,155.7545],[42.1571,34.204,172.1781],[42.1412,34.1934,188.8328],[42.1341,34.1844,180.352],[42.133,34.175,188.5873],[42.1376,34.1574,201.1768],[42.1358,34.151,202.3575],[42.1318,34.1455,201.724],[42.1227,34.1373,213.2661],[42.0966,34.1237,229.1868],[42.079,34.1113,235.0788],[42.0341,34.089,253.4023],[42.0216,34.0861,249.9607],[41.997,34.085,257.1935],[41.9693,34.0756,286.6528],[41.9662,34.0723,279.6353],[41.9642,34.0657,284.5409],[41.9633,34.0449,296.1392],[41.9613,34.035,301.0891],[41.9414,34.0093,328.3035],[41.9384,33.9981,327.2268],[41.939,33.9935,326.4661],[41.9564,33.9428,291.798],[41.9609,33.9362,279.5369],[41.9923,33.9126,262.6723],[42.0109,33.909,256.6163],[42.0177,33.906,262.649],[42.0233,33.9007,249.7255],[42.0313,33.8879,248.5293],[42.04,33.88,272.1988],[42.0559,33.8721,269.7533],[42.0736,33.8669,252.6447],[42.0906,33.8579,273.3778],[42.1183,33.8324,273.5062],[42.127,33.8263,263.0404],[42.1376,33.8292,256.3707],[42.1494,33.8301,254.3477],[42.181,33.8304,247.5581],[42.1942,33.829,235.153],[42.1993,33.8265,234.5745],[42.2087,33.817,232.4012],[42.2264,33.813,240.2342],[42.2332,33.8099,238.3834],[42.2482,33.7921,231.258],[42.2635,33.7839,225.9113],[42.2769,33.7825,219.9574],[42.2858,33.784,215.776],[42.3001,33.7892,210.0346],[42.3246,33.79,204.5128],[42.3339,33.7883,201.9235],[42.3709,33.7742,196.8722],[42.3793,33.7718,198.0979],[42.3863,33.7717,196.1942],[42.4003,33.7761,186.7336],[42.4132,33.7875,186.9586],[42.4235,33.7932,183.4208],[42.4295,33.8034,161.3043],[42.4367,33.8072,155.3842],[42.4896,33.8057,163.5276],[42.4982,33.8069,159.7993],[42.5044,33.8113,149.5214],[42.5063,33.8178,126.2821],[42.506,33.8278,118.1717],[42.5008,33.8425,114.9],[42.4998,33.8522,143.2522],[42.5019,33.8601,132.9225],[42.5084,33.8729,107.4176],[42.5205,33.8906,103.5939],[42.5225,33.9004,79.9999],[42.5231,33.9268,107.5596],[42.525,33.9366,112.5935],[42.537,33.9542,119.7287],[42.5772,34.034,154.2934],[42.5851,34.058,160.1753],[42.5891,34.0803,173.7857],[42.593,34.0901,171.8568],[42.5979,34.1111,185.5968],[42.6011,34.1144,197.7605],[42.6134,34.1195,191.8271],[42.618,34.1258,202.3134],[42.6204,34.1567,217.9079],[42.6183,34.1728,225.3773],[42.6209,34.1842,218.9101],[42.6517,34.2442,219.9499],[42.6551,34.2489,211.1772],[42.6716,34.262,199.9639],[42.6816,34.2812,201.5592],[42.6856,34.3115,210.6406],[42.6977,34.3454,211.231],[42.702,34.3742,207.2343],[42.7077,34.3881,192.6001],[42.6728,34.4104,217.4165],[42.5631,34.4699,233.1107],[42.4923,34.5061,241.8441],[42.4739,34.521,240.4644],[42.469,34.5272,240.5754],[42.4641,34.5375,242.0886],[42.4612,34.5504,241.5604],[42.4596,34.5784,246.0202],[42.4612,34.9151,243.942],[42.4296,34.9152,241.8518],[42.4038,34.9132,252.0058],[42.304,34.8932,265.5035],[42.2621,34.8867,265.5922],[42.2214,34.8915,269.1872]]]]}}