{"type":"Feature","properties":{"GID_2":"IRQ.17.5_1","GID_0":"IRQ","country":"Iraq","GID_1":"IRQ.17_1","province":"Salaad-Din","NL_NAME_1":"NA","county":"Bayji","VARNAME_2":"NA","NL_NAME_2":"NA","TYPE_2":"Kaza","ENGTYPE_2":"District","CC_2":"NA","HASC_2":"NA","name":"Bayji.county"},
"geometry":{"type": "MultiPolygon","coordinates": [[[[42.7077,34.3881,192.6001],[42.7575,34.3879,172.738],[42.7802,34.392,164.3113],[42.8106,34.4095,154.5547],[42.877,34.4543,125.1166],[42.9019,34.4666,118.5368],[42.9118,34.4671,117.2771],[42.9208,34.4635,112.788],[42.9258,34.4577,108.2837],[42.9293,34.4498,106.8754],[42.9315,34.4373,111.5925],[42.9315,34.4198,109.401],[42.9718,34.4196,92.8983],[42.9835,34.4157,87.11],[42.9954,34.4305,83.9086],[43.0159,34.4417,69.4469],[43.032,34.4436,63.275],[43.082,34.4434,48.5303],[43.0945,34.4456,59.8159],[43.1035,34.4529,64.3607],[43.1129,34.4654,57.6364],[43.1282,34.4735,69.4629],[43.1536,34.4764,92.3759],[43.1728,34.4823,113.8125],[43.202,34.4842,131.0029],[43.2531,34.4982,135.8658],[43.2736,34.5001,120.048],[43.2931,34.5061,126.4735],[43.3136,34.508,130.8092],[43.3327,34.5138,128.5088],[43.3546,34.5162,124.9922],[43.3613,34.5205,123.7035],[43.3734,34.5414,130.935],[43.3767,34.5449,132.51],[43.3921,34.5529,134.0284],[43.4101,34.559,128.4715],[43.4317,34.5743,128.8085],[43.445,34.5906,132.7839],[43.4707,34.6043,139.3863],[43.4819,34.6152,146.8771],[43.4983,34.6474,150.0204],[43.4998,34.6608,146.1875],[43.4948,34.6649,147.5404],[43.4601,34.6753,166.096],[43.4554,34.6783,166.7236],[43.4527,34.6831,167.6544],[43.4503,34.705,158.8932],[43.4459,34.7224,152.5474],[43.4503,34.7386,147.6116],[43.4501,34.7455,148.4423],[43.4478,34.7505,147.6632],[43.4384,34.7599,149.4198],[43.4364,34.7666,148.818],[43.4366,34.8245,149.3271],[43.4458,34.8533,137.5049],[43.4699,34.9012,125.4508],[43.4932,34.9266,108.588],[43.4937,34.9321,109.7236],[43.4904,34.9488,115.2236],[43.478,34.9745,128.5758],[43.477,34.9841,132.6045],[43.4781,34.9888,139.3948],[43.4862,34.9999,138.6198],[43.5072,35.0191,143.4129],[43.5191,35.0329,150.4248],[43.5363,35.0454,169.4051],[43.4324,35.1325,257.3785],[43.4121,35.152,290.9489],[43.4028,35.1659,228.8884],[43.3983,35.1754,190.4969],[43.3946,35.1899,127.5203],[43.3901,35.2203,127.7292],[43.3865,35.235,137.3759],[43.3822,35.2448,202.0514],[43.3693,35.267,172.3111],[43.3491,35.2954,131.4733],[43.3364,35.3093,237.4255],[43.3156,35.3242,230.7716],[43.2932,35.337,221.3074],[43.2569,35.323,227.9034],[43.2226,35.3203,288.0553],[43.2084,35.3153,260.5368],[43.1897,35.3122,226.1469],[43.1827,35.3092,215.7948],[43.1591,35.2876,194.7496],[43.1493,35.2812,191.4805],[43.1365,35.2752,186.308],[43.111,35.2725,172.6221],[43.082,35.2636,168.7031],[43.05,35.2478,146.3148],[43.0326,35.2351,154.6949],[43.0166,35.2274,154.2701],[43.0014,35.2255,147.6324],[42.9312,35.2253,134.7008],[42.92,35.2234,133.0345],[42.9084,35.2168,140.8598],[42.9054,35.2138,143.875],[42.9463,35.1498,123.9942],[42.9677,35.1232,120.3791],[42.9928,35.0989,112.7638],[43.0046,35.0828,104.6922],[43.0076,35.0701,106.1176],[43.0047,35.0592,113.521],[43.0004,35.0544,115.0378],[42.992,35.0493,125.4849],[42.9773,35.0447,108.4159],[42.9498,35.0419,127.8567],[42.852,35.0459,154.1347],[42.6221,35.0471,224.1867],[42.5363,35.0515,224.4078],[42.5047,35.0507,230.0833],[42.49,35.0486,226.5909],[42.4801,35.0454,231.4974],[42.4686,35.0365,226.8245],[42.464,35.0276,221.0071],[42.4608,35.013,222.9087],[42.4594,34.9787,234.2148],[42.4612,34.9151,243.942],[42.4596,34.5784,246.0202],[42.4612,34.5504,241.5604],[42.4641,34.5375,242.0886],[42.469,34.5272,240.5754],[42.4739,34.521,240.4644],[42.4923,34.5061,241.8441],[42.5631,34.4699,233.1107],[42.6728,34.4104,217.4165],[42.7077,34.3881,192.6001]]]]}}