{"type":"Feature","properties":{"GID_2":"IRQ.12.4_1","GID_0":"IRQ","country":"Iraq","GID_1":"IRQ.12_1","province":"Dihok","NL_NAME_1":"NA","county":"Zakho","VARNAME_2":"NA","NL_NAME_2":"NA","TYPE_2":"Kaza","ENGTYPE_2":"District","CC_2":"NA","HASC_2":"NA","name":"Zakho.county"},
"geometry":{"type": "MultiPolygon","coordinates": [[[[43.146,37.3707,1097.2932],[43.1412,37.37,1152.7217],[43.1289,37.3718,1070.2275],[43.1086,37.3652,1216.6228],[43.0917,37.3639,1243.3735],[43.068,37.3582,1393.823],[43.0381,37.3555,1403.2015],[43.0347,37.3527,1389.9358],[43.0271,37.3386,1872.6134],[43.02,37.333,1762.6997],[42.9874,37.3241,1865.9867],[42.9775,37.3174,1696.1084],[42.9737,37.3165,1777.2035],[42.9603,37.3179,2163.5586],[42.9214,37.3311,1902.3201],[42.8865,37.3376,1721.5692],[42.8821,37.339,1902.1958],[42.8731,37.3459,1906.4041],[42.8498,37.3469,1985.7985],[42.8421,37.3513,1756.579],[42.8346,37.3682,1377.5909],[42.8313,37.3716,1371.7882],[42.8033,37.378,1660.8627],[42.7991,37.3775,1787.6541],[42.7936,37.3744,1767.9468],[42.7847,37.363,1352.5044],[42.7742,37.3564,1523.2571],[42.7343,37.3479,1092.3796],[42.7308,37.3451,643.4182],[42.7433,37.3314,701.1167],[42.7459,37.3244,675.3385],[42.7433,37.318,702.8872],[42.737,37.3134,657.1016],[42.7268,37.3096,617.2093],[42.7046,37.3076,560.6148],[42.6993,37.3054,775.0647],[42.6989,37.3025,649.1854],[42.7032,37.2908,569.4094],[42.7007,37.2854,678.1019],[42.6933,37.2806,637.025],[42.6856,37.2705,586.2961],[42.6744,37.2702,550.8816],[42.6646,37.262,638.4243],[42.6581,37.2411,509.8661],[42.6525,37.2316,561.2477],[42.642,37.2225,624.7656],[42.627,37.214,510.6118],[42.6238,37.208,489.9692],[42.6216,37.1972,464.5156],[42.6159,37.1905,449.8207],[42.6022,37.1792,433.0826],[42.596,37.1702,430.2837],[42.5916,37.1473,398.3723],[42.5806,37.1454,394.0762],[42.5644,37.1482,391.0302],[42.5363,37.1488,383.2378],[42.5267,37.145,378.8786],[42.5122,37.134,375.4881],[42.5076,37.133,371.7972],[42.4839,37.1362,367.409],[42.4685,37.1357,364.3899],[42.4585,37.1324,364.6996],[42.4635,37.1149,448.0399],[42.4698,37.102,587.8178],[42.4754,37.096,805.0002],[42.4786,37.0946,815.0651],[42.5377,37.0925,1014.8491],[42.5475,37.0868,810.7899],[42.5576,37.0732,621.3767],[42.5662,37.0698,606.1245],[42.6299,37.0695,807.3692],[42.6451,37.0676,812.9977],[42.7025,37.0392,1036.8716],[42.7744,37.0153,932.8953],[42.7969,37.0113,1041.606],[42.8293,36.9991,944.0538],[42.8415,36.9973,1227.1132],[42.8468,37.0203,1135.3572],[42.8418,37.0388,708.7656],[42.8406,37.0526,598.4645],[42.843,37.059,561.9472],[42.8497,37.0647,607.3524],[42.8586,37.0682,645.8925],[42.8841,37.0707,652.4031],[42.9029,37.0849,547.9252],[42.924,37.0823,616.1113],[42.9457,37.0859,621.2075],[42.9602,37.084,644.5609],[42.9772,37.0789,699.798],[42.9824,37.0804,696.7228],[42.991,37.0917,658.6661],[42.9982,37.0944,699.6151],[43.029,37.0935,707.6572],[43.0436,37.0955,608.1321],[43.0522,37.1015,614.6638],[43.056,37.1076,624.5507],[43.0586,37.126,747.5995],[43.0605,37.1296,678.4777],[43.0812,37.1408,744.7123],[43.0869,37.1462,701.6041],[43.0886,37.1527,716.7825],[43.0887,37.1678,689.8508],[43.101,37.1849,769.8253],[43.1266,37.1944,804.1443],[43.1533,37.1976,711.7962],[43.1581,37.2003,739.4738],[43.1609,37.2061,753.6219],[43.1603,37.2152,763.7576],[43.1565,37.2218,842.6594],[43.1487,37.2301,827.5004],[43.1446,37.2516,954.5536],[43.1419,37.2564,890.1213],[43.1335,37.2598,938.0055],[43.1024,37.262,945.2651],[43.0973,37.266,1105.7029],[43.0967,37.2691,1343.0525],[43.0992,37.2793,1200.1273],[43.1071,37.2878,1043.8748],[43.1142,37.2909,894.1492],[43.129,37.2934,934.1938],[43.1354,37.2978,1041.1704],[43.1406,37.3185,929.223],[43.1452,37.3303,933.4845],[43.146,37.3707,1097.2932]]]]}}