{"type":"Feature","properties":{"ISO3166-1-Alpha-3":"IRQ","country":"Iraq","fill":"#000","id":"3052","name":"Sala ad-Din"},
"geometry":{"type": "Polygon","coordinates": [[[43.35821,35.45822,181.764],[43.36627,35.46008,181.4394],[43.36865,35.46091,183.0509],[43.37123,35.46404,182.6028],[43.37237,35.46939,182.4287],[43.3734,35.48163,188.1479],[43.37764,35.49497,191.7069],[43.37888,35.5014,188.7723],[43.3794,35.51044,184.1153],[43.37506,35.58824,205.8619],[43.37154,35.60343,199.8687],[43.36379,35.61527,193.8291],[43.35759,35.62069,189.0613],[43.35222,35.62317,188.2486],[43.34757,35.62385,192.9052],[43.34292,35.6254,189.294],[43.34023,35.62806,189.4465],[43.33919,35.63201,188.2513],[43.34199,35.63852,188.162],[43.34395,35.64635,186.781],[43.33992,35.65886,187.9023],[43.33496,35.66844,191.3239],[43.3302,35.67449,187.6754],[43.32555,35.67873,192.2446],[43.32287,35.68203,195.8762],[43.32162,35.68578,192.2213],[43.32566,35.69172,196.2684],[43.32783,35.69609,198.5995],[43.33434,35.72345,177.6368],[43.32462,35.71611,166.6609],[43.32255,35.7087,159.7255],[43.31873,35.69423,162.6023],[43.30871,35.68979,165.4929],[43.29537,35.68888,165.4554],[43.28101,35.68513,161.9579],[43.27336,35.67754,164.5287],[43.25837,35.65558,160.3602],[43.24432,35.64669,156.3296],[43.22468,35.64198,180.0046],[43.20556,35.63103,188.5336],[43.14003,35.60871,174.7577],[43.01921,35.54111,235.3396],[43.00195,35.54,249.5515],[42.99389,35.53791,234.5103],[42.98397,35.5329,203.6094],[42.96072,35.51677,180.9845],[42.94831,35.51011,172.0169],[42.91989,35.49962,156.2333],[42.91648,35.49938,157.5593],[42.914,35.49962,154.3002],[42.91224,35.49931,155.0107],[42.91059,35.4983,161.9623],[42.90842,35.4977,162.6403],[42.90532,35.49807,160.775],[42.9017,35.49796,157.7574],[42.89788,35.4983,155.4356],[42.89509,35.49708,154.6513],[42.89199,35.49419,152.8785],[42.88889,35.49016,147.0281],[42.88548,35.48445,153.2448],[42.88207,35.48228,148.9663],[42.8802,35.48057,143.8183],[42.87969,35.47918,143.2046],[42.88858,35.46765,144.8861],[42.8985,35.44838,151.0226],[42.90067,35.44151,145.831],[42.89891,35.43543,142.9296],[42.89354,35.42673,142.1586],[42.8893,35.42143,141.1173],[42.88775,35.41869,140.7008],[42.88486,35.40536,142.2539],[42.88548,35.39869,138.8604],[42.88765,35.3911,145.5819],[42.89261,35.38438,138.2434],[42.89292,35.3713,151.7561],[42.89519,35.36503,138.2811],[42.92248,35.33598,128.0399],[42.93033,35.32986,132.705],[42.94594,35.31989,124.4213],[42.95048,35.31482,126.2278],[42.95545,35.30774,122.8718],[42.95607,35.3003,122.439],[42.95731,35.29255,125.2212],[42.96888,35.26666,123.6399],[42.97105,35.26441,120.0875],[42.97353,35.26348,118.6518],[42.9757,35.26392,118.7234],[42.97756,35.2648,119.3789],[42.97932,35.26449,118.2],[42.97994,35.26224,118.0422],[42.97942,35.25705,118.6798],[42.97539,35.2494,117.7183],[42.97343,35.24315,118.7792],[42.97405,35.23643,116.51],[42.97064,35.21984,114.8866],[42.97033,35.21263,115.9753],[42.97136,35.21007,116.2348],[42.9725,35.20852,114.4014],[42.97415,35.20826,114.9054],[42.97632,35.20868,114.7908],[42.9788,35.20857,113.7381],[42.98397,35.20728,113.9149],[42.98707,35.19994,112.7763],[42.99513,35.18821,112.4141],[42.99627,35.1824,111.7438],[42.99761,35.18039,111.2449],[43.0004,35.17933,111.2124],[43.0034,35.17883,111.0843],[43.00464,35.17778,110.9759],[43.00464,35.17416,110.5592],[43.00588,35.17261,109.481],[43.00785,35.17204,109.2273],[43.01115,35.17219,109.9897],[43.01177,35.17064,109.7928],[43.01146,35.16832,108.8843],[43.0094,35.16584,107.2512],[43.0096,35.16418,108.7278],[43.01157,35.1632,107.9883],[43.01518,35.16282,107.7408],[43.01932,35.16279,107.3933],[43.02242,35.16217,108.3816],[43.0249,35.16196,107.2137],[43.02862,35.16222,105.5061],[43.03007,35.16103,107.1999],[43.03255,35.15173,106.5909],[43.03389,35.14899,105.5433],[43.03441,35.14651,104.8068],[43.03658,35.14036,105.9901],[43.03751,35.13651,107.2004],[43.03596,35.13178,104.886],[43.0311,35.12088,103.5256],[43.03131,35.11855,102.4372],[43.03513,35.11367,102.258],[43.0373,35.10899,101.7913],[43.03565,35.10261,102.4408],[43.0249,35.09685,102.5667],[42.98769,35.09277,111.1389],[42.63123,35.09091,219.9567],[42.5164,35.07008,226.4132],[42.49129,34.97272,241.5044],[42.49842,34.95867,234.4482],[42.49987,34.74008,223.6847],[42.53976,34.5953,239.2908],[42.73386,34.46345,180.0343],[42.77727,34.44304,176.1877],[42.8092,34.4394,161.9864],[42.92878,34.49588,112.8173],[42.94769,34.41028,104.6233],[42.95235,34.34811,98.6028],[42.9602,34.31824,95.3859],[42.98573,34.28765,76.805],[43.00092,34.23419,69.5889],[43.01084,34.181399999999996,69.4189],[43.06324,34.07559,46.3017],[43.13187,33.9995,44.0],[43.29217,33.86535,44.0],[43.42963,33.76533,44.0],[43.48255,33.74884,44.0],[43.58993,33.73383,68.2534],[43.71282,33.69267,60.5109],[43.80346,33.66758,55.0021],[43.9712,33.67107,38.8407],[44.00148,33.6635,37.1145],[44.03631,33.63699,36.068],[44.05192,33.62273,33.1198],[44.07031,33.59415,32.9068],[44.10163,33.52868,32.1107],[44.12354,33.49705,31.3346],[44.13346,33.48785,31.2537],[44.09998,33.46599,32.422],[44.13718,33.45674,31.5592],[44.17108,33.43703,32.2056],[44.24477,33.43333,32.851],[44.2981,33.49783,38.3351],[44.31299,33.51276,41.7579],[44.33634,33.5309,35.6585],[44.35381,33.54157,39.0604],[44.39308,33.5709,36.6717],[44.40146,33.59679,36.9603],[44.40456,33.62159,32.7294],[44.39308,33.64461,42.2497],[44.40786,33.69869,39.8101],[44.41189,33.70603,38.5938],[44.42585,33.72461,41.461],[44.42595,33.72898,39.6651],[44.42347,33.73306,40.8538],[44.40363,33.7498,38.9143],[44.39691,33.75696,42.6413],[44.39174,33.76541,41.4876],[44.38926,33.77445,40.3238],[44.38936,33.7836,40.5639],[44.39133,33.79269,39.9456],[44.40993,33.83548,34.7812],[44.44414,33.88013,45.7618],[44.45003,33.8976,41.5646],[44.45096,33.91628,39.9873],[44.44776,33.93542,38.6743],[44.44001,33.951,42.3276],[44.42812,33.96348,51.2686],[44.38182,33.99831,41.2877],[44.37283,34.00152,41.778],[44.36673,34.00369,42.0178],[44.34006,34.00702,39.3441],[44.31268,34.00433,36.7272],[44.30461,34.0024,37.1151],[44.29748,34.0017,36.0],[44.29273,34.00255,37.8757],[44.28963,34.00513,39.0707],[44.28942,34.01343,38.4051],[44.29004,34.01826,38.7761],[44.3012,34.03157,41.5855],[44.30389,34.04402,51.2532],[44.31113,34.06051,45.8967],[44.30978,34.06544,46.2341],[44.30451,34.07231,46.0255],[44.30616,34.07559,43.5276],[44.32756,34.08797,46.3422],[44.33149,34.09123,46.3343],[44.33386,34.09758,45.7496],[44.33397,34.10174,46.1802],[44.33262,34.10523,47.2906],[44.32528,34.11593,47.8916],[44.32404,34.1197,47.7669],[44.3259,34.12324,48.9327],[44.32994,34.12611,49.1281],[44.3382,34.12774,50.0432],[44.34999,34.12805,52.2823],[44.35216,34.12926,50.1855],[44.3534,34.132,50.755],[44.35247,34.15574,51.7135],[44.3504,34.15941,51.5722],[44.34823,34.16202,54.4547],[44.34813,34.16448,53.173],[44.35164,34.16657,53.3958],[44.36084,34.16828,53.7584],[44.37293,34.16776,52.7044],[44.37727,34.16915,55.1819],[44.38141,34.17226,55.6079],[44.3843,34.17864,54.2726],[44.38833,34.18422,53.6098],[44.39174,34.18776,55.4867],[44.39763,34.18859,55.8592],[44.39949,34.18639,54.1572],[44.3998,34.18352,55.2567],[44.39732,34.17879,56.333],[44.39763,34.17732,56.1998],[44.39949,34.17623,58.0802],[44.4027,34.17598,58.7955],[44.4058,34.17753,55.5268],[44.40797,34.1805,56.9582],[44.41045,34.18864,56.6256],[44.41448,34.1959,57.8729],[44.43525,34.2214,57.3843],[44.43918,34.22362,57.7303],[44.44807,34.22626,59.6341],[44.45954,34.2267,59.4002],[44.46305,34.22719,60.6376],[44.46646,34.22889,60.7705],[44.47039,34.23148,59.7142],[44.47453,34.23341,61.56],[44.47763,34.23295,61.045],[44.48321,34.2277,61.5689],[44.48631,34.22569,61.7818],[44.4891,34.22662,62.0535],[44.49117,34.23075,62.3099],[44.49096,34.24905,61.8178],[44.49282,34.25458,63.241],[44.50036,34.25871,63.9698],[44.50533,34.26018,64.8104],[44.50884,34.26269,63.9913],[44.50967,34.26662,64.5387],[44.50698,34.28646,65.126],[44.52062,34.29393,66.0308],[44.50905,34.30592,67.5098],[44.50191,34.30917,67.7547],[44.49427,34.31431,67.7725],[44.48507,34.323,68.1376],[44.47949,34.32971,69.1546],[44.4767,34.33545,68.6415],[44.4767,34.33979,68.6353],[44.48445,34.34987,68.7932],[44.49437,34.3677,70.1082],[44.50109,34.38635,73.0138],[44.5016,34.39441,76.9712],[44.49819,34.40433,77.4195],[44.49582,34.40924,71.0577],[44.49468,34.41286,77.5161],[44.5014,34.41873,73.2381],[44.50377,34.42196,75.0749],[44.50719,34.43126,74.4997],[44.50905,34.43467,74.5263],[44.50967,34.43738,75.9102],[44.50667,34.43924,74.959],[44.50357,34.43891,77.4483],[44.49799,34.43601,76.629],[44.49468,34.43539,75.4399],[44.49086,34.43601,75.5177],[44.48879,34.43785,78.1684],[44.48879,34.44074,78.1309],[44.49344,34.44534,77.7453],[44.49561,34.4481,76.6479],[44.49613,34.45043,76.4557],[44.49282,34.45208,75.6198],[44.49034,34.45141,75.4946],[44.48786,34.44976,76.6885],[44.486,34.44888,77.2923],[44.48527,34.45046,76.2221],[44.486,34.45418,77.604],[44.49065,34.46097,78.2553],[44.49458,34.46366,83.2973],[44.49923,34.46446,78.193],[44.50315,34.46477,79.378],[44.51277,34.46728,79.0531],[44.51618,34.46991,80.9883],[44.51721,34.47368,82.2755],[44.51277,34.48159,87.6196],[44.50905,34.48479,86.2342],[44.50533,34.48614,82.268],[44.50264,34.48609,82.3958],[44.5014,34.48712,82.0358],[44.50264,34.48976,82.8512],[44.51463,34.49875,84.5646],[44.51711,34.50629,86.1292],[44.51752,34.51187,90.2439],[44.50233,34.54427,88.8872],[44.50295,34.55363,96.9214],[44.50388,34.5575,113.7121],[44.50605,34.56296,102.403],[44.51773,34.57554,114.5],[44.52186,34.57735,114.5],[44.53075,34.57321,114.5],[44.55059,34.56634,114.5],[44.56599,34.56334,137.938],[44.57478,34.55988,150.4558],[44.58563,34.55399,158.0768],[44.62211,34.52673,177.173],[44.62738,34.52404,178.3123],[44.63038,34.52438,183.7458],[44.63545,34.53637,193.9629],[44.64196,34.54639,177.291],[44.65302,34.55724,155.2978],[44.67007,34.56934,141.269],[44.6865,34.57859,143.1089],[44.70077,34.58996,137.954],[44.71337,34.60419,146.5562],[44.72908,34.63176,170.7151],[44.73063,34.64644,186.2094],[44.72733,34.65819,202.4921],[44.72257,34.66411,199.8603],[44.71834,34.67047,219.4705],[44.71627,34.67662,220.4845],[44.71627,34.68248,203.4717],[44.72102,34.68897,193.454],[44.73063,34.6962,188.9531],[44.7511,34.70579,177.1377],[44.77931,34.71269,184.9597],[44.79161,34.71703,186.6156],[44.80588,34.72664,192.9342],[44.8252,34.743,206.3946],[44.83864,34.7615,248.7124],[44.84277,34.77253,257.7608],[44.84205,34.78085,276.0643],[44.84091,34.78726,291.1107],[44.84153,34.79387,305.9597],[44.84804,34.80173,290.0174],[44.85972,34.80937,309.3463],[44.88577,34.81775,348.2663],[44.91863,34.8317,386.1068],[44.96597,34.86748,523.3476],[44.96349,34.93862,568.7695],[44.9668,34.95205,498.9135],[44.96742,34.9566,459.2462],[44.96649,34.96042,442.0654],[44.96401,34.96477,416.2898],[44.95191,34.97673,411.4656],[44.86592,35.02626,711.2308],[44.82851,35.03184,523.9807],[44.71906,35.03567,365.0179],[44.7019,35.0306,349.1463],[44.67937,35.03567,325.2127],[44.66294,35.04202,319.0056],[44.56207,35.12907,322.6215],[44.54946,35.12873,310.4733],[44.54346,35.12638,265.8652],[44.53612,35.12207,255.9014],[44.52672,35.11253,242.6929],[44.51845,35.10176,235.2637],[44.51339,35.08398,227.4228],[44.51442,35.06993,224.923],[44.53447,35.03091,220.4779],[44.53364,35.01608,214.9749],[44.52403,35.00363,210.4572],[44.49664,34.98681,197.1312],[44.48124,34.98058,185.2176],[44.46894,34.97412,180.9113],[44.4615,34.96797,179.585],[44.43949,34.94185,171.3368],[44.4181,34.9242,167.512],[44.40259,34.90454,158.7324],[44.40135,34.89627,158.6947],[44.40053,34.89394,158.5913],[44.40022,34.89206,158.7428],[44.40053,34.88955,156.5049],[44.40042,34.88629,155.7226],[44.39711,34.88141,154.9975],[44.39308,34.87384,153.2323],[44.39267,34.87121,152.694],[44.39215,34.86947,151.2673],[44.39308,34.86591,150.8586],[44.39236,34.8626,152.5181],[44.38771,34.85645,146.8495],[44.38626,34.85402,150.8199],[44.38616,34.85139,149.5112],[44.38461,34.84821,147.3155],[44.3811,34.84446,146.2281],[44.36952,34.83924,143.0592],[44.35381,34.82095,142.6499],[44.3504,34.81092,136.5854],[44.34689,34.80529,134.8819],[44.3413,34.7994,131.2545],[44.3287,34.7901,128.0331],[44.32559,34.78625,127.3221],[44.32446,34.78237,128.9046],[44.32497,34.77268,122.8466],[44.32415,34.76731,127.2281],[44.32074,34.75641,120.5002],[44.32167,34.75219,119.9127],[44.32539,34.74571,120.041],[44.32559,34.74344,117.8733],[44.32384,34.73899,118.4861],[44.32415,34.73656,116.022],[44.32601,34.73465,115.9556],[44.32963,34.73354,117.7272],[44.34006,34.73243,115.2712],[44.34048,34.73,117.6868],[44.33614,34.72468,133.3087],[44.3135,34.70251,189.2101],[44.29841,34.7022,192.7907],[44.28839,34.70452,186.0597],[44.21232,34.75279,230.7404],[44.12881,34.82198,215.3875],[44.06814,34.85255,256.0795],[43.98329,34.88374,285.6188],[43.91311,34.90552,336.3692],[43.84779,34.93771,327.9994],[43.64812,35.03605,412.3236],[43.57081,35.06541,158.3154],[43.54776,35.07809,124.18],[43.53825,35.09003,116.3967],[43.52006,35.10067,114.0],[43.49391,35.11067,118.4029],[43.48079,35.12651,134.4372],[43.41506,35.18486,127.0183],[43.4072,35.18971,120.5],[43.39707,35.20095,121.4868],[43.38839,35.21354,125.9793],[43.38467,35.2224,122.875],[43.38891,35.23333,133.4618],[43.39873,35.23834,132.0144],[43.4102,35.24139,126.928],[43.41878,35.2463,129.8978],[43.4225,35.26542,127.6525],[43.40172,35.27338,134.8159],[43.35046,35.28043,138.3105],[43.35676,35.28697,135.5773],[43.35987,35.29307,133.2423],[43.36348,35.30774,139.3348],[43.36255,35.3119,139.2833],[43.35904,35.31513,134.91],[43.35697,35.31901,133.0205],[43.36007,35.32513,140.9166],[43.36359,35.32743,139.3791],[43.3671,35.32839,142.6629],[43.36989,35.3295,142.5393],[43.37092,35.33226,132.0],[43.36493,35.34503,133.4648],[43.35067,35.35296,140.723],[43.32255,35.36236,147.475],[43.31129,35.3704,135.7041],[43.28586,35.39332,143.0377],[43.28101,35.40086,137.1635],[43.27884,35.40337,137.5],[43.27419,35.40624,140.7542],[43.26953,35.41148,145.6348],[43.26736,35.42102,140.0],[43.26891,35.43104,141.2781],[43.2714,35.43691,140.8474],[43.27191,35.44257,144.1351],[43.26736,35.45176,142.1967],[43.27388,35.4667,142.7331],[43.28907,35.46236,150.3017],[43.2931,35.4605,150.1646],[43.29599,35.45657,150.6205],[43.29661,35.45331,149.3504],[43.29785,35.4505,149.9883],[43.30178,35.44507,148.7897],[43.30271,35.44065,150.1933],[43.30281,35.43603,150.7038],[43.3084,35.42877,150.6137],[43.31449,35.42675,154.7718],[43.32338,35.42748,168.3642],[43.33992,35.44996,179.8591],[43.35821,35.45822,181.764]]]}}