{"type":"Feature","properties":{"GID_1":"IRQ.17_1","GID_0":"IRQ","country":"Iraq","province":"Salaad-Din","VARNAME_1":"Salahad-Din|Salaheddin","NL_NAME_1":"NA","TYPE_1":"Muhafazah","ENGTYPE_1":"Province","CC_1":"NA","HASC_1":"IQ.SD","ISO_1":"NA","name":"Salaad-Din.province"},
"geometry":{"type": "MultiPolygon","coordinates": [[[[44.0648,33.5434,32.4348],[44.0795,33.5142,31.9072],[44.1022,33.4789,32.3505],[44.1121,33.4607,32.9257],[44.1466,33.4401,32.1337],[44.1803,33.4174,31.2364],[44.1927,33.4114,30.9815],[44.1995,33.4111,31.0928],[44.2219,33.4192,31.28],[44.2518,33.4247,33.1772],[44.2568,33.4383,34.9824],[44.2642,33.4523,36.1814],[44.2942,33.4828,36.9887],[44.3044,33.5003,37.8289],[44.316,33.5124,40.4998],[44.3168,33.5388,36.5107],[44.3207,33.5527,38.0279],[44.3264,33.5637,30.0],[44.3377,33.5769,37.1889],[44.3741,33.5995,37.0746],[44.384,33.6114,40.2044],[44.3925,33.6482,37.9752],[44.3971,33.6912,45.3049],[44.3949,33.7081,38.5728],[44.3844,33.7317,40.4439],[44.3764,33.7317,40.2121],[44.3769,33.7614,42.706],[44.382,33.79,37.9641],[44.3895,33.8083,35.7413],[44.4057,33.8386,44.3884],[44.4131,33.857,44.3498],[44.4153,33.8694,45.8686],[44.4144,33.8943,47.3264],[44.4045,33.923,49.022],[44.3986,33.9339,49.0354],[44.3906,33.944,49.6631],[44.3828,33.9505,49.5043],[44.3687,33.958,49.1087],[44.3205,33.9778,47.7937],[44.3067,33.9865,50.5583],[44.2986,33.9942,50.2388],[44.2854,34.0144,38.7882],[44.2816,34.0246,37.3804],[44.2802,34.0348,43.6617],[44.2812,34.043,49.6998],[44.3018,34.0662,52.8902],[44.3268,34.107,48.9293],[44.361,34.1511,57.4513],[44.3774,34.18,57.4156],[44.3906,34.1935,66.96],[44.4281,34.2244,68.9992],[44.4354,34.2322,73.3157],[44.4451,34.2484,74.6319],[44.4501,34.275,76.9046],[44.4518,34.3508,83.7663],[44.4545,34.3783,83.9926],[44.4578,34.3899,84.4093],[44.4578,34.4602,88.78],[44.4566,34.4714,94.1238],[44.454,34.4777,93.9197],[44.4621,34.5144,100.3565],[44.4697,34.5334,112.5744],[44.4784,34.5459,111.4139],[44.4861,34.5532,108.1738],[44.4946,34.5584,102.3365],[44.5051,34.5611,96.0312],[44.5301,34.5576,129.7971],[44.5665,34.548,148.5276],[44.5786,34.5463,149.2359],[44.5907,34.5467,175.1915],[44.6098,34.5512,190.3057],[44.6265,34.5574,173.0428],[44.6474,34.5672,161.2826],[44.6683,34.5821,139.0938],[44.6747,34.5897,145.5157],[44.6808,34.6022,144.3007],[44.682,34.6168,149.1293],[44.681,34.6538,169.8737],[44.6838,34.6668,189.2032],[44.6942,34.6853,217.1033],[44.7015,34.6922,218.5472],[44.7112,34.6981,199.9621],[44.7642,34.7174,181.1656],[44.7791,34.7279,186.1635],[44.7898,34.7426,189.1115],[44.8057,34.7863,283.3317],[44.8106,34.7952,269.3258],[44.8157,34.8006,272.8904],[44.8318,34.8097,308.7232],[44.8693,34.8261,354.2735],[44.9184,34.8522,448.1292],[44.9108,34.8762,442.6095],[44.9104,34.9398,392.4204],[44.9073,34.9568,396.7372],[44.9016,34.9715,444.3417],[44.8938,34.9844,507.5108],[44.882,34.9967,552.9108],[44.8732,35.0025,549.1671],[44.8622,35.0072,549.7006],[44.8482,35.0104,504.6839],[44.8045,35.0151,442.1599],[44.7302,35.0262,369.7029],[44.6813,35.0302,319.253],[44.6227,35.0295,279.5541],[44.5963,35.0345,275.7343],[44.5735,35.0472,268.7039],[44.5454,35.07,236.9125],[44.5219,35.0924,237.6226],[44.5074,35.112,240.1454],[44.4933,35.1108,263.0634],[44.4824,35.1062,232.8985],[44.4739,35.0995,217.6221],[44.4659,35.0882,215.8976],[44.4614,35.0737,211.4479],[44.4586,35.0213,199.7],[44.456,35.0062,197.4154],[44.4503,34.9908,193.6773],[44.4336,34.9674,187.9087],[44.394,34.9235,176.3356],[44.3682,34.8843,172.4258],[44.3289,34.8161,145.1943],[44.3134,34.7837,121.3188],[44.296,34.7414,145.7625],[44.2814,34.7168,199.9132],[44.2691,34.7033,194.648],[44.2601,34.6974,172.1463],[44.25,34.695,153.6323],[44.2353,34.6967,142.5877],[44.2263,34.7003,146.9192],[44.1949,34.7214,172.9188],[44.1566,34.7599,248.7639],[44.1384,34.7758,264.4854],[44.09,34.8116,268.1596],[44.0533,34.8339,286.4283],[44.0037,34.8578,253.4409],[43.9888,34.8686,264.2357],[43.9794,34.8733,260.4061],[43.9581,34.8739,268.1058],[43.9409,34.8788,265.923],[43.8532,34.9224,274.0884],[43.8437,34.9293,279.6188],[43.8012,34.9488,300.6397],[43.6753,35.0118,398.4066],[43.6469,35.0241,310.4011],[43.5955,35.0396,185.6561],[43.564,35.0442,110.5],[43.5363,35.0454,169.4051],[43.4324,35.1325,257.3785],[43.4121,35.152,290.9489],[43.4028,35.1659,228.8884],[43.3983,35.1754,190.4969],[43.3946,35.1899,127.5203],[43.3901,35.2203,127.7292],[43.3865,35.235,137.3759],[43.3822,35.2448,202.0514],[43.3693,35.267,172.3111],[43.3491,35.2954,131.4733],[43.3364,35.3093,237.4255],[43.3156,35.3242,230.7716],[43.2932,35.337,221.3074],[43.2771,35.3847,299.7635],[43.2791,35.3959,143.2299],[43.2834,35.4027,139.1144],[43.2965,35.4128,149.7373],[43.3142,35.4218,151.8046],[43.3227,35.4237,160.7558],[43.3594,35.4254,173.0309],[43.3777,35.4281,188.0801],[43.3938,35.4366,184.4023],[43.4152,35.4535,190.8887],[43.4214,35.4565,194.9819],[43.4217,35.5199,188.551],[43.4175,35.5438,196.9664],[43.3955,35.5813,208.3474],[43.3862,35.6169,194.0783],[43.3809,35.6311,194.366],[43.3682,35.6472,192.0744],[43.3419,35.6721,192.821],[43.3217,35.6612,187.0946],[43.2617,35.6149,151.7722],[43.2386,35.6033,158.9888],[43.2046,35.5914,157.8365],[43.1684,35.5881,183.5748],[43.036,35.5886,205.5958],[43.0198,35.586,214.6248],[43.0073,35.5814,216.7742],[42.9856,35.5659,239.1022],[42.9496,35.5282,178.9279],[42.8776,35.4482,158.789],[42.8663,35.433,155.5107],[42.8581,35.417,166.9532],[42.8508,35.3927,163.1998],[42.8463,35.3572,161.4741],[42.8473,35.3363,161.2833],[42.8513,35.3049,174.5697],[42.8556,35.2896,161.0491],[42.8664,35.269,155.9306],[42.9054,35.2138,143.875],[42.9556,35.1369,122.3779],[42.9995,35.091,107.3482],[43.007,35.076,102.6324],[43.0076,35.0701,106.1176],[43.0047,35.0592,113.521],[43.0004,35.0544,115.0378],[42.992,35.0493,125.4849],[42.9773,35.0447,108.4159],[42.9498,35.0419,127.8567],[42.852,35.0459,154.1347],[42.6221,35.0471,224.1867],[42.5363,35.0515,224.4078],[42.5047,35.0507,230.0833],[42.49,35.0486,226.5909],[42.4737,35.0416,233.25],[42.4686,35.0365,226.8245],[42.464,35.0276,221.0071],[42.4608,35.013,222.9087],[42.4594,34.9787,234.2148],[42.4612,34.9151,243.942],[42.4596,34.5784,246.0202],[42.4612,34.5504,241.5604],[42.4641,34.5375,242.0886],[42.469,34.5272,240.5754],[42.4813,34.5139,241.8173],[42.4923,34.5061,241.8441],[42.5631,34.4699,233.1107],[42.6728,34.4104,217.4165],[42.7077,34.3881,192.6001],[42.7575,34.3879,172.738],[42.7802,34.392,164.3113],[42.8106,34.4095,154.5547],[42.877,34.4543,125.1166],[42.8927,34.463,124.0132],[42.9019,34.4666,118.5368],[42.9118,34.4671,117.2771],[42.9208,34.4635,112.788],[42.9258,34.4577,108.2837],[42.9293,34.4498,106.8754],[42.9315,34.4373,111.5925],[42.9315,34.4198,109.401],[42.928,34.3859,115.5808],[42.9266,34.2891,108.6607],[42.9295,34.2751,113.5384],[42.9374,34.2607,107.377],[42.9625,34.2288,97.4315],[42.9717,34.2108,80.7274],[42.9757,34.1988,85.7207],[42.9819,34.1677,80.0128],[42.9885,34.1178,77.1592],[42.991,34.1064,78.4935],[42.9953,34.097,70.1699],[43.006,34.0861,68.4102],[43.0244,34.0741,69.2177],[43.0325,34.0667,55.1462],[43.0625,34.0246,51.5472],[43.0847,34.0033,44.0],[43.1157,33.9782,44.0],[43.1516,33.9441,44.0],[43.1971,33.905,44.0],[43.2431,33.8615,44.0],[43.2698,33.8408,44.0],[43.3045,33.8079,44.0],[43.3681,33.7526,44.0],[43.4032,33.7256,44.0],[43.4157,33.7192,44.0],[43.4312,33.715,44.0],[43.4476,33.7131,44.0],[43.5673,33.7122,70.0491],[43.6008,33.7085,63.1065],[43.6264,33.7011,64.518],[43.6627,33.6858,61.9416],[43.6966,33.6695,63.4876],[43.7169,33.6567,56.1537],[43.7734,33.6433,56.2589],[43.8158,33.6378,52.9714],[43.8399,33.6378,53.0487],[43.9169,33.6447,38.7929],[43.9453,33.6451,39.2341],[43.9702,33.6401,39.6539],[43.9876,33.6327,38.4514],[44.0071,33.6214,34.3344],[44.0179,33.6132,35.1514],[44.0321,33.5968,32.923],[44.0648,33.5434,32.4348]]]]}}