{"type":"Feature","properties":{"GID_2":"IRQ.16.1_1","GID_0":"IRQ","country":"Iraq","GID_1":"IRQ.16_1","province":"Ninawa","NL_NAME_1":"NA","county":"Akre","VARNAME_2":"NA","NL_NAME_2":"NA","TYPE_2":"Kaza","ENGTYPE_2":"District","CC_2":"NA","HASC_2":"NA","name":"Akre.county"},
"geometry":{"type": "MultiPolygon","coordinates": [[[[43.8151,36.4056,282.4932],[43.8183,36.4155,277.5023],[43.8259,36.4295,293.0977],[43.8465,36.4554,318.4808],[43.9072,36.5118,352.4749],[43.9693,36.5652,345.9935],[43.9812,36.5726,367.62],[43.9995,36.5778,412.543],[44.0106,36.5782,530.8301],[44.056399999999996,36.5742,570.4493],[44.0941,36.5738,497.4574],[44.1119,36.5757,390.1246],[44.1342,36.5805,598.8019],[44.1513,36.5874,448.1013],[44.2024,36.6179,465.676],[44.2195,36.6313,519.3737],[44.2392,36.6524,525.7147],[44.2589,36.6956,849.5784],[44.2582,36.704,787.1423],[44.2428,36.732,578.5684],[44.2272,36.7483,825.6198],[44.2063,36.7636,1049.5942],[44.1845,36.7759,1522.1594],[44.1225,36.8009,700.329],[44.0641,36.817,713.4724],[44.0424,36.825,846.5903],[44.0298,36.8347,962.8639],[43.9954,36.8798,536.0702],[43.9728,36.9027,861.4701],[43.9523,36.9132,934.379],[43.8865,36.9361,1241.8507],[43.8488,36.9527,1264.7828],[43.8289,36.9645,1280.5146],[43.8205,36.9716,1508.2549],[43.8155,36.9772,1262.9667],[43.8124,36.9841,1111.7454],[43.768,36.9785,1377.3341],[43.7186,36.9806,1313.9584],[43.6902,36.979,1242.0326],[43.6772,36.9757,1187.0872],[43.6613,36.9666,999.1637],[43.6542,36.9597,1214.3126],[43.6474,36.9491,1681.4413],[43.645,36.9408,1230.1382],[43.6456,36.9318,1225.2668],[43.6518,36.9198,836.7145],[43.6655,36.9032,1221.1233],[43.6767,36.8856,1054.4365],[43.6805,36.8714,665.475],[43.6812,36.8564,511.1709],[43.6788,36.8416,789.0717],[43.6733,36.828,920.6201],[43.6664,36.8165,788.8796],[43.6523,36.8017,511.2309],[43.6425,36.7953,476.9159],[43.6224,36.7892,481.524],[43.6082,36.7889,519.1622],[43.6061,36.7682,508.6882],[43.5861,36.7123,409.9995],[43.582,36.69,403.2496],[43.5741,36.666,379.9642],[43.5417,36.6016,339.7341],[43.5301,36.588,338.5991],[43.5158,36.5775,338.9673],[43.5122,36.5588,331.1703],[43.5122,36.5408,324.9536],[43.5192,36.5265,319.695],[43.5197,36.5017,364.723],[43.5249,36.492,348.4241],[43.5348,36.4605,311.5086],[43.5366,36.4458,295.3415],[43.5363,36.423,325.0552],[43.5424,36.411,354.1183],[43.5648,36.3842,339.3551],[43.5823,36.3817,319.8546],[43.6214,36.3812,359.9113],[43.6538,36.3699,362.6037],[43.6616,36.3614,352.1147],[43.6904,36.3027,257.8224],[43.711,36.286,295.5099],[43.7232,36.2904,294.128],[43.737,36.2979,300.5988],[43.7543,36.3144,300.9378],[43.7762,36.3458,281.0522],[43.7977,36.3726,276.7106],[43.8108,36.4001,302.1331],[43.8151,36.4056,282.4932]]]]}}