{"type":"Feature","properties":{"GID_2":"IRQ.17.4_1","GID_0":"IRQ","country":"Iraq","GID_1":"IRQ.17_1","province":"Salaad-Din","NL_NAME_1":"NA","county":"Balad","VARNAME_2":"NA","NL_NAME_2":"NA","TYPE_2":"Kaza","ENGTYPE_2":"District","CC_2":"NA","HASC_2":"NA","name":"Balad.county"},
"geometry":{"type": "MultiPolygon","coordinates": [[[[44.0444,33.5765,33.3775],[44.0551,33.5844,32.7132],[44.0755,33.5868,32.9961],[44.0829,33.5899,32.9007],[44.1165,33.6202,33.9786],[44.1253,33.6261,34.8952],[44.1326,33.6278,34.343],[44.1716,33.6303,36.7064],[44.2435,33.6542,38.0442],[44.2523,33.6602,37.8725],[44.2964,33.704,37.4578],[44.3093,33.7138,34.7266],[44.3336,33.7221,36.1149],[44.3627,33.7263,37.8471],[44.3764,33.7317,40.2121],[44.3769,33.7614,42.706],[44.382,33.79,37.9641],[44.3895,33.8083,35.7413],[44.4057,33.8386,44.3884],[44.4131,33.857,44.3498],[44.4153,33.8694,45.8686],[44.4144,33.8943,47.3264],[44.4045,33.923,49.022],[44.3986,33.9339,49.0354],[44.3906,33.944,49.6631],[44.3828,33.9505,49.5043],[44.3687,33.958,49.1087],[44.3205,33.9778,47.7937],[44.3067,33.9865,50.5583],[44.2986,33.9942,50.2388],[44.2854,34.0144,38.7882],[44.2816,34.0246,37.3804],[44.2802,34.0348,43.6617],[44.2812,34.043,49.6998],[44.2597,34.0598,55.8256],[44.248,34.0723,53.1253],[44.1647,34.1132,53.8442],[44.1491,34.1151,52.5603],[44.083,34.1144,51.1448],[44.0539,34.1042,51.7865],[44.0456,34.1032,53.3501],[44.0383,34.0951,53.9958],[43.9989,34.0813,60.4107],[43.9957,34.078,49.7647],[43.9938,34.0713,49.9526],[43.9936,34.0204,55.1626],[43.9913,34.0088,54.9631],[43.9853,34.0036,54.2219],[43.9627,33.9917,54.5804],[43.9575,33.9862,52.2751],[43.9554,33.9797,52.8785],[43.9594,33.9637,53.131],[43.958,33.9571,53.0171],[43.9479,33.9383,55.5606],[43.9394,33.9298,52.8267],[43.9327,33.9255,59.1716],[43.9209,33.9235,55.2136],[43.9027,33.924,55.8501],[43.8753,33.9315,57.0587],[43.8156,33.9322,58.6398],[43.8063,33.9339,59.5],[43.7921,33.9392,61.5803],[43.7576,33.9398,62.4773],[43.7503,33.9381,63.2031],[43.744,33.9336,61.8803],[43.7336,33.9176,66.462],[43.7281,33.912,66.9974],[43.6862,33.8905,64.4031],[43.6646,33.8725,64.7831],[43.6571,33.8692,65.791],[43.6348,33.8673,70.5196],[43.6164,33.8612,74.0706],[43.5787,33.8595,70.4921],[43.5648,33.8543,59.5194],[43.5501,33.8524,53.3539],[43.504,33.8527,46.7735],[43.4944,33.8544,44.5523],[43.4802,33.8597,44.0],[43.4702,33.8605,44.0],[43.3362,33.8605,44.0],[43.3266,33.8589,44.0],[43.3132,33.8537,44.0],[43.2844,33.8499,44.0],[43.2761,33.8461,44.0],[43.2698,33.8408,44.0],[43.3045,33.8079,44.0],[43.3681,33.7526,44.0],[43.3914,33.7339,44.0],[43.4157,33.7192,44.0],[43.4312,33.715,44.0],[43.4476,33.7131,44.0],[43.5673,33.7122,70.0491],[43.6008,33.7085,63.1065],[43.6264,33.7011,64.518],[43.6627,33.6858,61.9416],[43.6966,33.6695,63.4876],[43.7169,33.6567,56.1537],[43.7734,33.6433,56.2589],[43.8158,33.6378,52.9714],[43.8399,33.6378,53.0487],[43.9169,33.6447,38.7929],[43.9453,33.6451,39.2341],[43.9578,33.6435,39.4265],[43.9702,33.6401,39.6539],[43.9876,33.6327,38.4514],[44.0071,33.6214,34.3344],[44.0179,33.6132,35.1514],[44.0321,33.5968,32.923],[44.0444,33.5765,33.3775]]]]}}