{"type":"Feature","properties":{"GID_2":"IRQ.6.3_1","GID_0":"IRQ","country":"Iraq","GID_1":"IRQ.6_1","province":"Arbil","NL_NAME_1":"NA","county":"Koisnjaq","VARNAME_2":"NA","NL_NAME_2":"NA","TYPE_2":"Kaza","ENGTYPE_2":"District","CC_2":"NA","HASC_2":"NA","name":"Koisnjaq.county"},
"geometry":{"type": "MultiPolygon","coordinates": [[[[44.2374,35.8305,281.7159],[44.246,35.8237,318.3254],[44.2639,35.8148,362.6617],[44.2759,35.8118,379.5641],[44.2922,35.8112,402.0309],[44.3111,35.8142,371.1101],[44.3314,35.8197,301.1134],[44.4037,35.8466,304.5317],[44.4219,35.8508,303.1171],[44.4773,35.8481,388.8353],[44.4935,35.8487,343.5906],[44.5393,35.8615,363.8601],[44.5526,35.8637,327.7091],[44.5716,35.8622,329.0994],[44.5787,35.8596,338.6519],[44.585,35.854,363.5085],[44.6414,35.8575,556.2496],[44.7129,35.8586,457.331],[44.7532,35.8615,379.5035],[44.8413,35.8626,412.8105],[44.8807,35.8656,495.3902],[44.8894,35.8707,641.4633],[44.8939,35.8763,606.4874],[44.896,35.8832,458.44],[44.8952,35.8932,390.7433],[44.892,35.9001,442.3068],[44.8849,35.9081,532.9613],[44.826,35.9474,594.3467],[44.7774,35.9868,608.4215],[44.7425,36.0183,609.1484],[44.7249,36.0314,628.4265],[44.698,36.0483,613.2151],[44.6934,36.0534,605.7651],[44.6745,36.0574,565.8611],[44.6627,36.063,569.4133],[44.6529,36.0698,547.3915],[44.6068,36.1121,866.5116],[44.5992,36.1212,973.5801],[44.5951,36.1311,1058.9171],[44.5943,36.1411,1091.4504],[44.5961,36.1511,749.6544],[44.6054,36.1663,744.4017],[44.6285,36.1897,606.7725],[44.6351,36.2032,616.7438],[44.6353,36.216,621.2343],[44.6305,36.2264,642.5575],[44.6254,36.2319,670.2465],[44.6158,36.2375,697.2746],[44.6028,36.2412,708.2999],[44.5578,36.2491,1007.5013],[44.526,36.2611,795.2007],[44.5141,36.2485,1222.2461],[44.497,36.2394,928.9942],[44.471,36.236,960.5285],[44.4535,36.2299,1070.1937],[44.4423,36.2295,1177.4602],[44.4337,36.2328,1208.3673],[44.4262,36.2436,1152.4009],[44.4173,36.2512,1067.3215],[44.3891,36.2606,926.3241],[44.3754,36.2605,924.7377],[44.3568,36.2543,1090.7765],[44.3275,36.2525,811.5499],[44.3085,36.2462,786.184],[44.2836,36.2465,839.472],[44.2742,36.2494,889.2348],[44.2522,36.2233,856.184],[44.2484,36.217,816.4275],[44.2451,36.1914,793.6437],[44.2392,36.1726,708.4116],[44.2379,36.1324,794.0027],[44.231,36.1084,688.8293],[44.229,36.0792,790.5443],[44.2158,36.046,683.8083],[44.2236,36.0189,632.2335],[44.2359,35.9933,598.9391],[44.2433,35.9696,606.0734],[44.2433,35.9628,595.2441],[44.2382,35.9443,592.3335],[44.2379,35.909,461.8571],[44.2399,35.8996,435.8495],[44.2495,35.8854,392.5097],[44.2526,35.877,396.4837],[44.2519,35.8672,374.6073],[44.2436,35.8415,287.0347],[44.2374,35.8305,281.7159]]]]}}