{"type":"Feature","properties":{"ISO3166-1-Alpha-3":"IRQ","country":"Iraq","fill":"#F0F","id":"3051","name":"Ninawa"},
"geometry":{"type": "Polygon","coordinates": [[[43.82816,37.01185,554.8188],[43.79663,37.0179,568.9294],[43.76873,37.02676,582.857],[43.69866,37.03676,593.2925],[43.68718,37.03939,605.249],[43.66951,37.04722,612.9939],[43.66476,37.04838,631.5133],[43.66052,37.04862,642.4577],[43.65731,37.04776,631.6003],[43.6537,37.04575,645.61],[43.64936,37.04203,667.4877],[43.64636,37.03854,686.9391],[43.64161,37.03032,735.6552],[43.64068,37.02753,747.6813],[43.64078,37.02399,879.497],[43.63943,37.0157,911.4686],[43.63582,37.00774,826.8433],[43.63334,37.0003,986.2998],[43.63272,36.99648,918.089],[43.63292,36.99299,881.9487],[43.63334,36.98999,898.858],[43.63613,36.98526,936.063],[43.63664,36.9825,928.8251],[43.63788,36.97963,1004.2892],[43.64047,36.97643,963.6593],[43.6507,36.97048,989.1359],[43.65576,36.96836,983.2173],[43.66176,36.96707,999.1637],[43.67571,36.96661,1089.092],[43.68346,36.96537,1176.1564],[43.69183,36.96175,1221.4922],[43.70878,36.95738,1076.775],[43.71499,36.95638,953.418],[43.72046,36.95441,918.6873],[43.72367,36.95134,891.0107],[43.72615,36.94676,872.8077],[43.72739,36.94175,876.9564],[43.72821,36.93679,859.3192],[43.7279,36.93219,871.0363],[43.72615,36.92733,820.4387],[43.71778,36.91351,726.2487],[43.71302,36.9093,709.8408],[43.70847,36.90687,691.7971],[43.703,36.90511,667.7415],[43.70227,36.90284,667.9059],[43.70424,36.8969,789.3658],[43.70475,36.89343,656.3272],[43.70475,36.89028,685.1586],[43.70486,36.88783,687.5012],[43.70548,36.88537,622.734],[43.70579,36.88036,584.9587],[43.70672,36.87754,587.7258],[43.70754,36.8739,566.6593],[43.70723,36.86871,574.7881],[43.7061,36.86245,548.5002],[43.70165,36.85124,538.402],[43.69835,36.84842,522.5778],[43.69463,36.84827,514.2416],[43.69111,36.85013,513.287],[43.67406,36.85468,509.5615],[43.66486,36.85349,573.9185],[43.65762,36.85033,502.3889],[43.65432,36.84669,605.2255],[43.65256,36.84163,622.6915],[43.65256,36.83592,543.8352],[43.65163,36.83106,790.1112],[43.64884,36.82651,987.1961],[43.64223,36.82623,1077.6504],[43.62796,36.82848,1096.4478],[43.48296,36.85979,1515.7534],[43.45102,36.87227,1247.4655],[43.43325,36.8855,1433.3743],[43.40307,36.90292,1523.465],[43.38963,36.91441,1484.2272],[43.37402,36.92449,1200.9976],[43.35873,36.931,1329.9349],[43.32069,36.93457,1453.3713],[43.30467,36.93023,1219.1028],[43.29062,36.92149,940.5201],[43.28328,36.91147,956.5088],[43.25259,36.8816,927.8395],[43.22323,36.84271,877.5731],[43.21445,36.82013,1014.0037],[43.20535,36.80225,858.6993],[43.20091,36.78646,796.2416],[43.18582,36.77799,996.3642],[43.15254,36.76411,1011.2657],[43.11234,36.76132,764.5913],[42.98149,36.74688,465.4518],[42.89953,36.71011,307.0],[42.88744,36.71236,307.0],[42.87276,36.71228,307.0],[42.86119,36.71042,307.0],[42.85168,36.70466,307.0],[42.84341,36.69252,314.398],[42.83483,36.7081,307.0],[42.82977,36.71458,307.0],[42.82233,36.7198,307.0],[42.80796,36.72582,307.0],[42.79969,36.72631,307.0],[42.76445,36.71215,307.0],[42.75401,36.71151,313.0946],[42.74719,36.7198,307.0],[42.74967,36.72742,307.0],[42.75887,36.73337,307.0],[42.7813,36.74029,307.0],[42.77251,36.74763,307.0],[42.76466,36.74957,307.0],[42.75659,36.75024,307.0],[42.74719,36.75396,307.0],[42.72962,36.76675,307.0],[42.69923,36.79429,307.0],[42.69035,36.79959,307.0],[42.67825,36.80176,307.0],[42.66936,36.79974,307.0],[42.66389,36.79522,307.0],[42.65955,36.79073,307.0],[42.65469,36.78871,307.0],[42.61252,36.78933,307.0],[42.5965,36.79602,307.0],[42.58286,36.82654,324.261],[42.56601,36.83659,307.0],[42.5349,36.84953,311.3826],[42.51485,36.84336,312.5869],[42.504,36.85132,313.6971],[42.50865,36.86181,314.8521],[42.5349,36.8632,348.32],[42.52395,36.87984,334.702],[42.51547,36.88728,320.765],[42.5132,36.89653,321.5777],[42.52064,36.91844,320.7292],[42.504,36.92173,324.754],[42.50328,36.93782,311.0],[42.50793,36.95787,320.9766],[42.50762,36.97307,325.0829],[42.48808,36.95513,356.2892],[42.47062,36.95482,316.5],[42.45263,36.9655,378.5296],[42.4146,36.99555,324.7422],[42.39755,37.01704,324.5],[42.3838,37.04071,326.8223],[42.37681,37.062,344.9218],[42.34587,37.04291,386.2891],[42.28189,36.99413,475.9854],[42.28189,36.99402,475.9854],[42.28189,36.99397,475.9854],[42.28158,36.99397,475.9854],[42.17844,36.90532,469.3353],[41.97855,36.73362,372.9268],[41.84378,36.61787,370.6523],[41.81732,36.59973,377.3433],[41.78993,36.58929,385.7066],[41.47977,36.53612,389.1689],[41.41487,36.52738,379.6683],[41.38541,36.51638,389.0594],[41.36536,36.49416,415.1189],[41.36536,36.49405,415.1189],[41.36526,36.494,415.1189],[41.36526,36.4939,415.1189],[41.27699,36.35478,597.0869],[41.26883,36.32796,588.0597],[41.23658,36.07702,328.1185],[41.23669,36.06033,320.8206],[41.24061,36.04302,315.8386],[41.26625,35.99429,308.9719],[41.26635,35.99434,308.9719],[41.26635,35.99424,308.9719],[41.34366,35.85766,323.3417],[41.35451,35.82557,305.9859],[41.35926,35.79275,284.5075],[41.3635,35.65524,220.3821],[41.35802,35.62392,219.8489],[41.34221,35.59369,227.0153],[41.30846,35.55225,214.369],[41.26128,35.49432,245.8373],[41.26128,35.49417,245.8373],[41.26118,35.49417,245.8373],[41.26108,35.49417,245.8373],[41.25188,35.46409,261.7416],[41.24309,35.36652,208.8181],[41.20134,35.24302,210.7666],[41.19152,35.18214,160.9082],[41.19233,35.1589,151.2897],[41.21374,35.1584,151.4037],[41.34221,35.1485,185.4528],[41.51119,35.10866,229.1211],[41.57837,35.09985,231.8144],[41.85215,35.00678,292.8279],[41.98424,34.96427,324.3093],[42.04935,34.96084,300.4206],[42.18991,34.97593,264.9063],[42.208,34.97278,261.2788],[42.24303,34.95918,252.652],[42.27332,34.94844,251.9551],[42.49129,34.97272,241.5044],[42.5164,35.07008,226.4132],[42.63123,35.09091,219.9567],[42.98769,35.09277,111.1389],[43.0249,35.09685,102.5667],[43.03565,35.10261,102.4408],[43.0373,35.10899,101.7913],[43.03513,35.11367,102.258],[43.03131,35.11855,102.4372],[43.0311,35.12088,103.5256],[43.03596,35.13178,104.886],[43.03751,35.13651,107.2004],[43.03658,35.14036,105.9901],[43.03441,35.14651,104.8068],[43.03389,35.14899,105.5433],[43.03255,35.15173,106.5909],[43.03007,35.16103,107.1999],[43.02862,35.16222,105.5061],[43.0249,35.16196,107.2137],[43.02242,35.16217,108.3816],[43.01932,35.16279,107.3933],[43.01518,35.16282,107.7408],[43.01157,35.1632,107.9883],[43.0096,35.16418,108.7278],[43.0094,35.16584,107.2512],[43.01146,35.16832,108.8843],[43.01177,35.17064,109.7928],[43.01115,35.17219,109.9897],[43.00785,35.17204,109.2273],[43.00588,35.17261,109.481],[43.00464,35.17416,110.5592],[43.00464,35.17778,110.9759],[43.0034,35.17883,111.0843],[43.0004,35.17933,111.2124],[42.99761,35.18039,111.2449],[42.99627,35.1824,111.7438],[42.99513,35.18821,112.4141],[42.98707,35.19994,112.7763],[42.98397,35.20728,113.9149],[42.9788,35.20857,113.7381],[42.97632,35.20868,114.7908],[42.97415,35.20826,114.9054],[42.9725,35.20852,114.4014],[42.97136,35.21007,116.2348],[42.97033,35.21263,115.9753],[42.97064,35.21984,114.8866],[42.97405,35.23643,116.51],[42.97343,35.24315,118.7792],[42.97539,35.2494,117.7183],[42.97942,35.25705,118.6798],[42.97994,35.26224,118.0422],[42.97932,35.26449,118.2],[42.97756,35.2648,119.3789],[42.9757,35.26392,118.7234],[42.97353,35.26348,118.6518],[42.97105,35.26441,120.0875],[42.96888,35.26666,123.6399],[42.95731,35.29255,125.2212],[42.95607,35.3003,122.439],[42.95545,35.30774,122.8718],[42.95048,35.31482,126.2278],[42.94594,35.31989,124.4213],[42.93033,35.32986,132.705],[42.92248,35.33598,128.0399],[42.89519,35.36503,138.2811],[42.89292,35.3713,151.7561],[42.89261,35.38438,138.2434],[42.88765,35.3911,145.5819],[42.88548,35.39869,138.8604],[42.88486,35.40536,142.2539],[42.88775,35.41869,140.7008],[42.8893,35.42143,141.1173],[42.89354,35.42673,142.1586],[42.89891,35.43543,142.9296],[42.90067,35.44151,145.831],[42.8985,35.44838,151.0226],[42.88858,35.46765,144.8861],[42.87969,35.47918,143.2046],[42.8802,35.48057,143.8183],[42.88207,35.48228,148.9663],[42.88548,35.48445,153.2448],[42.88889,35.49016,147.0281],[42.89199,35.49419,152.8785],[42.89509,35.49708,154.6513],[42.89788,35.4983,155.4356],[42.9017,35.49796,157.7574],[42.90532,35.49807,160.775],[42.90842,35.4977,162.6403],[42.91059,35.4983,161.9623],[42.91224,35.49931,155.0107],[42.914,35.49962,154.3002],[42.91648,35.49938,157.5593],[42.91989,35.49962,156.2333],[42.94831,35.51011,172.0169],[42.96072,35.51677,180.9845],[42.98397,35.5329,203.6094],[42.99389,35.53791,234.5103],[43.00195,35.54,249.5515],[43.01921,35.54111,235.3396],[43.14003,35.60871,174.7577],[43.20556,35.63103,188.5336],[43.22468,35.64198,180.0046],[43.24432,35.64669,156.3296],[43.25837,35.65558,160.3602],[43.27336,35.67754,164.5287],[43.28101,35.68513,161.9579],[43.29537,35.68888,165.4554],[43.30871,35.68979,165.4929],[43.31873,35.69423,162.6023],[43.32255,35.7087,159.7255],[43.32462,35.71611,166.6609],[43.33434,35.72345,177.6368],[43.3179,35.75495,179.4232],[43.31666,35.76063,186.5338],[43.31584,35.76911,195.514],[43.31976,35.78087,200.1817],[43.34137,35.8213,208.3066],[43.34664,35.82781,199.8702],[43.35222,35.8306,207.8821],[43.35935,35.83055,220.1275],[43.3672,35.83192,215.3925],[43.37454,35.83781,196.7756],[43.38539,35.85789,209.1591],[43.39439,35.92724,198.0155],[43.39428,35.94582,208.2039],[43.39087,35.95295,211.9189],[43.37795,35.95308,203.3951],[43.36162,35.95481,204.1808],[43.35098,35.96367,184.8961],[43.34478,35.98884,184.5],[43.35294,35.99912,188.479],[43.48255,36.0433,205.728],[43.4934,36.05157,208.3698],[43.50756,36.06873,214.8436],[43.51045,36.07387,210.0575],[43.51169,36.0787,212.1379],[43.51014,36.09844,214.2087],[43.51045,36.10513,216.7892],[43.51262,36.11353,213.5],[43.53401,36.14578,223.3934],[43.5367,36.15229,223.9636],[43.53898,36.15945,225.6589],[43.54404,36.16836,224.485],[43.54755,36.17146,227.9362],[43.55593,36.17244,229.1081],[43.57536,36.18407,233.4484],[43.58683,36.20366,234.3543],[43.5922,36.21531,235.962],[43.59747,36.22182,237.7027],[43.629,36.245,243.9661],[43.63799,36.25484,244.9848],[43.64967,36.27115,249.9079],[43.65762,36.27988,250.7437],[43.66548,36.28572,250.6941],[43.68811,36.29375,253.6532],[43.70227,36.30742,259.165],[43.71013,36.31037,257.3279],[43.72863,36.31998,262.2772],[43.74475,36.33207,265.776],[43.78671,36.37277,273.2319],[43.80377,36.3962,276.4417],[43.811,36.41615,280.7107],[43.80997,36.43085,283.903],[43.80842,36.43997,280.1996],[43.80408,36.44912,288.963],[43.8047,36.45289,286.2594],[43.80749,36.45542,286.0568],[43.811,36.45568,285.6566],[43.82216,36.45408,285.6313],[43.8294,36.45403,285.0399],[43.83663,36.4561,288.9625],[43.84459,36.45966,297.446],[43.854,36.46553,302.3892],[43.85741,36.47033,301.5761],[43.85865,36.47566,291.8557],[43.85865,36.48,290.6589],[43.85823,36.48374,294.4543],[43.85679,36.48728,293.9371],[43.85451,36.49059,300.1282],[43.85245,36.49496,301.0077],[43.85182,36.50467,307.6929],[43.8542,36.50891,302.8439],[43.85834,36.51098,296.5],[43.88355,36.50844,307.5855],[43.88986,36.50862,305.3675],[43.89885,36.51129,306.0588],[43.9035,36.51687,306.149],[43.90557,36.52312,308.1317],[43.90464,36.53526,308.2361],[43.90588,36.54252,317.8859],[43.90846,36.54524,312.4424],[43.91146,36.54565,308.5638],[43.91466,36.54345,315.2096],[43.91776,36.54074,314.7222],[43.92045,36.53723,315.111],[43.92552,36.53609,318.596],[43.93172,36.53769,328.4428],[43.94577,36.54627,323.0093],[43.9527,36.55358,348.3338],[43.96262,36.56015,318.0872],[43.96655,36.5648,323.308],[43.96934,36.56883,328.9835],[43.97337,36.57743,325.1346],[43.99869,36.60076,330.5707],[44.00706,36.60632,344.0214],[44.01244,36.60854,327.4984],[44.01512,36.60678,334.4462],[44.01822,36.60585,349.3077],[44.02298,36.60634,337.9648],[44.02411,36.6087,337.7048],[44.0205,36.6134,335.5609],[44.01926,36.61702,335.057],[44.01957,36.62213,340.2537],[44.02194,36.62391,341.4998],[44.02391,36.6236,341.0429],[44.02577,36.62084,336.7915],[44.0269,36.61743,336.92],[44.02825,36.61464,345.5615],[44.03135,36.612,341.5561],[44.03538,36.61009,336.9601],[44.04024,36.60926,343.5007],[44.04489,36.60976,344.7927],[44.05037,36.61133,341.116],[44.05502,36.6119,346.4714],[44.05946,36.6118,345.4691],[44.06163,36.61071,345.1014],[44.06225,36.60828,346.3483],[44.06101,36.60495,343.9951],[44.05905,36.60123,343.8597],[44.05812,36.59733,347.1285],[44.05905,36.59374,344.2817],[44.06215,36.59079,351.05],[44.06876,36.58911,358.0865],[44.07186,36.59035,353.0639],[44.07341,36.59381,354.7671],[44.07372,36.59769,358.943],[44.07527,36.60306,353.9305],[44.07796,36.60557,355.0104],[44.08137,36.60668,355.6939],[44.0852,36.60634,351.7532],[44.08881,36.60663,356.159],[44.09884,36.6104,358.2616],[44.10421,36.61174,358.1951],[44.10928,36.61149,358.3212],[44.11486,36.61022,363.0768],[44.11848,36.60839,359.5345],[44.12013,36.60647,356.1627],[44.11982,36.60374,366.3812],[44.12106,36.60079,361.5774],[44.12499,36.59932,372.6766],[44.13532,36.60084,400.3605],[44.14803,36.60983,371.0111],[44.16529,36.61841,366.7469],[44.19258,36.63825,378.7009],[44.20023,36.64257,380.8489],[44.21728,36.64727,374.9163],[44.23309,36.66722,444.4055],[44.26131,36.6875,461.7061],[44.29707,36.72585,416.3935],[44.30213,36.73463,428.1082],[44.30265,36.73944,401.6885],[44.30182,36.74311,450.6652],[44.29996,36.7461,416.843],[44.29779,36.74776,410.771],[44.29552,36.74802,405.112],[44.29314,36.74714,403.6509],[44.29066,36.74517,411.9885],[44.28839,36.7445,422.6374],[44.2857,36.74548,410.3856],[44.27971,36.75675,413.1717],[44.27661,36.76414,409.8832],[44.26617,36.77282,420.5671],[44.26524,36.77737,414.8961],[44.26431,36.78589,429.8296],[44.26245,36.78987,446.732],[44.25697,36.79414,433.0984],[44.2486,36.79819,458.6697],[44.23175,36.80884,425.5532],[44.13749,36.84209,451.6456],[44.13036,36.84615,453.1556],[44.12571,36.85033,461.1885],[44.1223,36.8555,453.2494],[44.11755,36.85809,454.0958],[44.11413,36.85933,454.8332],[44.08416,36.8616,456.7354],[44.07496,36.8632,458.6624],[44.07062,36.86307,460.4488],[44.06618,36.86207,459.7938],[44.05853,36.86134,475.2642],[44.05481,36.86325,462.3303],[44.04654,36.87382,466.9001],[44.04561,36.87664,468.6655],[44.04706,36.87933,479.2062],[44.04799,36.88349,472.4081],[44.04758,36.88814,491.1613],[44.04117,36.89607,547.121],[44.03714,36.89886,502.0493],[44.0328,36.89989,494.7775],[44.02908,36.89912,478.3206],[44.01275,36.89857,497.8315],[44.01047,36.90046,509.9947],[44.01057,36.90237,493.8493],[44.01326,36.90377,487.6155],[44.01729,36.90447,488.4599],[44.01977,36.90604,505.0011],[44.02039,36.90886,556.5814],[44.01574,36.91521,565.6826],[44.01295,36.92015,531.6749],[44.01171,36.92503,619.6506],[44.00654,36.93116,581.8784],[44.00055,36.93503,513.0356],[43.98773,36.94036,508.528],[43.97378,36.9493,509.5127],[43.95352,36.95932,560.6796],[43.9313,36.97666,534.7831],[43.92603,36.97997,573.6335],[43.92045,36.98118,528.3735],[43.91466,36.98009,531.5693],[43.89172,36.98418,808.0894],[43.82816,37.01185,554.8188]]]}}