{"type":"Feature","properties":{"id":141568.0,"fillOpacity":1,"fill":"#F0F","name":"420","title":"420","lge_id":null,"pfafstette":475135.0,"lke_type":null,"altitude":307,"objectid":88427,"scalerank":10,"featurecla":"Lake","note":"_untitled_88427","funkyname":0,"min_zoom":6.0,"min_label":7.0},
"geometry":{"type": "Polygon","coordinates": [[[42.953868034771233,36.675543524212827,307.0],[42.953868034771233,36.675543524212827,307.0],[42.936411980083733,36.692267157025327,307.0],[42.910533073833733,36.701788641400327,318.0239],[42.908213737896233,36.718695379681577,307.0],[42.872569206646233,36.732916571087827,331.8308],[42.849375847271233,36.725226141400327,315.2261],[42.813243034771233,36.734442449994077,307.0],[42.777354362896233,36.767645574994077,376.5372],[42.742198112896233,36.783270574994077,318.3983],[42.705577019146233,36.808783270306577,315.627],[42.687022331646233,36.826910711712827,365.0165],[42.663828972271233,36.832281805462827,337.9932],[42.646739128521233,36.821905828900327,307.0],[42.638438347271233,36.805548407025327,307.0],[42.620371941021233,36.805548407025327,342.5456],[42.587657097271233,36.841864324994077,340.6744],[42.551036003521233,36.849798895306577,342.7845],[42.528208855083733,36.847418524212827,309.6028],[42.504038933208733,36.851385809369077,313.6971],[42.517832878521233,36.820379949994077,307.0],[42.554331901958733,36.813238836712827,307.0],[42.582041862896233,36.793036199994077,336.3761],[42.613291862896233,36.767645574994077,346.8153],[42.648448112896233,36.777411199994077,307.0],[42.677744987896233,36.777411199994077,321.1147],[42.703013542583733,36.773382879681577,307.0],[42.729991081646233,36.743719793744077,307.0],[42.728526237896233,36.703192449994077,365.3269],[42.763438347271233,36.691473699994077,408.6025],[42.804698112896233,36.701239324994077,307.0],[42.822764519146233,36.685919500775327,392.8607],[42.839854362896233,36.677801824994077,383.0007],[42.833018425396233,36.665472723431577,308.4659],[42.823130730083733,36.655951239056577,310.2616],[42.863536003521233,36.621161199994077,307.0],[42.922373894146233,36.625372625775327,307.0],[42.947764519146233,36.646429754681577,307.0],[42.953868034771233,36.675543524212827,307.0]]]}}