{"type":"Feature","properties":{"GID_1":"IRQ.16_1","GID_0":"IRQ","country":"Iraq","province":"Ninawa","VARNAME_1":"Al-Mawsil|Mosul|Ninive|N¡nive|Ni","NL_NAME_1":"NA","TYPE_1":"Muhafazah","ENGTYPE_1":"Province","CC_1":"NA","HASC_1":"IQ.NI","ISO_1":"IQ-NI","name":"Ninawa.province"},
"geometry":{"type": "MultiPolygon","coordinates": [[[[42.2621,34.8867,265.5922],[42.304,34.8932,265.5035],[42.4038,34.9132,252.0058],[42.4296,34.9152,241.8518],[42.4612,34.9151,243.942],[42.4594,34.9787,234.2148],[42.4608,35.013,222.9087],[42.464,35.0276,221.0071],[42.4686,35.0365,226.8245],[42.4801,35.0454,231.4974],[42.49,35.0486,226.5909],[42.5047,35.0507,230.0833],[42.5363,35.0515,224.4078],[42.6221,35.0471,224.1867],[42.852,35.0459,154.1347],[42.9498,35.0419,127.8567],[42.9773,35.0447,108.4159],[42.992,35.0493,125.4849],[43.0004,35.0544,115.0378],[43.0047,35.0592,113.521],[43.0076,35.0701,106.1176],[43.0046,35.0828,104.6922],[42.9995,35.091,107.3482],[42.9556,35.1369,122.3779],[42.9054,35.2138,143.875],[42.8664,35.269,155.9306],[42.8556,35.2896,161.0491],[42.8513,35.3049,174.5697],[42.8473,35.3363,161.2833],[42.8473,35.3725,171.5229],[42.8508,35.3927,163.1998],[42.8581,35.417,166.9532],[42.8663,35.433,155.5107],[42.8776,35.4482,158.789],[42.9496,35.5282,178.9279],[42.9856,35.5659,239.1022],[43.0073,35.5814,216.7742],[43.0198,35.586,214.6248],[43.036,35.5886,205.5958],[43.1684,35.5881,183.5748],[43.2046,35.5914,157.8365],[43.2386,35.6033,158.9888],[43.2617,35.6149,151.7722],[43.3217,35.6612,187.0946],[43.3419,35.6721,192.821],[43.3436,35.6871,196.6549],[43.3422,35.7491,216.0228],[43.3445,35.767,210.8955],[43.3496,35.7858,233.2262],[43.3576,35.8007,237.6989],[43.3646,35.8088,230.2126],[43.3905,35.8315,212.1586],[43.4103,35.8561,202.5628],[43.4258,35.8798,227.6248],[43.4307,35.8964,249.934],[43.4297,35.9055,215.6157],[43.4263,35.9151,226.7232],[43.419,35.9259,213.6605],[43.4108,35.9331,204.179],[43.3678,35.9569,204.6467],[43.3606,35.9628,215.5805],[43.3586,35.9673,211.2946],[43.3597,35.9701,205.2196],[43.3641,35.9744,203.3131],[43.3821,35.9831,203.6899],[43.4285,35.9912,214.0578],[43.4453,35.9961,211.9023],[43.4676,36.009,215.0504],[43.4841,36.0221,210.8568],[43.4982,36.0393,226.5577],[43.5256,36.0943,217.9845],[43.541,36.1203,222.5115],[43.5829,36.1824,231.0036],[43.5863,36.19,236.3221],[43.5942,36.199,238.6098],[43.6302,36.2288,251.0357],[43.6678,36.2572,301.0398],[43.7032,36.2782,308.9706],[43.711,36.286,295.5099],[43.7232,36.2904,294.128],[43.737,36.2979,300.5988],[43.7461,36.3056,294.2642],[43.7543,36.3144,300.9378],[43.7762,36.3458,281.0522],[43.7977,36.3726,276.7106],[43.8259,36.4295,293.0977],[43.8383,36.4466,347.9345],[43.9072,36.5118,352.4749],[43.9693,36.5652,345.9935],[43.9812,36.5726,367.62],[43.9995,36.5778,412.543],[44.0106,36.5782,530.8301],[44.056399999999996,36.5742,570.4493],[44.0941,36.5738,497.4574],[44.1119,36.5757,390.1246],[44.1342,36.5805,598.8019],[44.161,36.5925,433.1207],[44.2024,36.6179,465.676],[44.2195,36.6313,519.3737],[44.2392,36.6524,525.7147],[44.2589,36.6956,849.5784],[44.2582,36.704,787.1423],[44.2428,36.732,578.5684],[44.2272,36.7483,825.6198],[44.2063,36.7636,1049.5942],[44.1845,36.7759,1522.1594],[44.1225,36.8009,700.329],[44.0641,36.817,713.4724],[44.0424,36.825,846.5903],[44.0298,36.8347,962.8639],[43.9954,36.8798,536.0702],[43.9728,36.9027,861.4701],[43.9523,36.9132,934.379],[43.8865,36.9361,1241.8507],[43.8488,36.9527,1264.7828],[43.8289,36.9645,1280.5146],[43.8205,36.9716,1508.2549],[43.8155,36.9772,1262.9667],[43.8124,36.9841,1111.7454],[43.768,36.9785,1377.3341],[43.7186,36.9806,1313.9584],[43.6902,36.979,1242.0326],[43.6697,36.9723,1131.4503],[43.6542,36.9597,1214.3126],[43.6474,36.9491,1681.4413],[43.645,36.9408,1230.1382],[43.6456,36.9318,1225.2668],[43.6518,36.9198,836.7145],[43.6655,36.9032,1221.1233],[43.6767,36.8856,1054.4365],[43.6805,36.8714,665.475],[43.6812,36.8564,511.1709],[43.6788,36.8416,789.0717],[43.6733,36.828,920.6201],[43.6664,36.8165,788.8796],[43.6523,36.8017,511.2309],[43.634,36.7918,442.5767],[43.6224,36.7892,481.524],[43.6082,36.7889,519.1622],[43.5802,36.8027,543.3761],[43.5531,36.8097,560.2099],[43.4611,36.8142,653.8519],[43.4329,36.8184,590.1506],[43.4085,36.8255,761.1889],[43.3953,36.8329,808.3391],[43.3877,36.8398,758.7268],[43.3798,36.8504,1089.4709],[43.3679,36.8712,881.7609],[43.3538,36.8877,1053.3124],[43.3454,36.8947,1082.4238],[43.3278,36.9029,1144.1583],[43.3119,36.9037,1075.3015],[43.2888,36.898,1087.5588],[43.2688,36.889,1030.1693],[43.2628,36.8733,816.8616],[43.2536,36.8644,674.1524],[43.2469,36.8516,632.4937],[43.204,36.8086,988.4241],[43.1929,36.8005,857.83],[43.1847,36.7894,719.2146],[43.1714,36.7833,776.5262],[43.1522,36.7707,827.1596],[43.1427,36.7669,734.032],[43.1311,36.7586,847.4321],[43.1207,36.7576,823.3284],[43.1138,36.751,925.1143],[43.1015,36.7432,667.5507],[43.0774,36.7359,512.0468],[43.0201,36.7274,410.8252],[42.9638,36.7248,383.6812],[42.9472,36.7213,377.9697],[42.9316,36.7124,333.8276],[42.9167,36.698,325.9044],[42.8946,36.6946,307.0],[42.8678,36.6936,307.0],[42.8381,36.695,307.0],[42.8243,36.6975,307.0],[42.8065,36.7033,307.0],[42.7851,36.7131,307.0],[42.7662,36.7245,307.0],[42.7369,36.7455,307.0],[42.7115,36.7581,307.0],[42.6325,36.7771,307.0],[42.6085,36.7853,307.0],[42.5893,36.7949,307.0],[42.5798,36.8014,307.0],[42.5725,36.8086,307.0],[42.5651,36.8194,307.0],[42.5576,36.8378,324.2257],[42.5453,36.8818,401.0825],[42.5387,36.8964,342.4676],[42.5314,36.9073,327.6107],[42.5173,36.9203,310.3889],[42.4951,36.9367,334.2805],[42.3737,37.0582,340.9507],[42.2492,36.9577,451.9008],[42.1769,36.8904,449.9749],[42.1348,36.8577,418.4918],[42.0924,36.8143,391.6592],[42.0344,36.7638,385.3893],[41.9908,36.723,374.0772],[41.9385,36.6703,375.019],[41.904,36.6462,368.5302],[41.8817,36.6234,370.5068],[41.8649,36.6188,370.9742],[41.8283,36.5932,379.2743],[41.7068,36.5675,402.4136],[41.423,36.5247,382.4725],[41.4137,36.5205,382.1721],[41.4039,36.5125,395.1095],[41.2945,36.3562,589.8615],[41.2918,36.2636,454.6717],[41.2669,36.092,334.518],[41.258,36.0546,321.4246],[41.3811,35.8353,309.3078],[41.3943,35.6303,229.8557],[41.2826,35.4861,263.7845],[41.2749,35.3849,221.8653],[41.2424,35.2855,223.5477],[41.2333,35.248,217.2385],[41.2253,35.2042,206.7085],[41.2181,35.1322,158.349],[41.2204,35.0929,162.9891],[41.2783,35.1063,185.5785],[41.3083,35.1077,195.0295],[41.336,35.1041,201.5039],[41.3577,35.095,210.6686],[41.4234,35.0578,187.7027],[41.4464,35.0476,184.6847],[41.4634,35.042,189.6629],[41.4954,35.0352,196.829],[41.5502,35.0352,223.2318],[41.582,35.0307,229.8861],[41.6756,35.0065,274.5239],[41.7395,34.9924,286.2667],[41.7976,34.9713,302.733],[41.8242,34.9582,314.064],[41.8618,34.9439,330.476],[41.9337,34.9209,343.86],[41.9734,34.9112,332.6031],[41.9912,34.909,332.9064],[42.0168,34.9095,325.835],[42.1235,34.9213,280.2953],[42.155,34.9221,271.4408],[42.1682,34.9202,270.364],[42.1921,34.9109,269.6341],[42.2113,34.9,267.916],[42.2214,34.8915,269.1872],[42.2621,34.8867,265.5922]]]]}}