{"type":"Feature","properties":{"GID_2":"IRQ.2.1_1","GID_0":"IRQ","country":"Iraq","GID_1":"IRQ.2_1","province":"Al-Basrah","NL_NAME_1":"NA","county":"AbualKhasib","VARNAME_2":"NA","NL_NAME_2":"NA","TYPE_2":"Kaza","ENGTYPE_2":"District","CC_2":"NA","HASC_2":"NA","name":"Abual_Khasib.county"},
"geometry":{"type": "MultiPolygon","coordinates": [[[[48.2427,30.3333,1.5892],[48.231,30.3234,1.6778],[48.2236,30.3192,0.0],[48.2138,30.3185,2.2557],[48.204,30.3222,2.0705],[48.1983,30.3272,1.1563],[48.1839,30.3671,0.4854],[48.1769,30.4091,0.0],[48.1705,30.4227,3.1743],[48.1427,30.4428,2.6962],[48.1174,30.4507,1.4445],[48.0903,30.4523,0.4107],[48.0861,30.4581,1.3832],[48.0739,30.4583,0.7315],[48.0423,30.4762,1.1848],[48.0369,30.4827,1.4311],[48.0371,30.4794,1.1732],[48.0339,30.4764,2.1983],[48.0047,30.4574,2.5345],[47.9844,30.4492,3.7807],[47.9701,30.4474,2.6587],[47.9505,30.4483,1.7976],[47.9322,30.4546,2.3386],[47.9101,30.4566,2.6658],[47.8927,30.4626,2.4335],[47.868899999999996,30.4652,2.7354],[47.858,30.4716,2.114],[47.8493,30.4837,3.2946],[47.8337,30.4745,2.3793],[47.8147,30.4681,4.7169],[47.8072,30.459,4.5985],[47.8018,30.4432,2.9297],[47.7803,30.4277,2.7501],[47.7691,30.4241,0.0],[47.7406,30.4226,2.1498],[47.7331,30.4197,2.3842],[47.7213,30.412,5.6488],[47.7388,30.3716,4.3689],[47.7434,30.3412,7.2284],[47.7705,30.3072,6.8941],[47.7751,30.2851,7.7164],[47.789,30.2567,3.1131],[47.7942,30.2504,4.4816],[47.8085,30.24,5.4019],[47.8288,30.2203,2.7303],[47.8403,30.2078,3.0695],[47.855,30.187,2.7201],[47.8686,30.1764,2.6646],[47.8906,30.1773,5.4583],[47.9049,30.1826,2.8456],[47.9148,30.1841,1.7908],[47.982,30.1845,2.0648],[48.0108,30.192,2.2088],[48.118,30.1923,2.3857],[48.1275,30.194,2.2848],[48.1417,30.1991,2.2237],[48.171,30.2008,2.2705],[48.1851,30.2059,2.1305],[48.2075,30.2098,1.7685],[48.2331,30.2219,1.8483],[48.2507,30.2271,1.9776],[48.2882,30.2463,1.6758],[48.3108,30.264,1.7006],[48.3331,30.2771,1.6944],[48.316,30.2971,1.6221],[48.2819,30.3265,0.0],[48.2673,30.3359,0.1076],[48.2558,30.3381,1.4682],[48.2427,30.3333,1.5892]]]]}}