{"type":"Feature","properties":{"GID_2":"IRQ.13.1_1","GID_0":"IRQ","country":"Iraq","GID_1":"IRQ.13_1","province":"Diyala","NL_NAME_1":"NA","county":"AlKhalis","VARNAME_2":"NA","NL_NAME_2":"NA","TYPE_2":"Kaza","ENGTYPE_2":"District","CC_2":"NA","HASC_2":"NA","name":"Al_Khalis.county"},
"geometry":{"type": "MultiPolygon","coordinates": [[[[44.8006,34.0105,51.431399999999996],[44.7949,34.022,56.1979],[44.7911,34.0369,53.7442],[44.7751,34.0697,55.8395],[44.7578,34.0909,57.4785],[44.7481,34.1059,58.2791],[44.7364,34.1131,57.7235],[44.7094,34.115,57.0712],[44.7027,34.117,57.3155],[44.6886,34.1339,60.595],[44.6805,34.1412,63.1497],[44.6575,34.1514,62.4292],[44.6504,34.1592,63.0579],[44.6446,34.1712,65.2877],[44.6389,34.1932,68.3092],[44.6344,34.2028,69.6759],[44.6064,34.2345,72.4924],[44.5966,34.2496,73.7908],[44.5883,34.2558,74.29],[44.5672,34.2609,74.5028],[44.5532,34.2779,76.3553],[44.5408,34.2884,77.1859],[44.5247,34.2961,66.4526],[44.5102,34.2999,66.6763],[44.495,34.308,72.9904],[44.4904,34.3146,68.9106],[44.4834,34.3347,72.5426],[44.4793,34.378,86.5547],[44.4744,34.3851,86.2653],[44.4625,34.3899,85.7198],[44.4578,34.3899,84.4093],[44.4545,34.3783,83.9926],[44.4518,34.3508,83.7663],[44.4501,34.275,76.9046],[44.4485,34.2612,75.9896],[44.4415,34.2409,74.0229],[44.4281,34.2244,68.9992],[44.3906,34.1935,66.96],[44.3774,34.18,57.4156],[44.361,34.1511,57.4513],[44.3268,34.107,48.9293],[44.3018,34.0662,52.8902],[44.2812,34.043,49.6998],[44.2802,34.0348,43.6617],[44.2816,34.0246,37.3804],[44.2854,34.0144,38.7882],[44.2986,33.9942,50.2388],[44.3067,33.9865,50.5583],[44.3205,33.9778,47.7937],[44.3687,33.958,49.1087],[44.3828,33.9505,49.5043],[44.3906,33.944,49.6631],[44.3986,33.9339,49.0354],[44.4112,33.9066,48.1014],[44.4157,33.882,46.8626],[44.4131,33.857,44.3498],[44.4057,33.8386,44.3884],[44.3895,33.8083,35.7413],[44.382,33.79,37.9641],[44.3769,33.7614,42.706],[44.3764,33.7317,40.2121],[44.3844,33.7317,40.4439],[44.4066,33.7577,39.8082],[44.4511,33.8005,41.8038],[44.4685,33.8074,42.2957],[44.4833,33.8164,41.4889],[44.503,33.8192,42.0773],[44.5585,33.8201,46.3457],[44.5782,33.8262,44.393],[44.6043,33.8275,45.2616],[44.615,33.831,48.3428],[44.6494,33.864,44.1457],[44.6552,33.8718,49.0623],[44.6612,33.8845,47.9753],[44.6614,33.8936,48.4671],[44.6503,33.9042,49.4911],[44.6484,33.91,49.9932],[44.65,33.9132,50.1603],[44.6585,33.9204,50.9276],[44.6722,33.9276,50.7246],[44.6848,33.9406,51.0349],[44.6969,33.9585,51.2914],[44.7169,33.9745,51.2727],[44.7272,33.9882,51.7679],[44.7333,33.9931,51.9367],[44.7494,34.0009,51.4512],[44.7918,34.004,50.9965],[44.7995,34.007,50.5728],[44.8006,34.0105,51.431399999999996]]]]}}