{"type":"Feature","properties":{"GID_2":"IRQ.4.3_1","GID_0":"IRQ","country":"Iraq","GID_1":"IRQ.4_1","province":"Al-Qadisiyah","NL_NAME_1":"NA","county":"AlHamza","VARNAME_2":"NA","NL_NAME_2":"NA","TYPE_2":"Kaza","ENGTYPE_2":"District","CC_2":"NA","HASC_2":"NA","name":"Al_Hamza.county"},
"geometry":{"type": "MultiPolygon","coordinates": [[[[44.9582,31.2613,24.4893],[44.9646,31.3246,14.6812],[44.9696,31.3463,15.3975],[44.9768,31.3663,13.5033],[44.985,31.3828,12.7444],[45.0076,31.4183,12.0869],[45.0281,31.4659,12.6773],[45.0559,31.4993,10.7881],[45.0625,31.5108,11.6311],[45.0665,31.5224,12.1976],[45.0681,31.5344,12.3933],[45.0676,31.5466,13.0029],[45.0648,31.5584,12.7257],[45.0585,31.5711,13.2482],[45.0281,31.6108,14.6563],[45.0244,31.6214,14.6308],[45.0269,31.6321,14.7272],[45.0311,31.6368,15.4643],[45.0471,31.6452,15.832],[45.1415,31.6692,14.1173],[45.1828,31.6768,13.8638],[45.2188,31.6799,12.8302],[45.2189,31.6961,13.2468],[45.2159,31.7094,13.1926],[45.207,31.7261,13.2662],[45.1924,31.7378,13.4871],[45.1882,31.7445,13.2178],[45.1851,31.7789,13.4232],[45.1727,31.814,14.5485],[45.1672,31.8356,14.5764],[45.1305,31.8244,15.2885],[45.1073,31.8223,16.0546],[45.0929,31.8243,16.6638],[45.0739,31.8308,16.6782],[45.0288,31.8325,16.5513],[45.0209,31.835,16.8346],[44.9921,31.8496,18.239],[44.9747,31.8624,18.3163],[44.962,31.8686,19.4212],[44.9559,31.8698,18.9867],[44.9496,31.8664,19.4669],[44.9417,31.8549,18.8926],[44.9334,31.8463,18.7872],[44.9232,31.8409,17.8122],[44.885,31.8389,17.7325],[44.8658,31.8329,17.1557],[44.8202,31.831,16.9963],[44.8135,31.8268,17.2465],[44.7857,31.7728,16.2953],[44.7687,31.748,17.8908],[44.7596,31.7378,19.059],[44.7514,31.7324,17.7481],[44.7467,31.6982,16.5995],[44.7416,31.6837,17.8049],[44.7386,31.6656,18.1792],[44.7354,31.658,18.1489],[44.7267,31.6502,17.556],[44.704,31.6389,17.1607],[44.6978,31.6341,16.6955],[44.6929,31.628,16.7224],[44.6853,31.6118,15.8402],[44.6823,31.6013,16.438],[44.6777,31.5951,15.8614],[44.6661,31.5926,16.6419],[44.6021,31.5926,15.4867],[44.5735,31.5855,14.5232],[44.5644,31.586,16.5439],[44.5473,31.5909,20.0727],[44.5148,31.5787,23.4494],[44.5078,31.5799,23.5715],[44.5042,31.5822,22.7599],[44.4874,31.597,18.2731],[44.4855,31.5923,19.8816],[44.4787,31.5862,27.0263],[44.4625,31.5781,33.2443],[44.4091,31.566,50.9379],[44.3926,31.5568,53.6196],[44.3849,31.5491,58.8159],[44.3803,31.5401,63.2647],[44.3774,31.5286,78.6759],[44.3769,31.5179,78.0018],[44.3784,31.5072,86.1261],[44.3883,31.4837,96.386],[44.4018,31.4642,96.6629],[44.411,31.4555,92.0595],[44.4478,31.4285,84.4004],[44.4739,31.4186,86.5044],[44.5198,31.411,73.632],[44.555,31.4076,67.63],[44.6438,31.3898,47.8048],[44.6561,31.3862,45.8354],[44.6627,31.3814,50.5689],[44.7001,31.3728,52.2519],[44.743899999999996,31.3548,36.1149],[44.8104,31.3094,39.4486],[44.851,31.2774,33.2306],[44.8767,31.2626,36.9327],[44.8953,31.2581,32.6543],[44.9243,31.2567,25.5647],[44.942,31.2576,24.5051],[44.9582,31.2613,24.4893]]]]}}