{"type":"Feature","properties":{"GID_2":"IRQ.2.4_1","GID_0":"IRQ","country":"Iraq","GID_1":"IRQ.2_1","province":"Al-Basrah","NL_NAME_1":"NA","county":"AlQurnah","VARNAME_2":"NA","NL_NAME_2":"NA","TYPE_2":"Kaza","ENGTYPE_2":"District","CC_2":"NA","HASC_2":"NA","name":"Al_Qurnah.county"},
"geometry":{"type": "MultiPolygon","coordinates": [[[[47.7002,31.2371,1.312],[47.6953,31.2778,1.3497],[47.5763,31.2789,1.2058],[47.4865,31.2931,2.723],[47.4346,31.2966,2.1535],[47.4018,31.2946,2.4691],[47.3853,31.2887,1.6167],[47.3836,31.2862,1.8713],[47.3895,31.2722,1.5205],[47.3909,31.2635,1.6358],[47.3916,31.1892,1.3011],[47.3991,31.1597,1.6926],[47.3991,31.1173,1.9219],[47.3974,31.1074,1.5565],[47.377,31.066,1.9532],[47.3607,31.0181,1.4974],[47.3585,30.9988,2.0031],[47.3607,30.9796,1.6284],[47.3651,30.9732,1.9712],[47.3714,30.9688,2.8433],[47.384,30.9667,1.6574],[47.4051,30.9676,1.5545],[47.4197,30.973,0.8914],[47.4292,30.9747,0.5856],[47.47,30.9752,1.3342],[47.4814,30.9727,1.3651],[47.4859,30.9664,2.5616],[47.4881,30.9442,1.4134],[47.4927,30.9301,1.5676],[47.4926,30.9232,1.1693],[47.4852,30.9083,1.8336],[47.4787,30.905,1.8222],[47.4615,30.91,1.8444],[47.4369,30.9108,0.8684],[47.4276,30.9092,0.8428],[47.4133,30.9041,0.9958],[47.3841,30.9023,1.0752],[47.3698,30.8974,0.5901],[47.3476,30.8931,0.929],[47.3408,30.8888,0.9281],[47.3162,30.8657,0.4409],[47.3126,30.8644,0.7893],[47.3086,30.8644,0.504],[47.303,30.8674,0.5973],[47.2971,30.8737,0.5647],[47.2917,30.8847,-1.27],[47.2883,30.8867,-1.3667],[47.28,30.8881,1.3438],[47.274,30.8858,1.0672],[47.2688,30.8686,0.884],[47.2608,30.853,1.165],[47.2486,30.8422,0.5423],[47.242,30.83,1.2463],[47.2367,30.8044,0.8716],[47.2289,30.7804,1.0183],[47.221,30.7644,1.1173],[47.2132,30.7556,1.0462],[47.2004,30.7463,0.6896],[47.1785,30.7079,1.681],[47.1866,30.6967,1.7083],[47.196,30.6872,1.5],[47.2266,30.6684,0.7316],[47.2298,30.6597,0.6532],[47.2313,30.6413,2.2342],[47.2344,30.6337,2.376],[47.2396,30.6279,2.2245],[47.2503,30.6202,2.2143],[47.2637,30.6041,3.1385],[47.2909,30.5937,4.9563],[47.3044,30.5923,3.3344],[47.3134,30.5937,2.6805],[47.3385,30.6022,4.4314],[47.3621,30.6119,5.532],[47.3713,30.6267,2.1047],[47.3902,30.6636,0.2383],[47.3984,30.6717,0.085],[47.4108,30.678,0.0],[47.4494,30.6896,1.6632],[47.491,30.7095,0.0],[47.5165,30.7124,0.0],[47.5311,30.7173,0.0],[47.5533,30.7215,0.0],[47.5631,30.7285,0.6644],[47.5779,30.7477,0.7909],[47.5914,30.7582,2.0103],[47.6019,30.7716,1.4952],[47.607,30.7742,2.7648],[47.6211,30.7756,1.6373],[47.6622,30.7752,2.6035],[47.6641,30.7865,1.9082],[47.6828,30.8142,2.3018],[47.6909,30.821,1.8356],[47.7179,30.8357,0.9789],[47.753,30.8694,0.6552],[47.7645,30.8835,0.5792],[47.7846,30.9209,1.4648],[47.7913,30.9254,1.5174],[47.8103,30.9324,1.6004],[47.8208,30.9404,1.7196],[47.825,30.948,1.7916],[47.8263,30.954,1.9466],[47.8265,30.9824,2.1792],[47.825,30.9931,2.113],[47.7017,30.9925,2.6115],[47.7002,31.2371,1.312]]]]}}