{"type":"Feature","properties":{"GID_2":"IRQ.11.3_1","GID_0":"IRQ","country":"Iraq","GID_1":"IRQ.11_1","province":"Dhi-Qar","NL_NAME_1":"NA","county":"Refai","VARNAME_2":"NA","NL_NAME_2":"NA","TYPE_2":"Kaza","ENGTYPE_2":"District","CC_2":"NA","HASC_2":"NA","name":"Refai.county"},
"geometry":{"type": "MultiPolygon","coordinates": [[[[45.7335,31.3242,7.1783],[45.7448,31.3316,7.1035],[45.7672,31.3364,6.1916],[45.7772,31.337,7.0057],[45.798,31.3306,5.9519],[45.8048,31.3306,5.7207],[45.8304,31.3416,5.9668],[45.8518,31.3464,6.0786],[45.8573,31.3523,5.3542],[45.8754,31.3867,6.372],[45.8894,31.3961,6.214],[45.8989,31.3991,6.0817],[45.9087,31.3982,5.4625],[45.9294,31.3911,4.8409],[45.9371,31.3867,5.3659],[45.9405,31.3829,5.7061],[45.9427,31.3783,5.9672],[45.9424,31.3708,5.8796],[45.9333,31.3558,5.8755],[45.9705,31.3446,5.5815],[46.0242,31.3435,5.6811],[46.0327,31.3446,5.7556],[46.0376,31.3473,5.7519],[46.0402,31.3522,5.788],[46.0435,31.3867,6.4726],[46.0695,31.4247,7.2326],[46.0726,31.4327,7.516],[46.0726,31.4463,8.1706],[46.0627,31.4756,8.2488],[46.0671,31.4902,8.1667],[46.0734,31.4955,7.7529],[46.0909,31.5029,6.589],[46.1121,31.5034,7.4671],[46.1247,31.501,8.5409],[46.1421,31.4885,9.0618],[46.1482,31.487,8.8015],[46.1522,31.492,8.6749],[46.1546,31.5102,9.1552],[46.159,31.5166,8.292],[46.1656,31.5187,6.6976],[46.1917,31.52,5.1174],[46.2278,31.5295,7.1132],[46.2322,31.5358,6.8986],[46.2347,31.5502,6.9044],[46.2389,31.557,5.3038],[46.254,31.5653,5.0935],[46.2831,31.5743,5.8867],[46.3037,31.5741,7.5954],[46.3183,31.5688,8.0397],[46.3271,31.5673,7.8915],[46.3362,31.5677,7.3208],[46.3534,31.5726,6.947],[46.371,31.5676,6.0728],[46.3814,31.5667,6.4676],[46.4133,31.5668,6.3879],[46.4218,31.5702,8.0708],[46.4252,31.5786,8.3198],[46.4265,31.6316,8.2376],[46.4288,31.6397,8.0432],[46.4375,31.6505,8.0578],[46.4148,31.6949,8.4437],[46.4107,31.707,8.3894],[46.4097,31.7423,8.3742],[46.3799,31.7902,9.1315],[46.361,31.8162,9.0118],[46.3304,31.8468,9.3194],[46.3083,31.8738,9.8917],[46.2978,31.8922,9.4004],[46.296,31.8993,9.6143],[46.2957,31.9104,8.9953],[46.298,31.9212,9.3273],[46.3019,31.9286,9.295],[46.3264,31.9546,10.2814],[46.3302,31.9618,9.8504],[46.3318,31.9706,10.2599],[46.3223,31.9817,10.6322],[46.311,31.9804,10.6562],[46.1451,31.9821,9.5135],[46.117,31.9813,11.5742],[46.0865,31.9784,11.9],[46.0443,31.9734,12.42],[46.0194,31.9684,11.9569],[45.8694,31.9211,9.2015],[45.8371,31.9131,8.8241],[45.8097,31.9103,9.1766],[45.7671,31.9085,9.4613],[45.6988,31.9107,10.7169],[45.6954,31.8678,10.7839],[45.698,31.8427,10.7107],[45.7042,31.8249,21.2223],[45.7169,31.7987,9.8791],[45.7544,31.7371,9.2892],[45.7598,31.7189,9.6677],[45.7683,31.6616,8.0595],[45.7685,31.633,8.4432],[45.7661,31.6194,8.1881],[45.7779,31.6072,7.7091],[45.785,31.5962,7.0856],[45.7882,31.588,7.2392],[45.7898,31.5768,7.7363],[45.7871,31.5619,8.8791],[45.7689,31.5333,7.2135],[45.7668,31.5236,7.5017],[45.7684,31.5114,7.3791],[45.7806,31.4717,6.471],[45.782,31.4559,6.9245],[45.7779,31.4371,6.3398],[45.767,31.4179,6.558],[45.753,31.4004,6.0255],[45.7214,31.3677,6.3702],[45.7135,31.3515,6.5367],[45.7135,31.3383,7.0402],[45.7172,31.3298,7.1744],[45.7234,31.3245,7.1297],[45.7304,31.3228,7.5558],[45.7335,31.3242,7.1783]]]]}}