{"type":"Feature","properties":{"GID_2":"IRQ.15.2_1","GID_0":"IRQ","country":"Iraq","GID_1":"IRQ.15_1","province":"Maysan","NL_NAME_1":"NA","county":"AlKahla","VARNAME_2":"NA","NL_NAME_2":"NA","TYPE_2":"Kaza","ENGTYPE_2":"District","CC_2":"NA","HASC_2":"NA","name":"Al_Kahla.county"},
"geometry":{"type": "MultiPolygon","coordinates": [[[[47.8423,31.8091,7.3321],[47.8363,31.8003,6.8656],[47.8106,31.7729,5.6853],[47.8,31.7659,5.4067],[47.7831,31.7643,5.532],[47.7294,31.7647,6.5997],[47.7205,31.7637,6.4247],[47.7137,31.7607,5.8015],[47.7064,31.7519,4.9914],[47.7022,31.7296,3.4462],[47.6943,31.7141,2.9108],[47.6756,31.6993,1.7423],[47.6606,31.6805,4.4186],[47.6554,31.6778,2.0],[47.6469,31.6766,2.0],[47.626,31.6776,2.6928],[47.6082,31.6843,2.1798],[47.6002,31.6857,2.3358],[47.5889,31.6829,2.1746],[47.5756,31.6759,2.7684],[47.5683,31.6766,2.4358],[47.5632,31.6794,2.0936],[47.5572,31.6895,2.8924],[47.5468,31.6955,2.7721],[47.5369,31.7056,3.5274],[47.5246,31.7235,4.0657],[47.519,31.7291,3.927],[47.5125,31.7326,3.8864],[47.5006,31.7354,4.5821],[47.4871,31.7339,4.0846],[47.4774,31.7351,3.662],[47.4358,31.7549,4.1848],[47.4055,31.759,4.6533],[47.3958,31.7629,4.7303],[47.3779,31.766,4.7158],[47.3593,31.7723,5.1834],[47.3346,31.7734,5.0008],[47.3214,31.7721,4.7926],[47.3163,31.7695,5.6188],[47.3128,31.765,5.5996],[47.2782,31.6988,6.0724],[47.2755,31.6955,6.2398],[47.2714,31.6937,6.587],[47.2647,31.6933,6.2766],[47.2638,31.6844,6.1061],[47.2576,31.6695,4.6783],[47.2575,31.662,4.1458],[47.2626,31.6488,3.5361],[47.2659,31.6259,5.3862],[47.2764,31.5856,4.7708],[47.2907,31.5788,3.5779],[47.3028,31.5631,4.4546],[47.3131,31.5537,4.8069],[47.3411,31.5431,4.2057],[47.3511,31.5416,5.0398],[47.3598,31.5424,4.4612],[47.3666,31.5455,4.36],[47.3819,31.5629,3.4245],[47.4194,31.5755,2.8602],[47.4499,31.5887,3.602],[47.4705,31.5887,2.7013],[47.4899,31.5824,1.688],[47.5153,31.5793,3.2459],[47.5409,31.5673,3.9028],[47.6032,31.5473,2.0],[47.6288,31.5353,5.187],[47.6431,31.5313,5.8532],[47.6906,31.5068,4.2184],[47.7105,31.4879,2.6036],[47.7277,31.4773,4.4299],[47.7225,31.4535,4.1935],[47.8649,31.7792,5.6248],[47.8643,31.7929,5.9286],[47.8423,31.8091,7.3321]]]]}}