{"type":"Feature","properties":{"GID_2":"IRQ.4.4_1","GID_0":"IRQ","country":"Iraq","GID_1":"IRQ.4_1","province":"Al-Qadisiyah","NL_NAME_1":"NA","county":"Shamiya","VARNAME_2":"NA","NL_NAME_2":"NA","TYPE_2":"Kaza","ENGTYPE_2":"District","CC_2":"NA","HASC_2":"NA","name":"Shamiya.county"},
"geometry":{"type": "MultiPolygon","coordinates": [[[[44.5364,32.0359,22.621],[44.5236,32.0317,21.0074],[44.5048,32.0204,21.4787],[44.4975,32.0151,20.7614],[44.4914,32.008,21.3267],[44.4779,31.9874,20.6865],[44.4731,31.9754,21.1131],[44.4685,31.9586,19.1879],[44.4642,31.9322,22.9861],[44.4686,31.8885,17.1473],[44.4734,31.8692,19.3279],[44.4848,31.8472,19.0212],[44.5018,31.8238,19.2322],[44.5136,31.8035,18.6435],[44.5198,31.787,20.6967],[44.5214,31.7775,18.5671],[44.5215,31.7677,20.532],[44.5192,31.753,19.1574],[44.5029,31.7067,16.8863],[44.4949,31.6699,15.7225],[44.4874,31.597,18.2731],[44.5042,31.5822,22.7599],[44.5078,31.5799,23.5715],[44.5148,31.5787,23.4494],[44.5473,31.5909,20.0727],[44.5644,31.586,16.5439],[44.5735,31.5855,14.5232],[44.6021,31.5926,15.4867],[44.6661,31.5926,16.6419],[44.6746,31.5938,15.9129],[44.6809,31.5982,16.0905],[44.6853,31.6118,15.8402],[44.6929,31.628,16.7224],[44.6978,31.6341,16.6955],[44.704,31.6389,17.1607],[44.7299,31.6524,17.4459],[44.7373,31.6614,18.1119],[44.7416,31.6837,17.8049],[44.7467,31.6982,16.5995],[44.7514,31.7324,17.7481],[44.717,31.7559,17.3598],[44.7097,31.7651,16.4367],[44.7042,31.7906,17.846],[44.6979,31.8035,18.5512],[44.686,31.8212,17.836],[44.6841,31.8311,17.8442],[44.6834,31.852,17.6146],[44.6802,31.8607,18.8292],[44.6665,31.8689,16.9372],[44.6486,31.874,17.8491],[44.6325,31.8816,18.7576],[44.6238,31.8895,18.8306],[44.6128,31.9214,21.8548],[44.6124,31.9624,21.2057],[44.6073,31.9666,21.1674],[44.5834,31.9739,23.2271],[44.5649,31.9771,21.6042],[44.5599,31.9797,21.7916],[44.5497,32.005,22.3919],[44.5438,32.0257,21.0697],[44.5364,32.0359,22.621]]]]}}