{"type":"Feature","properties":{"GID_2":"IRQ.7.7_1","GID_0":"IRQ","country":"Iraq","GID_1":"IRQ.7_1","province":"As-Sulaymaniyah","NL_NAME_1":"NA","county":"Pshdar","VARNAME_2":"NA","NL_NAME_2":"NA","TYPE_2":"Kaza","ENGTYPE_2":"District","CC_2":"NA","HASC_2":"NA","name":"Pshdar.county"},
"geometry":{"type": "MultiPolygon","coordinates": [[[[45.0189,36.5278,3373.4988],[44.999,36.5222,2936.2668],[44.98,36.5127,2628.9543],[44.9648,36.4953,2249.7314],[44.9369,36.4506,2034.8599],[44.924,36.4394,1493.8273],[44.9133,36.435,1213.3799],[44.9042,36.4335,1196.6381],[44.8893,36.4337,1186.6401],[44.8163,36.4423,1593.1077],[44.804,36.441,1693.5471],[44.7897,36.4355,1675.5936],[44.7861,36.4323,1628.3127],[44.7959,36.409,1181.5305],[44.7977,36.3834,1344.4375],[44.8203,36.3762,1486.573],[44.8472,36.3523,1467.6433],[44.8711,36.3366,1218.4336],[44.8891,36.3306,1612.6599],[44.9052,36.3229,1117.0234],[44.9138,36.315,859.7649],[44.9238,36.2878,708.4086],[44.9266,36.2698,656.8448],[44.9315,36.2557,952.2051],[44.9356,36.2335,538.4242],[44.9474,36.2078,490.423],[44.9503,36.1824,485.0],[44.9552,36.1677,485.0],[44.9576,36.151,485.0],[44.9604,36.1435,496.8813],[44.9793,36.1371,501.9248],[44.9883,36.1285,524.0555],[44.9892,36.1248,510.308],[45.0732,36.1249,1082.9279],[45.0836,36.1241,953.5847],[45.0916,36.1216,835.7393],[45.1055,36.1133,834.726],[45.1149,36.0996,896.8723],[45.1264,36.0889,1066.0999],[45.1474,36.0814,1169.5267],[45.1634,36.0728,894.8049],[45.1689,36.0671,1046.9978],[45.1768,36.0543,1134.2662],[45.1825,36.049,1407.0815],[45.1893,36.0459,1715.9209],[45.2079,36.0427,1317.7079],[45.2275,36.033,1873.8988],[45.2536,36.0075,1929.2343],[45.2673,35.9863,1947.094],[45.2854,35.9731,1513.7023],[45.2885,35.9688,1347.6243],[45.2958,35.9719,1591.0814],[45.3083,35.9734,1495.6964],[45.3247,35.9802,825.6201],[45.3485,35.9811,688.0032],[45.3554,35.9829,945.5136],[45.3493,35.997,898.8068],[45.3419,36.0068,696.8667],[45.3594,36.032,945.9064],[45.3638,36.0559,1639.8905],[45.3702,36.0646,1917.4976],[45.3871,36.0784,2213.3354],[45.3868,36.0853,2061.6418],[45.3739,36.1087,2097.2261],[45.3595,36.1198,1954.2551],[45.3547,36.1343,1951.8794],[45.3416,36.1448,2004.0554],[45.3407,36.1626,2166.3157],[45.3358,36.1754,2056.3455],[45.344,36.1973,2163.3645],[45.3376,36.2135,2078.3564],[45.3332,36.2339,1741.5703],[45.3237,36.2424,1894.3158],[45.2931,36.2474,1829.2014],[45.2791,36.2534,2293.7407],[45.2785,36.2562,2081.1448],[45.2861,36.2629,1818.7192],[45.2965,36.2691,1345.7625],[45.3146,36.276,1422.8705],[45.3113,36.2807,1409.6351],[45.2982,36.2906,1494.5948],[45.2889,36.3025,1550.2427],[45.2834,36.3055,1545.6183],[45.2815,36.31,1635.8105],[45.2825,36.3265,1659.5273],[45.2885,36.3416,1895.4976],[45.2849,36.3576,1818.9515],[45.2872,36.3692,1747.4236],[45.2851,36.3793,1803.0358],[45.2794,36.3923,2002.5724],[45.2702,36.4025,1885.2917],[45.2527,36.427,2061.5339],[45.2457,36.4317,2360.4375],[45.2381,36.433,2650.0496],[45.2191,36.4254,2582.3081],[45.2183,36.4295,2797.5527],[45.2087,36.4233,2651.4636],[45.1994,36.4214,2436.4829],[45.189,36.4152,2247.6436],[45.1775,36.4137,2420.3059],[45.1621,36.4053,2433.7168],[45.1442,36.405,2796.7759],[45.1296,36.408,2484.7131],[45.108,36.4192,2814.1025],[45.0994,36.426,2767.8777],[45.0927,36.4348,2812.2859],[45.0918,36.4496,2487.0117],[45.0727,36.4684,2554.4592],[45.0697,36.4888,2312.0195],[45.0591,36.5032,3051.9001],[45.0369,36.5145,3026.708],[45.0225,36.5239,3064.7957],[45.0189,36.5278,3373.4988]]]]}}