{"type":"Feature","properties":{"GID_2":"IRQ.11.2_1","GID_0":"IRQ","country":"Iraq","GID_1":"IRQ.11_1","province":"Dhi-Qar","NL_NAME_1":"NA","county":"Chibayish","VARNAME_2":"NA","NL_NAME_2":"NA","TYPE_2":"Kaza","ENGTYPE_2":"District","CC_2":"NA","HASC_2":"NA","name":"Chibayish.county"},
"geometry":{"type": "MultiPolygon","coordinates": [[[[47.1755,31.1428,0.2035],[47.1636,31.1463,0.371],[47.1541,31.1429,0.4093],[47.1192,31.1395,0.5438],[47.0243,31.1387,0.8063],[46.9864,31.1354,1.0338],[46.9449,31.1371,1.0925],[46.9357,31.1351,1.2133],[46.9417,31.1212,1.0534],[46.9432,31.1125,1.1407],[46.9439,31.0823,1.9193],[46.9419,31.0679,1.7935],[46.93,31.049,1.6572],[46.9094,31.0375,2.0054],[46.8984,31.0188,1.2162],[46.8861,31.0108,1.9335],[46.8783,31.0082,1.7698],[46.833,31.0068,2.1912],[46.7947,30.9936,1.1841],[46.7589,30.9906,1.8687],[46.7436,30.9838,1.6195],[46.7437,30.9663,2.2695],[46.7456,30.9581,1.4236],[46.7654,30.9311,1.4528],[46.7747,30.9028,1.5708],[46.7746,30.8892,1.3012],[46.7686,30.8708,1.3077],[46.7655,30.8528,1.7217],[46.7546,30.8326,1.5588],[46.7321,30.8156,1.9335],[46.7223,30.8007,2.4415],[46.708,30.784,1.4732],[46.7042,30.7746,1.6907],[46.7009,30.7493,1.9478],[46.695,30.7404,2.1785],[46.6789,30.7252,1.1848],[46.6637,30.7156,1.3753],[46.6463,30.6936,0.5],[46.6317,30.6838,0.5],[46.6253,30.6757,0.5],[46.6179,30.6574,2.5543],[46.5996,30.6439,3.2986],[46.5861,30.6272,12.2647],[46.5697,30.6137,17.3101],[46.5669,30.6062,17.2986],[46.5629,30.5731,27.1475],[46.585,30.5741,22.4354],[46.6121,30.5779,19.177],[46.6899,30.5931,13.9692],[46.8186,30.6251,19.7429],[46.8835,30.6465,14.581],[46.9069,30.6502,10.996],[46.9489,30.6479,10.9203],[47.0842,30.6251,23.3246],[47.1039,30.6231,25.0211],[47.1142,30.6238,24.4931],[47.1234,30.6267,23.9915],[47.129,30.6307,23.4666],[47.133,30.6363,21.9119],[47.136,30.6459,20.0405],[47.1358,30.6647,16.6052],[47.1327,30.6786,15.1043],[47.1173,30.7208,3.4212],[47.1146,30.732,1.839],[47.1187,30.7636,1.0473],[47.1236,30.7862,0.0],[47.1358,30.8256,0.6856],[47.1547,30.8759,1.0573],[47.1716,30.9328,0.8388],[47.1779,30.9679,0.5878],[47.1827,31.0079,1.32],[47.1855,31.0617,0.6286],[47.1809,31.115,0.4848],[47.1755,31.1428,0.2035]]]]}}