{"type":"Feature","properties":{"ISO3166-1-Alpha-3":"IRQ","country":"Iraq","fill":"#F00","id":"3226","name":"Maysan"},
"geometry":{"type": "Polygon","coordinates": [[[47.0584,32.49448,72.3766],[46.75733,32.7162,78.5195],[46.71589,32.75601,87.9107],[46.65036,32.78937,82.7857],[46.60442,32.82069,87.6123],[46.60061,32.82254,87.4948],[46.6006,32.82252,87.4948],[46.58509,32.79955,66.4061],[46.57579,32.78973,63.7266],[46.55357,32.77658,61.083],[46.54613,32.76697,57.402],[46.48112,32.60062,20.5585],[46.47492,32.55274,14.2517],[46.47616,32.49187,12.7185],[46.47492,32.48112,13.0477],[46.47151,32.47096,12.8065],[46.4682,32.45657,12.3971],[46.4651,32.45032,12.3137],[46.45125,32.4319,10.3366],[46.44505,32.42048,11.6994],[46.44402,32.41161,11.7324],[46.4528,32.40381,11.2069],[46.46913,32.39249,10.7278],[46.47378,32.3865,10.6066],[46.47771,32.37849,10.3028],[46.47626,32.36986,10.2748],[46.4342,32.26754,8.7973],[46.42862,32.2495,9.0921],[46.43172,32.23452,8.8067],[46.45022,32.22191,9.5196],[46.57218,32.17716,9.2913],[46.59171,32.15225,8.6858],[46.6037,32.13372,9.5533],[46.57683,31.98358,9.0125],[46.55574,31.98141,9.5882],[46.51802,31.98955,9.6975],[46.48205,32.00533,10.3015],[46.44216,32.00942,10.8848],[46.31741,32.00544,11.2987],[46.33974,31.98647,10.7245],[46.35203,31.97275,9.9763],[46.35369,31.96433,10.0999],[46.33725,31.96069,9.9324],[46.32061,31.95221,10.4171],[46.3109,31.93542,10.3082],[46.33705,31.8879,10.7858],[46.41436,31.77881,9.4371],[46.41301,31.7553,8.5909],[46.4096,31.74181,8.3213],[46.43265,31.69122,8.7498],[46.47182,31.65355,7.6622],[46.50283,31.63822,7.2888],[46.50882,31.63262,7.9002],[46.53993,31.58983,7.8588],[46.55636,31.57562,6.8757],[46.58851,31.55262,7.4302],[46.59915,31.54162,7.2903],[46.60649,31.52578,7.0768],[46.60907,31.5103,6.071],[46.60535,31.49012,5.3302],[46.59998,31.47779,5.2465],[46.58954,31.45963,5.3738],[46.5883,31.44663,5.2951],[46.58892,31.43733,5.1214],[46.60504,31.39604,5.1615],[46.69403,31.34855,4.8679],[46.70622,31.34046,4.2765],[46.71759,31.33075,4.2468],[46.73031,31.31602,4.0655],[46.7363,31.30589,3.745],[46.7395,31.297,3.978],[46.74054,31.28809,4.066],[46.74012,31.27703,3.3435],[46.73568,31.24145,2.6494],[46.73558,31.23091,3.1352],[46.73682,31.22135,4.0483],[46.73899,31.21306,4.4984],[46.7426,31.20592,4.3909],[46.74953,31.19812,3.772],[46.79283,31.16815,2.5479],[46.80668,31.15665,2.2005],[46.84585,31.13911,2.2519],[46.95096,31.14048,1.0973],[47.12615,31.12981,0.302],[47.13721,31.19125,0.3109],[47.15591,31.21623,0.3753],[47.17627,31.23094,0.3076],[47.211,31.24494,0.6706],[47.3497,31.27595,1.5882],[47.39476,31.27915,1.695],[47.53749,31.26698,1.9669],[47.67609,31.23659,1.5207],[47.67644,31.23652,1.5207],[47.67893,31.40785,1.6602],[47.83132,31.76184,4.5951],[47.83727,31.78447,5.5172],[47.83448,31.80571,7.3121],[47.82078,31.82359,9.6943],[47.78135,31.84886,12.5541],[47.76528,31.8641,14.659],[47.76171,31.87165,15.178],[47.75655,31.88917,18.2702],[47.75097,31.89821,18.2858],[47.74332,31.90426,19.5823],[47.72523,31.91433,20.1721],[47.71841,31.92234,20.7891],[47.68265,31.97691,26.5171],[47.67795,31.99453,29.4587],[47.67795,31.99469,29.4587],[47.66808,32.01241,32.2783],[47.63314,32.02694,32.5802],[47.6178,32.04187,32.8357],[47.59501,32.08543,43.3681],[47.58023,32.1035,52.538],[47.57806,32.10616,66.4328],[47.55873,32.11298,66.3543],[47.54364,32.11458,49.8838],[47.53475,32.12316,40.915],[47.52669,32.13339,53.9008],[47.51382,32.14031,37.141],[47.49816,32.14414,20.9833],[47.49134,32.14863,18.2469],[47.49041,32.15654,21.6071],[47.49248,32.17049,31.9901],[47.49641,32.18134,54.3309],[47.50235,32.19013,56.8321],[47.50767,32.19984,59.5855],[47.50922,32.2138,66.3014],[47.504,32.22674,79.2397],[47.48452,32.23935,91.3023],[47.47915,32.25206,54.0231],[47.46943,32.25612,58.638],[47.46302,32.26183,77.9552],[47.44535,32.28263,51.5693],[47.44158,32.28819,86.5685],[47.43688,32.29369,78.8088],[47.40706,32.31777,95.5764],[47.40246,32.32351,97.0348],[47.39579,32.33702,100.2072],[47.39595,32.34198,105.3301],[47.39998,32.34578,123.5911],[47.40876,32.36433,148.8874],[47.41435,32.36986,140.7911],[47.41796,32.37642,156.5292],[47.41641,32.38797,149.4664],[47.41083,32.39528,150.2288],[47.38412,32.41257,131.5997],[47.36732,32.43076,116.794],[47.35611,32.44619,155.3491],[47.34334,32.45869,177.125],[47.32195,32.46823,189.7908],[47.26531,32.48468,145.88],[47.25125,32.48546,150.8441],[47.20547,32.46404,86.2826],[47.1878,32.45838,74.0604],[47.15255,32.45518,58.4938],[47.12103,32.46104,64.517],[47.09059,32.47456,69.592],[47.05866,32.4944,72.3766],[47.05861,32.49448,72.3766],[47.0584,32.49448,72.3766]]]}}