{"type":"Feature","properties":{"id":142365.0,"name":null,"lge_id":null,"pfafstette":242333.0,"lke_type":null,"altitude":0,"objectid":89162,"scalerank":11,"featurecla":"Lake","note":"_untitled_89162","funkyname":0,"min_zoom":6.7,"min_label":7.7},
"geometry":{"type": "Polygon","coordinates": [[[46.539805534771233,32.219488836712827,7.4476],[46.539805534771233,32.219488836712827,7.4476],[46.563365105083733,32.214117742962827,7.5106],[46.589488151958733,32.229864813275327,7.5706],[46.584483269146233,32.248907782025327,7.4249],[46.560313347271233,32.264044500775327,7.5882],[46.541026237896233,32.270270086712827,8.0987],[46.517222526958733,32.272345282025327,8.5548],[46.489024284771233,32.278021551556577,8.8824],[46.469493034771233,32.268805242962827,8.146],[46.481211784771233,32.258429266400327,7.9729],[46.517588737896233,32.242315985150327,7.6704],[46.539805534771233,32.219488836712827,7.4476]]]}}