{"type":"Feature","properties":{"id":142384.0,"name":null,"lge_id":null,"pfafstette":24223.0,"lke_type":null,"altitude":0,"objectid":89233,"scalerank":12,"featurecla":"Lake","note":"_untitled_89233","funkyname":0,"min_zoom":7.0,"min_label":8.0},
"geometry":{"type": "Polygon","coordinates": [[[47.295054558208733,31.913214422650327,5.2253],[47.295054558208733,31.913214422650327,5.2253],[47.276377800396233,31.906988836712827,5.5791],[47.262705925396233,31.911993719525327,6.0028],[47.247813347271233,31.905157782025327,5.7624],[47.251597526958733,31.879339910931577,5.1987],[47.271739128521233,31.870978094525327,5.1043],[47.295909050396233,31.887335516400327,4.8309],[47.315806511333733,31.896246649212827,5.1101],[47.326548698833733,31.897162176556577,5.5629],[47.320078972271233,31.909674383587827,5.0251],[47.295054558208733,31.913214422650327,5.2253]]]}}