{"type":"Feature","properties":{"id":142382.0,"name":null,"lge_id":null,"pfafstette":2435.0,"lke_type":null,"altitude":0,"objectid":89231,"scalerank":11,"featurecla":"Lake","note":"_untitled_89231","funkyname":0,"min_zoom":6.7,"min_label":7.7},
"geometry":{"type": "Polygon","coordinates": [[[47.738291862896233,31.668219305462827,4.1104],[47.738291862896233,31.668219305462827,4.1104],[47.752574089458733,31.668829657025327,2.5559],[47.770762566021233,31.670904852337827,2.0],[47.797740105083733,31.683966375775327,2.0],[47.799815300396233,31.696478582806577,3.9397],[47.794444206646233,31.705694891400327,3.0198],[47.782603386333733,31.714911199994077,2.0273],[47.743907097271233,31.713995672650327,3.2083],[47.715708855083733,31.702460028119077,3.9755],[47.718760612896233,31.691168524212827,2.0],[47.724375847271233,31.678351141400327,2.24],[47.738291862896233,31.668219305462827,4.1104]]]}}