{"type":"Feature","properties":{"GID_1":"IRQ.15_1","GID_0":"IRQ","country":"Iraq","province":"Maysan","VARNAME_1":"`Amara","NL_NAME_1":"NA","TYPE_1":"Muhafazah","ENGTYPE_1":"Province","CC_1":"NA","HASC_1":"IQ.MA","ISO_1":"IQ-MA","name":"Maysan.province"},
"geometry":{"type": "MultiPolygon","coordinates": [[[[47.6992,31.4,4.3584],[47.8649,31.7792,5.6248],[47.8643,31.7929,5.9286],[47.8185,31.8264,10.5931],[47.8048,31.8412,10.7944],[47.7995,31.8524,11.4565],[47.7991,31.8637,11.9968],[47.8036,31.8801,13.6579],[47.7756,31.9027,16.0737],[47.7556,31.9123,18.4536],[47.7455,31.9197,19.5869],[47.7375,31.9296,20.8396],[47.7353,31.9547,23.8295],[47.7314,31.9639,24.7151],[47.7104,31.9888,26.4762],[47.7089,31.9989,27.2283],[47.6813,32.0317,33.1334],[47.6598,32.0431,35.4579],[47.6558,32.0471,36.9597],[47.6528,32.0556,39.8396],[47.6515,32.0789,34.3341],[47.648,32.0843,47.893],[47.6329,32.0927,77.2564],[47.6118,32.1101,60.4545],[47.6009,32.1157,60.6069],[47.5893,32.1163,76.7965],[47.5716,32.1139,67.3769],[47.5634,32.116,67.0552],[47.5555,32.1296,70.5566],[47.5379,32.1393,59.2123],[47.5358,32.1424,57.7645],[47.5344,32.1552,64.6073],[47.5358,32.1745,79.4255],[47.5459,32.1842,91.5196],[47.5547,32.1901,101.2],[47.5627,32.1996,101.4541],[47.5679,32.2143,99.2997],[47.5673,32.2239,106.3494],[47.557,32.2319,104.673],[47.5382,32.2384,126.9081],[47.5284,32.2482,126.4755],[47.5218,32.2575,127.7806],[47.4998,32.2727,120.3485],[47.4961,32.2822,127.0406],[47.4985,32.2917,114.4524],[47.5027,32.2979,128.464],[47.5022,32.3008,136.5266],[47.4889,32.3128,143.148],[47.4747,32.3192,149.3819],[47.4641,32.3208,157.4589],[47.4591,32.3189,160.2061],[47.4514,32.3201,161.326],[47.4453,32.3235,146.94],[47.443,32.3284,147.4791],[47.4441,32.3331,140.3684],[47.4421,32.3421,149.4422],[47.438,32.3461,154.6915],[47.4291,32.3505,159.2603],[47.4262,32.3528,159.8921],[47.4258,32.3556,165.6742],[47.4443,32.3578,164.8067],[47.4494,32.362,168.2989],[47.4561,32.3742,173.9713],[47.4542,32.3902,193.2484],[47.4489,32.4012,216.2547],[47.4404,32.4102,201.4426],[47.431399999999996,32.4157,190.1667],[47.4172,32.4297,179.5755],[47.4102,32.4408,174.5567],[47.3934,32.4601,170.1695],[47.3851,32.4671,183.1285],[47.3747,32.4684,181.256],[47.3515,32.4672,185.3875],[47.3367,32.4706,199.0402],[47.3207,32.4788,218.9651],[47.3038,32.4908,251.4271],[47.2983,32.4926,259.7207],[47.2908,32.4915,229.6357],[47.2813,32.4837,205.6367],[47.2613,32.4717,199.5337],[47.2337,32.4636,164.7533],[47.2214,32.458,99.6245],[47.2142,32.456,89.7733],[47.2034,32.4564,94.1947],[47.181399999999996,32.4608,61.8482],[47.179,32.4533,59.4104],[47.1734,32.4512,62.8769],[47.1592,32.4541,59.3319],[47.1314,32.4676,67.2397],[47.1083,32.4758,72.3558],[47.0679,32.5104,85.4488],[47.0558,32.5231,100.7267],[47.0439,32.5305,102.8061],[46.9954,32.5718,126.1197],[46.952,32.597,111.1871],[46.9405,32.6099,124.8532],[46.9203,32.6251,100.1034],[46.9081,32.6295,105.0274],[46.8907,32.6401,103.9312],[46.8767,32.6572,116.0104],[46.8322,32.6929,112.8154],[46.8236,32.7023,153.6205],[46.8109,32.7083,119.8121],[46.7979,32.7113,103.9946],[46.7875,32.7157,98.509],[46.7774,32.7274,105.463],[46.749,32.7536,102.5033],[46.7304,32.7656,113.3622],[46.7061,32.7746,104.2149],[46.6967,32.784,113.4648],[46.6857,32.7919,114.3029],[46.6652,32.7999,107.0295],[46.6595,32.8042,113.7029],[46.6467,32.8207,148.5853],[46.5756,32.8534,105.0857],[46.5644,32.8609,111.0155],[46.5434,32.8322,78.4165],[46.5159,32.8038,63.4354],[46.4961,32.7794,53.9543],[46.4884,32.7649,49.5697],[46.4787,32.7407,43.4177],[46.4246,32.5717,17.6211],[46.4157,32.5281,13.2356],[46.407,32.4499,11.7271],[46.3913,32.4066,10.938],[46.3874,32.3841,10.582],[46.3883,32.3724,10.2564],[46.3934,32.356,9.965],[46.397,32.3501,10.1822],[46.4186,32.327,10.3626],[46.4225,32.3178,9.9911],[46.4253,32.2964,8.9921],[46.4222,32.2331,9.7043],[46.4245,32.221,9.8819],[46.4292,32.2097,10.3358],[46.4402,32.1947,9.9098],[46.4547,32.1826,10.3215],[46.518,32.1472,9.3312],[46.5314,32.1343,10.1305],[46.5393,32.1198,9.7766],[46.5446,32.0962,9.7879],[46.5448,32.0726,9.7591],[46.5301,31.9815,9.2172],[46.512,31.9742,8.1964],[46.4965,31.9729,8.0339],[46.4133,31.9879,10.8832],[46.3899,31.9889,11.0225],[46.3483,31.9801,10.7285],[46.3303,31.9738,10.3657],[46.3318,31.9706,10.2599],[46.3302,31.9618,9.8504],[46.3264,31.9546,10.2814],[46.3019,31.9286,9.295],[46.298,31.9212,9.3273],[46.2957,31.9104,8.9953],[46.296,31.8993,9.6143],[46.2978,31.8922,9.4004],[46.3083,31.8738,9.8917],[46.3304,31.8468,9.3194],[46.361,31.8162,9.0118],[46.3799,31.7902,9.1315],[46.4097,31.7423,8.3742],[46.4107,31.707,8.3894],[46.4148,31.6949,8.4437],[46.4375,31.6505,8.0578],[46.4471,31.6394,7.8916],[46.5242,31.5343,6.5519],[46.5475,31.4977,6.4984],[46.5652,31.4609,5.9829],[46.5772,31.441,5.2643],[46.5935,31.422,5.0524],[46.6127,31.4029,4.5854],[46.6704,31.3657,4.8473],[46.6926,31.3495,4.7567],[46.7155,31.3303,4.2763],[46.7298,31.3138,4.0509],[46.7364,31.3018,4.0918],[46.7405,31.2897,4.2018],[46.7427,31.2772,3.3403],[46.7459,31.225,3.0821],[46.75,31.2076,3.585],[46.7624,31.1847,3.1871],[46.7805,31.1639,2.4004],[46.7961,31.1525,1.8968],[46.8202,31.1427,2.0242],[46.8409,31.1378,2.1551],[46.8615,31.1352,2.4984],[46.9357,31.1351,1.2133],[46.9449,31.1371,1.0925],[46.9864,31.1354,1.0338],[47.0243,31.1387,0.8063],[47.1192,31.1395,0.5438],[47.1541,31.1429,0.4093],[47.1636,31.1463,0.371],[47.1755,31.1428,0.2035],[47.1997,31.1925,0.7164],[47.2118,31.2053,0.8586],[47.24,31.225,1.1929],[47.2692,31.2431,1.0972],[47.3336,31.2622,1.3877],[47.3469,31.2682,1.5931],[47.3596,31.278199999999998,1.5598],[47.3836,31.2862,1.8713],[47.3909,31.2916,1.8153],[47.4144,31.2961,2.9437],[47.4346,31.2966,2.1535],[47.4865,31.2931,2.723],[47.5763,31.2789,1.2058],[47.6953,31.2778,1.3497],[47.7002,31.2371,1.312],[47.6992,31.4,4.3584]]]]}}