{"type":"Feature","properties":{"GID_2":"IRQ.7.8_1","GID_0":"IRQ","country":"Iraq","GID_1":"IRQ.7_1","province":"As-Sulaymaniyah","NL_NAME_1":"NA","county":"Rania","VARNAME_2":"NA","NL_NAME_2":"NA","TYPE_2":"Kaza","ENGTYPE_2":"District","CC_2":"NA","HASC_2":"NA","name":"Rania.county"},
"geometry":{"type": "MultiPolygon","coordinates": [[[[44.7662,36.4363,1372.5925],[44.7597,36.4278,1345.0032],[44.7512,36.4231,1047.3848],[44.7352,36.4196,1185.1544],[44.632,36.4208,1847.8821],[44.6124,36.4194,1233.213],[44.603,36.4172,1126.6062],[44.5824,36.4062,1026.7018],[44.5383,36.3688,1097.4634],[44.5196,36.3568,1507.2456],[44.5136,36.3517,1656.5386],[44.5089,36.3449,1297.6154],[44.5066,36.337,1366.0537],[44.5065,36.3213,1218.7983],[44.5113,36.2969,839.9769],[44.5174,36.2795,812.7391],[44.526,36.2611,795.2007],[44.5578,36.2491,1007.5013],[44.6028,36.2412,708.2999],[44.6158,36.2375,697.2746],[44.6254,36.2319,670.2465],[44.6305,36.2264,642.5575],[44.6353,36.216,621.2343],[44.6359,36.2097,642.7747],[44.6326,36.1962,625.7019],[44.6285,36.1897,606.7725],[44.6054,36.1663,744.4017],[44.5994,36.1582,726.1168],[44.5961,36.1511,749.6544],[44.5943,36.1411,1091.4504],[44.5951,36.1311,1058.9171],[44.5992,36.1212,973.5801],[44.6068,36.1121,866.5116],[44.6529,36.0698,547.3915],[44.6627,36.063,569.4133],[44.6745,36.0574,565.8611],[44.6934,36.0534,605.7651],[44.7081,36.0653,702.043],[44.7178,36.0685,825.4394],[44.7734,36.0693,770.8707],[44.788,36.0685,809.4452],[44.8066,36.0621,1073.1843],[44.8359,36.0603,1025.0968],[44.85,36.055,1157.4766],[44.8589,36.0534,1002.767],[44.9117,36.0528,553.5295],[44.9285,36.0548,524.3058],[44.9349,36.0593,498.7123],[44.9397,36.0655,485.0],[44.9474,36.0817,485.0],[44.9513,36.0958,485.0],[44.9574,36.1045,485.0],[44.9621,36.1082,485.0],[44.9855,36.1194,499.4921],[44.9893,36.1233,506.274],[44.9892,36.1262,513.1248],[44.9793,36.1371,501.9248],[44.9633,36.1416,497.6843],[44.9585,36.1468,485.0],[44.9561,36.164,485.0],[44.9503,36.1824,485.0],[44.9474,36.2078,490.423],[44.9356,36.2335,538.4242],[44.9315,36.2557,952.2051],[44.9266,36.2698,656.8448],[44.9238,36.2878,708.4086],[44.9158,36.3117,852.6485],[44.9113,36.318,875.3639],[44.9052,36.3229,1117.0234],[44.8891,36.3306,1612.6599],[44.8748,36.3346,1300.186],[44.8472,36.3523,1467.6433],[44.8203,36.3762,1486.573],[44.7977,36.3834,1344.4375],[44.7959,36.409,1181.5305],[44.7861,36.4323,1628.3127],[44.7781,36.4361,1329.0894],[44.7662,36.4363,1372.5925]]]]}}