{"type":"Feature","properties":{"GID_2":"IRQ.6.7_1","GID_0":"IRQ","country":"Iraq","GID_1":"IRQ.6_1","province":"Arbil","NL_NAME_1":"NA","county":"Soran","VARNAME_2":"NA","NL_NAME_2":"NA","TYPE_2":"Kaza","ENGTYPE_2":"District","CC_2":"NA","HASC_2":"NA","name":"Soran.county"},
"geometry":{"type": "MultiPolygon","coordinates": [[[[44.805,37.1481,2781.4885],[44.7711,37.1675,2716.3237],[44.7633,37.1674,2571.377],[44.7547,37.1632,2377.8943],[44.7338,37.1709,2344.3232],[44.7185,37.1744,2251.6836],[44.6785,37.1752,2210.5605],[44.6523,37.1856,2095.1951],[44.645,37.1875,2069.6995],[44.6377,37.1867,2149.3613],[44.6265,37.1815,2081.3059],[44.6035,37.1658,1992.8158],[44.5862,37.1604,1960.4124],[44.5771,37.1526,2117.4348],[44.5639,37.1375,1771.6736],[44.554,37.1231,1514.0159],[44.5381,37.1211,1310.637],[44.5277,37.1161,1263.3977],[44.5221,37.1099,1381.604],[44.5197,37.0999,1257.9341],[44.5114,37.0935,1186.5642],[44.4566,37.07,932.697],[44.4261,37.0633,841.4097],[44.4058,37.0558,853.6919],[44.3709,37.0566,725.6682],[44.3578,37.0531,708.6931],[44.3507,37.0493,750.327],[44.3482,37.046,718.1821],[44.3486,37.0434,696.2048],[44.3648,37.0308,713.6493],[44.3651,37.0264,686.2347],[44.3613,37.0203,721.0061],[44.3428,37.0053,727.9665],[44.3319,36.9914,717.0161],[44.3834,36.9433,885.2633],[44.3967,36.9242,926.4216],[44.4129,36.9097,1082.0651],[44.4178,36.8964,1012.0847],[44.4277,36.8839,1114.5532],[44.4364,36.8778,1000.6561],[44.4506,36.8735,983.1974],[44.463,36.8673,951.2271],[44.477,36.8538,945.6622],[44.5033,36.8389,876.1096],[44.5159,36.8277,852.3209],[44.5267,36.8153,906.9563],[44.5286,36.811,779.3041],[44.5279,36.8043,766.4809],[44.5226,36.7978,894.0967],[44.512,36.791,1070.3356],[44.5002,36.7795,1383.0603],[44.4811,36.7509,831.1765],[44.4691,36.7294,617.7137],[44.4656,36.7264,677.9659],[44.4539,36.7239,860.7858],[44.433,36.7227,1509.8389],[44.4136,36.7172,1541.3636],[44.404,36.718,1540.6387],[44.3563,36.7343,804.753],[44.3482,36.7407,905.538],[44.3384,36.7554,1022.911],[44.3303,36.762,962.0153],[44.3065,36.7709,675.9194],[44.293,36.7725,560.7446],[44.29,36.7701,523.7492],[44.2847,36.7535,463.2225],[44.2784,36.7447,437.7419],[44.2645,36.7334,580.5145],[44.2474,36.7242,607.7129],[44.2582,36.704,787.1423],[44.2589,36.6956,849.5784],[44.2392,36.6524,525.7147],[44.2452,36.6485,587.9056],[44.2692,36.6424,606.9997],[44.2762,36.6365,664.8737],[44.2847,36.6236,627.9819],[44.2885,36.5974,547.7443],[44.2927,36.5907,569.5094],[44.3293,36.5703,661.2817],[44.3472,36.549,706.3441],[44.3666,36.5358,729.2476],[44.3745,36.5284,750.9052],[44.381,36.5199,732.1218],[44.4035,36.4773,760.5165],[44.4222,36.4638,832.5068],[44.4344,36.4526,850.05],[44.4417,36.4444,932.3853],[44.4513,36.429,1223.9435],[44.4624,36.4167,1285.9285],[44.4751,36.4064,1311.7654],[44.5182,36.3853,1064.2545],[44.5383,36.3688,1097.4634],[44.5824,36.4062,1026.7018],[44.603,36.4172,1126.6062],[44.6124,36.4194,1233.213],[44.632,36.4208,1847.8821],[44.7352,36.4196,1185.1544],[44.7512,36.4231,1047.3848],[44.7597,36.4278,1345.0032],[44.7662,36.4363,1372.5925],[44.7458,36.4543,1631.4746],[44.7326,36.4794,1468.5663],[44.7153,36.5007,1918.4268],[44.7055,36.5156,1912.1202],[44.6974,36.5219,1924.8143],[44.6791,36.5293,2486.2786],[44.66,36.5503,1916.6436],[44.6561,36.5572,2082.3088],[44.6532,36.5713,2005.9231],[44.6488,36.5778,1781.6976],[44.6201,36.5891,1769.5182],[44.6113,36.6008,1509.3447],[44.6021,36.6071,1355.5403],[44.598,36.6278,602.7509],[44.594,36.6356,876.7932],[44.5669,36.6641,818.6904],[44.5608,36.673,718.6207],[44.5587,36.683,834.3787],[44.5587,36.6934,824.5801],[44.5608,36.7032,856.2335],[44.5635,36.7076,1031.5179],[44.5715,36.7137,871.1124],[44.5822,36.7147,852.8439],[44.6046,36.7085,1038.1411],[44.6181,36.7096,1505.167],[44.642,36.7179,2394.9258],[44.6679,36.7373,1890.5676],[44.69,36.7419,2104.3301],[44.7047,36.7466,1821.2263],[44.7301,36.7496,1591.9697],[44.7541,36.7574,1546.4148],[44.7958,36.7774,2190.3237],[44.8307,36.7894,2851.2319],[44.8531,36.8008,2877.3408],[44.8517,36.8049,2893.6963],[44.8522,36.8152,2771.0806],[44.8599,36.8344,2830.0269],[44.878,36.8556,2905.5833],[44.8995,36.8686,3080.1384],[44.9075,36.8717,3097.8889],[44.9241,36.9074,2870.28],[44.9247,36.9163,2951.7861],[44.9157,36.9342,2711.5256],[44.8932,36.9582,2521.4568],[44.9068,36.9959,2042.3252],[44.9169,37.0048,1992.4584],[44.9219,37.0147,2417.1409],[44.9206,37.0205,2212.1169],[44.9146,37.0286,2034.8843],[44.8867,37.0352,2108.3662],[44.8779,37.0434,1990.2046],[44.8691,37.0488,2084.0286],[44.8546,37.0467,2247.2354],[44.8366,37.0393,1977.675],[44.8218,37.0476,2132.4214],[44.8082,37.0661,2427.4031],[44.7992,37.0729,2502.7646],[44.7964,37.0779,2309.2925],[44.7944,37.0904,2696.4761],[44.7773,37.1109,2383.845],[44.7756,37.1158,2450.1616],[44.7772,37.1215,2614.0901],[44.7868,37.135,2889.6604],[44.805,37.1481,2781.4885]]]]}}