{"type":"Feature","properties":{"GID_2":"IRQ.13.2_1","GID_0":"IRQ","country":"Iraq","GID_1":"IRQ.13_1","province":"Diyala","NL_NAME_1":"NA","county":"AlMiqdadiyah","VARNAME_2":"NA","NL_NAME_2":"NA","TYPE_2":"Kaza","ENGTYPE_2":"District","CC_2":"NA","HASC_2":"NA","name":"Al_Miqdadiyah.county"},
"geometry":{"type": "MultiPolygon","coordinates": [[[[44.4685,33.8074,42.2957],[44.4729,33.7807,40.1337],[44.4762,33.7735,39.6201],[44.4853,33.7659,40.2253],[44.4997,33.7614,40.4239],[44.506,33.7569,39.7689],[44.5105,33.7507,39.4486],[44.5125,33.7409,40.0153],[44.5119,33.7253,41.8894],[44.5093,33.7171,40.7849],[44.5027,33.7043,39.9874],[44.4976,33.6982,39.1504],[44.4813,33.6875,37.812],[44.4757,33.6819,37.0482],[44.4723,33.6753,36.2395],[44.4711,33.6683,36.0427],[44.4736,33.6628,36.6366],[44.4838,33.6596,37.8291],[44.5031,33.6588,38.7782],[44.5097,33.6613,39.1837],[44.5251,33.6737,41.6725],[44.5361,33.6757,44.3279],[44.5472,33.6739,41.4128],[44.554,33.6696,42.1167],[44.5664,33.6574,41.6483],[44.5799,33.6372,41.1469],[44.5886,33.6293,41.7057],[44.6175,33.615,34.5942],[44.6351,33.6097,40.6407],[44.6698,33.5931,41.8828],[44.6785,33.5846,42.7356],[44.6843,33.573,40.906],[44.6862,33.5717,40.8616],[44.6946,33.5721,42.3896],[44.7223,33.5817,41.3597],[44.7306,33.5883,41.1263],[44.7416,33.6008,41.1154],[44.7672,33.6048,41.3225],[44.7735,33.6092,41.8202],[44.7754,33.6156,42.124],[44.7752,33.6255,42.319],[44.7668,33.6442,42.83],[44.7648,33.6626,42.1644],[44.7526,33.6798,40.6693],[44.7505,33.6842,40.1225],[44.7504,33.6907,40.4793],[44.7595,33.7033,42.2604],[44.8002,33.7425,45.4379],[44.8432,33.7648,47.0171],[44.8511,33.7716,44.8235],[44.8645,33.7902,43.8548],[44.8848,33.801,44.6755],[44.923,33.8052,47.9019],[44.9444,33.8219,42.0083],[44.9525,33.8257,42.016],[44.9673,33.8269,41.8795],[45.0189,33.8265,41.5754],[45.0352,33.8284,42.2068],[45.0554,33.8394,44.8072],[45.0688,33.858,45.6755],[45.0769,33.8643,47.9394],[45.0893,33.8664,46.1719],[45.1157,33.8669,45.3931],[45.1278,33.871,45.9828],[45.1518,33.8872,47.8975],[45.1582,33.8958,49.6633],[45.1603,33.9065,51.3132],[45.16,33.9302,59.424],[45.1029,33.93,50.8658],[45.0929,33.9283,50.8515],[45.0789,33.9231,50.9863],[45.0698,33.9227,50.6915],[45.0609,33.9241,49.1874],[45.0468,33.9291,49.8694],[45.0249,33.9315,52.4621],[45.0198,33.9341,54.7222],[45.0104,33.9474,54.1467],[44.9989,33.9583,53.563],[44.9559,33.974,55.6091],[44.9347,34.0132,60.7446],[44.9284,34.0184,62.6849],[44.9159,34.0246,58.2086],[44.9059,34.0263,56.6086],[44.8489,34.0254,53.0179],[44.8414,34.0224,52.6713],[44.8265,34.0125,51.3995],[44.8169,34.0106,51.1695],[44.8006,34.0105,51.431399999999996],[44.7995,34.007,50.5728],[44.7918,34.004,50.9965],[44.7543,34.002,51.3463],[44.7494,34.0009,51.4512],[44.7301,33.9908,51.793],[44.7169,33.9745,51.2727],[44.6969,33.9585,51.2914],[44.6848,33.9406,51.0349],[44.6722,33.9276,50.7246],[44.6585,33.9204,50.9276],[44.65,33.9132,50.1603],[44.6484,33.91,49.9932],[44.6503,33.9042,49.4911],[44.6614,33.8936,48.4671],[44.6612,33.8845,47.9753],[44.6552,33.8718,49.0623],[44.6494,33.864,44.1457],[44.615,33.831,48.3428],[44.6043,33.8275,45.2616],[44.5782,33.8262,44.393],[44.5636,33.8212,45.6141],[44.5532,33.8195,43.8271],[44.4915,33.8184,41.2639],[44.4833,33.8164,41.4889],[44.4685,33.8074,42.2957]]]]}}