{"type":"Feature","properties":{"GID_2":"IRQ.16.5_1","GID_0":"IRQ","country":"Iraq","GID_1":"IRQ.16_1","province":"Ninawa","NL_NAME_1":"NA","county":"Hatra","VARNAME_2":"NA","NL_NAME_2":"NA","TYPE_2":"Kaza","ENGTYPE_2":"District","CC_2":"NA","HASC_2":"NA","name":"Hatra.county"},
"geometry":{"type": "MultiPolygon","coordinates": [[[[42.4612,34.9151,243.942],[42.4594,34.9787,234.2148],[42.4608,35.013,222.9087],[42.464,35.0276,221.0071],[42.4686,35.0365,226.8245],[42.4801,35.0454,231.4974],[42.49,35.0486,226.5909],[42.5047,35.0507,230.0833],[42.5363,35.0515,224.4078],[42.6221,35.0471,224.1867],[42.852,35.0459,154.1347],[42.9498,35.0419,127.8567],[42.9773,35.0447,108.4159],[42.992,35.0493,125.4849],[43.0004,35.0544,115.0378],[43.0047,35.0592,113.521],[43.0076,35.0701,106.1176],[43.007,35.076,102.6324],[42.9995,35.091,107.3482],[42.9556,35.1369,122.3779],[42.9054,35.2138,143.875],[42.8664,35.269,155.9306],[42.8556,35.2896,161.0491],[42.8513,35.3049,174.5697],[42.8473,35.3363,161.2833],[42.8463,35.3572,161.4741],[42.8508,35.3927,163.1998],[42.8581,35.417,166.9532],[42.8663,35.433,155.5107],[42.8776,35.4482,158.789],[42.9496,35.5282,178.9279],[42.9856,35.5659,239.1022],[42.9972,35.5754,228.9385],[43.0073,35.5814,216.7742],[43.0198,35.586,214.6248],[43.036,35.5886,205.5958],[43.0541,35.5886,209.1796],[43.0558,35.6189,201.3865],[43.066,35.6394,189.5892],[43.0848,35.6659,184.3018],[43.1133,35.6826,197.6173],[43.118,35.689,194.1052],[43.1191,35.6988,201.962],[43.1139,35.7032,198.4193],[43.0846,35.7114,197.0385],[43.0547,35.7134,199.2839],[43.0486,35.7178,200.389],[43.0471,35.7241,202.5746],[43.0481,35.7311,206.2515],[43.0588,35.7536,199.1449],[43.0603,35.7601,201.9014],[43.0557,35.7779,211.6028],[43.0532,35.8072,239.0433],[43.0506,35.8124,239.3925],[43.04,35.8214,240.5231],[43.037,35.8283,238.169],[43.0379,35.8364,233.3353],[43.0447,35.853,223.5109],[43.0466,35.862,225.8936],[43.0459,35.8794,232.3252],[43.0417,35.8851,235.3847],[43.0357,35.8857,234.0988],[43.0162,35.8804,229.9383],[42.979,35.8804,233.9303],[42.9718,35.8822,235.0614],[42.9539,35.8938,233.9874],[42.942,35.8959,236.9063],[42.928,35.895,239.1299],[42.914,35.8899,245.1653],[42.9036,35.8894,247.2366],[42.8969,35.8934,245.7536],[42.8881,35.9063,240.241],[42.876,35.9193,241.4408],[42.8697,35.9242,241.0262],[42.863,35.9262,239.4462],[42.8564,35.9242,238.4886],[42.8502,35.9192,230.6318],[42.8335,35.8978,221.4097],[42.8215,35.8913,223.7114],[42.8151,35.89,230.3352],[42.8058,35.8946,226.5422],[42.7954,35.9081,230.5172],[42.7868,35.9116,227.1247],[42.7019,35.9127,206.2411],[42.6789,35.9183,212.2058],[42.6556,35.9117,222.0181],[42.65,35.9071,225.9318],[42.6494,35.9011,221.4154],[42.6538,35.8872,216.1627],[42.6559,35.8578,210.3902],[42.665,35.8293,195.0435],[42.6828,35.802,196.8408],[42.6885,35.7965,198.0892],[42.7081,35.7834,186.798],[42.7205,35.7707,198.5989],[42.7252,35.7634,200.1999],[42.727,35.7535,199.1275],[42.7248,35.742,201.1115],[42.7186,35.7378,203.1469],[42.7116,35.7375,206.117],[42.6937,35.7433,213.5531],[42.6755,35.7464,210.3913],[42.6601,35.7545,210.3634],[42.655,35.7609,212.2622],[42.6355,35.7972,214.5895],[42.6182,35.8066,218.1072],[42.5959,35.8108,214.356],[42.5868,35.8179,211.8502],[42.5781,35.8339,213.2373],[42.5757,35.8421,211.6683],[42.5751,35.8899,208.9357],[42.5734,35.9,205.4237],[42.5668,35.9128,212.3559],[42.5607,35.9196,209.7858],[42.5434,35.9284,217.9537],[42.459,35.9283,230.795],[42.4446,35.9303,237.3891],[42.3961,35.9542,245.7777],[42.373,35.973,244.8427],[42.3557,35.9805,244.8671],[42.3345,35.9497,258.4645],[42.3273,35.9416,259.1312],[42.296,35.9239,263.5817],[42.2738,35.8995,257.8184],[42.2604,35.8948,258.1836],[42.2452,35.8868,267.2514],[42.2309,35.87,277.3989],[42.216,35.8602,272.7967],[42.1911,35.8379,279.7503],[42.1762,35.8282,278.5143],[42.1625,35.8099,271.7843],[42.1442,35.7963,266.0995],[42.1379,35.7881,261.4875],[42.1303,35.77,258.5293],[42.1226,35.7632,261.331],[42.1012,35.7512,253.2292],[42.0981,35.7477,255.436],[42.0931,35.7344,258.5659],[42.087,35.7258,266.1407],[42.0791,35.7184,270.0448],[42.0637,35.7088,264.2204],[42.052,35.6974,256.1789],[42.0407,35.6771,251.4479],[42.0262,35.6425,252.2539],[42.0045,35.625,244.1987],[41.994,35.6027,248.196],[41.9757,35.5891,240.837],[41.9688,35.5813,229.2492],[41.9604,35.5655,211.5744],[41.9565,35.5501,214.5899],[41.9596,35.5318,214.4282],[41.9663,35.5129,220.9946],[41.9684,35.4903,219.4294],[41.9654,35.4832,217.6712],[41.953,35.4695,222.3492],[41.945,35.4536,224.3866],[41.9406,35.4314,220.6981],[41.9357,35.4167,221.216],[41.9323,35.3825,217.5915],[41.9353,35.3642,228.5051],[41.9417,35.3449,236.0177],[41.9438,35.3244,250.0302],[41.95,35.3049,260.7958],[41.9498,35.2845,255.5878],[41.9458,35.2752,256.9174],[41.929,35.2539,254.9195],[41.9215,35.2353,266.175],[41.9003,35.2086,286.3137],[41.8866,35.1984,300.9898],[41.875,35.1869,313.5956],[41.8639,35.1665,305.7416],[41.8598,35.1469,292.8015],[41.8601,35.1398,290.1561],[41.8641,35.1281,289.011],[41.8734,35.115,297.9794],[41.8774,35.1056,298.7141],[41.8781,35.0902,304.5389],[41.8764,35.0803,308.1444],[41.8726,35.0705,306.9938],[41.8678,35.0485,302.9006],[41.8565,35.0305,296.2874],[41.8521,35.0163,291.0045],[41.8441,35.0002,297.1291],[41.814,34.9638,308.5424],[41.8242,34.9582,314.064],[41.8618,34.9439,330.476],[41.9337,34.9209,343.86],[41.9734,34.9112,332.6031],[41.9912,34.909,332.9064],[42.0168,34.9095,325.835],[42.1235,34.9213,280.2953],[42.155,34.9221,271.4408],[42.1682,34.9202,270.364],[42.1921,34.9109,269.6341],[42.2113,34.9,267.916],[42.2214,34.8915,269.1872],[42.2541,34.8868,264.9578],[42.2621,34.8867,265.5922],[42.304,34.8932,265.5035],[42.4038,34.9132,252.0058],[42.4296,34.9152,241.8518],[42.4612,34.9151,243.942]]]]}}