{"type":"Feature","properties":{"GID_2":"IRQ.16.10_1","GID_0":"IRQ","country":"Iraq","GID_1":"IRQ.16_1","province":"Ninawa","NL_NAME_1":"NA","county":"Tilkef","VARNAME_2":"NA","NL_NAME_2":"NA","TYPE_2":"Kaza","ENGTYPE_2":"District","CC_2":"NA","HASC_2":"NA","name":"Tilkef.county"},
"geometry":{"type": "MultiPolygon","coordinates": [[[[43.1207,36.7576,823.3284],[43.1138,36.751,925.1143],[43.1015,36.7432,667.5507],[43.0774,36.7359,512.0468],[43.0201,36.7274,410.8252],[42.9638,36.7248,383.6812],[42.9472,36.7213,377.9697],[42.9392,36.7177,366.7198],[42.9316,36.7124,333.8276],[42.9167,36.698,325.9044],[42.9281,36.6897,307.0],[42.9468,36.6853,307.0],[42.9516,36.6808,320.2893],[42.9529,36.6596,307.0],[42.9509,36.6506,307.0],[42.9464,36.6442,307.0],[42.9403,36.6396,307.0],[42.931399999999996,36.6374,307.0],[42.9259,36.6385,307.0],[42.9158,36.6439,307.0],[42.9058,36.646,307.0],[42.8898,36.6464,307.0],[42.8782,36.644,307.0],[42.8738,36.6377,307.0],[42.8717,36.6154,352.4897],[42.8661,36.6048,385.5266],[42.8599,36.6003,376.2628],[42.8456,36.5963,360.2343],[42.8293,36.5887,314.5046],[42.8011,36.57,312.3903],[42.7822,36.5518,269.4407],[42.7725,36.5385,281.3919],[42.7875,36.529,275.6367],[42.8048,36.5205,271.668],[42.8339,36.5112,266.0972],[42.9168,36.5105,278.8289],[42.9316,36.5087,275.2073],[42.9797,36.4849,272.417],[42.9858,36.48,267.7791],[42.9901,36.4736,290.5639],[42.9941,36.4513,285.3807],[43.0014,36.4423,278.1479],[43.0334,36.4311,257.5836],[43.1111,36.4296,258.4924],[43.1399,36.4184,278.6838],[43.1447,36.4306,269.4517],[43.1483,36.4347,263.0673],[43.1641,36.4447,271.7814],[43.1857,36.4533,268.3673],[43.2118,36.4546,264.7694],[43.2185,36.4566,264.8808],[43.2235,36.4624,275.527],[43.2261,36.4703,287.811],[43.2251,36.4874,295.9874],[43.2265,36.4971,299.695],[43.2377,36.5158,316.7392],[43.2392,36.5209,324.6527],[43.24,36.5622,320.6169],[43.238,36.576,344.3423],[43.2326,36.5909,371.7455],[43.2324,36.6096,393.3971],[43.236,36.618,348.901],[43.2527,36.6258,375.1511],[43.2562,36.6342,398.9583],[43.2556,36.645,408.0337],[43.251,36.6512,407.7846],[43.2211,36.6551,415.4646],[43.2159,36.6591,395.7974],[43.2152,36.6622,388.834],[43.2171,36.6926,436.5361],[43.2308,36.7322,521.0789],[43.2325,36.7494,617.0695],[43.2244,36.7607,691.2125],[43.2008,36.7738,907.2164],[43.1847,36.7894,719.2146],[43.1714,36.7833,776.5262],[43.1522,36.7707,827.1596],[43.1427,36.7669,734.032],[43.1311,36.7586,847.4321],[43.1207,36.7576,823.3284]]]]}}