{"type":"Feature","properties":{"GID_1":"IRQ.7_1","GID_0":"IRQ","country":"Iraq","province":"As-Sulaymaniyah","VARNAME_1":"NA","NL_NAME_1":"NA","TYPE_1":"Muhafazah","ENGTYPE_1":"Province","CC_1":"NA","HASC_1":"IQ.SU","ISO_1":"NA","name":"As-Sulaymaniyah.province"},
"geometry":{"type": "MultiPolygon","coordinates": [[[[45.885,35.0107,720.9904],[45.883,35.031,549.1089],[45.8846,35.0353,613.8725],[45.8929,35.0393,1028.6912],[45.907,35.0424,1184.4431],[45.9278,35.0433,1416.2466],[45.9293,35.0447,1556.7485],[45.9255,35.0688,690.845],[45.9299,35.0773,549.0721],[45.9344,35.0807,470.8168],[45.9398,35.0819,479.1901],[45.957,35.0801,576.0062],[45.9611,35.0764,694.0789],[45.9934,35.0625,539.9094],[46.0,35.0632,486.0603],[46.0118,35.0686,741.2842],[46.0168,35.0617,758.4168],[46.0223,35.0597,654.8984],[46.026,35.0509,668.6868],[46.029,35.0486,706.54],[46.0331,35.0469,701.6238],[46.0396,35.0491,573.0026],[46.0456,35.0474,665.1639],[46.0517,35.0484,521.0864],[46.0521,35.0431,719.9847],[46.0553,35.0408,667.0111],[46.0565,35.0358,629.9596],[46.0641,35.036,650.0012],[46.0675,35.0462,557.4368],[46.07,35.0489,568.6699],[46.0747,35.0496,703.5644],[46.0769,35.0541,647.1782],[46.0688,35.0546,752.9828],[46.0665,35.0584,713.0546],[46.0724,35.0794,564.8926],[46.0851,35.0851,729.8209],[46.0942,35.0858,615.4568],[46.0992,35.076,646.5729],[46.1137,35.0724,685.2552],[46.1231,35.074,672.3989],[46.1303,35.0787,977.648],[46.1434,35.0826,766.8372],[46.1603,35.0838,665.6113],[46.1734,35.0964,760.5837],[46.189,35.1083,694.3078],[46.1868,35.1111,806.1335],[46.1593,35.1217,1200.0021],[46.1545,35.1256,1390.7864],[46.1542,35.129,1535.5167],[46.1591,35.1406,1563.2183],[46.1566,35.1593,1480.4297],[46.1597,35.1656,1341.5088],[46.1641,35.1693,1356.8802],[46.182,35.1759,1296.0518],[46.1951,35.1842,1891.0928],[46.2029,35.1911,1905.6266],[46.204,35.1942,1698.8838],[46.2029,35.1976,1634.906],[46.1948,35.204,1624.5818],[46.1959,35.2096,1903.4329],[46.1887,35.2158,1680.2673],[46.1773,35.2209,2022.5679],[46.173,35.2223,2128.5427],[46.1614,35.22,2057.3835],[46.156,35.2206,1863.3826],[46.1437,35.227,1602.6902],[46.129,35.2254,1289.9561],[46.1269,35.2265,1350.5146],[46.1296,35.2349,1262.8859],[46.1275,35.2359,1181.8423],[46.1118,35.2297,1217.4957],[46.111,35.2352,1314.6737],[46.1161,35.2451,1469.7024],[46.1419,35.2639,1812.1296],[46.1467,35.2734,2013.4097],[46.156,35.2796,2244.6255],[46.1556,35.2867,2474.4395],[46.1435,35.3106,2108.2671],[46.1304,35.3225,2223.9177],[46.1294,35.3266,2293.8191],[46.1312,35.3322,2485.8999],[46.1269,35.3395,2362.0317],[46.1142,35.3439,2057.74],[46.0995,35.3446,1936.0122],[46.0883,35.3575,2062.1775],[46.0737,35.3636,2280.4819],[46.0704,35.3663,2279.5557],[46.0611,35.3794,2322.3018],[46.0509,35.3834,2241.1729],[46.029,35.4246,2160.082],[46.0099,35.4464,2107.6687],[46.0,35.4804,1820.3817],[45.9893,35.4996,1715.3849],[45.9924,35.5086,1300.3748],[45.9978,35.514,1275.311],[46.0112,35.5173,1395.1364],[46.0127,35.5222,1528.8647],[46.0,35.5472,1344.0078],[45.9832,35.5661,1701.9037],[45.978,35.5746,1663.9696],[45.9798,35.5767,1645.4127],[45.987,35.5771,1502.4966],[46.0,35.5741,1518.3168],[46.0055,35.5694,1486.8801],[46.0133,35.5698,1465.0045],[46.0181,35.5733,1499.7551],[46.0166,35.5772,1461.1613],[46.0077,35.5854,1383.1426],[46.0122,35.5983,1325.6367],[46.0135,35.6115,1315.7379],[46.012,35.6254,1276.0378],[46.0,35.6346,1262.7883],[46.0,35.6378,1275.0094],[46.0038,35.6419,1329.6194],[46.009,35.6535,1311.139],[46.0081,35.6667,1398.8068],[46.013,35.6778,1652.8595],[46.0507,35.6978,1627.7115],[46.0584,35.6973,1673.3518],[46.0845,35.6848,1424.0298],[46.0928,35.6837,1483.8588],[46.1037,35.685,1464.3279],[46.1342,35.6939,1916.028],[46.1423,35.6921,2024.2565],[46.1488,35.6885,1795.6902],[46.1593,35.688,2148.7681],[46.1684,35.6926,2217.4292],[46.1726,35.6968,2183.6577],[46.1799,35.7101,1966.1967],[46.1886,35.7106,1979.5924],[46.2016,35.7194,2025.6173],[46.2064,35.7201,2174.4922],[46.2356,35.7114,2436.8635],[46.2534,35.721,2191.7549],[46.2765,35.728,2102.7109],[46.2818,35.7322,2086.9487],[46.2822,35.7433,2131.8691],[46.3002,35.747,2001.926],[46.3037,35.7562,2354.1716],[46.3058,35.7575,2385.6255],[46.3218,35.7588,2356.7192],[46.3269,35.7619,2416.5183],[46.3324,35.7668,2264.6912],[46.3342,35.7719,2238.1199],[46.3484,35.7884,2333.0754],[46.3489,35.8091,1873.8887],[46.3429,35.8188,1818.2825],[46.331,35.8228,1939.5452],[46.3122,35.8252,2070.0837],[46.2945,35.8313,2099.552],[46.2908,35.8308,2130.5217],[46.273,35.8149,2100.5691],[46.2679,35.8121,2069.4939],[46.2522,35.81,2141.7217],[46.2459,35.8115,2194.5391],[46.2301,35.8109,2001.4373],[46.2277,35.81,1995.656],[46.2157,35.7976,2142.4709],[46.2108,35.7957,2116.905],[46.2032,35.7997,2163.8979],[46.1748,35.798,2349.9275],[46.1605,35.8004,2264.2578],[46.1564,35.8018,2308.5879],[46.145,35.8131,2457.2554],[46.1354,35.8282,2203.0256],[46.1352,35.8314,2266.1118],[46.1436,35.8417,2462.7354],[46.1422,35.8442,2601.3135],[46.1167,35.842,2185.6538],[46.1017,35.8559,2364.8975],[46.0933,35.8607,2477.9292],[46.0869,35.8601,2573.4287],[46.0638,35.8523,2185.6882],[46.0496,35.8503,1968.6406],[46.0328,35.8362,1984.0367],[46.0195,35.8324,2095.7163],[46.0037,35.8331,1909.106],[46.0,35.8375,1828.5062],[45.9754,35.8426,1758.2402],[45.9641,35.8433,1904.9408],[45.9568,35.8397,1670.3455],[45.9518,35.833,1611.8496],[45.9407,35.8245,1650.0707],[45.908,35.8377,1622.7848],[45.8968,35.8394,1746.4409],[45.8864,35.8373,1722.3562],[45.8803,35.8321,1738.5142],[45.8706,35.8143,1843.7761],[45.8493,35.8166,1744.803],[45.825,35.8117,1864.1095],[45.815,35.8142,1770.0018],[45.7989,35.8226,1768.0569],[45.7808,35.8117,1731.1967],[45.7732,35.803,2000.1539],[45.7628,35.8009,2133.4846],[45.7574,35.804,2094.0923],[45.7284,35.8446,1903.6085],[45.7141,35.8732,2059.5229],[45.7027,35.884,2113.7266],[45.6968,35.8936,2087.5088],[45.6729,35.9053,1960.7473],[45.6693,35.9147,1988.443],[45.6611,35.9245,1768.4833],[45.6463,35.9355,1663.2207],[45.6425,35.9441,1492.3853],[45.6446,35.9492,1229.7479],[45.6312,35.9591,1093.9839],[45.6052,35.9624,1011.3267],[45.6016,35.9668,1074.3936],[45.6012,35.9792,1114.9762],[45.5975,35.9817,1063.4148],[45.5781,35.9828,1010.9605],[45.5737,35.9844,877.0974],[45.5616,35.9987,988.3586],[45.5568,36.0013,951.3645],[45.5483,36.002,806.2773],[45.5296,35.997,833.5212],[45.5187,35.999,904.4339],[45.5019,36.006,897.8871],[45.4826,36.0031,803.5689],[45.4741,35.9957,817.0683],[45.4668,35.9934,1018.5042],[45.4425,35.9968,780.0764],[45.4334,35.9855,798.5521],[45.4279,35.9835,761.2007],[45.4171,35.9837,666.5013],[45.4145,35.9758,755.2485],[45.41,35.9728,731.6766],[45.4024,35.9732,754.5274],[45.3892,35.9771,873.8914],[45.3803,35.9758,781.33],[45.3711,35.9807,632.3556],[45.3611,35.9784,754.5747],[45.3557,35.9822,945.5136],[45.3493,35.997,898.8068],[45.3419,36.0068,696.8667],[45.3594,36.032,945.9064],[45.3638,36.0559,1639.8905],[45.3702,36.0646,1917.4976],[45.3871,36.0784,2213.3354],[45.3868,36.0853,2061.6418],[45.3739,36.1087,2097.2261],[45.3595,36.1198,1954.2551],[45.3547,36.1343,1951.8794],[45.3416,36.1448,2004.0554],[45.3407,36.1626,2166.3157],[45.3358,36.1754,2056.3455],[45.344,36.1973,2163.3645],[45.3376,36.2135,2078.3564],[45.3332,36.2339,1741.5703],[45.3237,36.2424,1894.3158],[45.2931,36.2474,1829.2014],[45.2791,36.2534,2293.7407],[45.2785,36.2562,2081.1448],[45.2861,36.2629,1818.7192],[45.2965,36.2691,1345.7625],[45.3146,36.276,1422.8705],[45.3113,36.2807,1409.6351],[45.2982,36.2906,1494.5948],[45.2889,36.3025,1550.2427],[45.2834,36.3055,1545.6183],[45.2815,36.31,1635.8105],[45.2825,36.3265,1659.5273],[45.2885,36.3416,1895.4976],[45.2849,36.3576,1818.9515],[45.2872,36.3692,1747.4236],[45.2851,36.3793,1803.0358],[45.2794,36.3923,2002.5724],[45.2702,36.4025,1885.2917],[45.2527,36.427,2061.5339],[45.2457,36.4317,2360.4375],[45.2381,36.433,2650.0496],[45.2191,36.4254,2582.3081],[45.2183,36.4295,2797.5527],[45.2087,36.4233,2651.4636],[45.1994,36.4214,2436.4829],[45.189,36.4152,2247.6436],[45.1775,36.4137,2420.3059],[45.1621,36.4053,2433.7168],[45.1442,36.405,2796.7759],[45.1296,36.408,2484.7131],[45.108,36.4192,2814.1025],[45.0994,36.426,2767.8777],[45.0927,36.4348,2812.2859],[45.0918,36.4496,2487.0117],[45.0727,36.4684,2554.4592],[45.0697,36.4888,2312.0195],[45.0591,36.5032,3051.9001],[45.0369,36.5145,3026.708],[45.0225,36.5239,3064.7957],[45.0189,36.5278,3373.4988],[44.999,36.5222,2936.2668],[44.98,36.5127,2628.9543],[44.9648,36.4953,2249.7314],[44.9369,36.4506,2034.8599],[44.924,36.4394,1493.8273],[44.9133,36.435,1213.3799],[44.9042,36.4335,1196.6381],[44.8893,36.4337,1186.6401],[44.8163,36.4423,1593.1077],[44.7963,36.4387,1968.9969],[44.7861,36.4323,1628.3127],[44.7781,36.4361,1329.0894],[44.7662,36.4363,1372.5925],[44.7597,36.4278,1345.0032],[44.7512,36.4231,1047.3848],[44.7352,36.4196,1185.1544],[44.632,36.4208,1847.8821],[44.6124,36.4194,1233.213],[44.603,36.4172,1126.6062],[44.5824,36.4062,1026.7018],[44.5383,36.3688,1097.4634],[44.5136,36.3517,1656.5386],[44.5089,36.3449,1297.6154],[44.5066,36.337,1366.0537],[44.5065,36.3213,1218.7983],[44.5113,36.2969,839.9769],[44.526,36.2611,795.2007],[44.5578,36.2491,1007.5013],[44.6028,36.2412,708.2999],[44.6158,36.2375,697.2746],[44.6254,36.2319,670.2465],[44.6305,36.2264,642.5575],[44.6353,36.216,621.2343],[44.6351,36.2032,616.7438],[44.6326,36.1962,625.7019],[44.6285,36.1897,606.7725],[44.6054,36.1663,744.4017],[44.5961,36.1511,749.6544],[44.5943,36.1411,1091.4504],[44.5951,36.1311,1058.9171],[44.5992,36.1212,973.5801],[44.6068,36.1121,866.5116],[44.6529,36.0698,547.3915],[44.6627,36.063,569.4133],[44.6745,36.0574,565.8611],[44.6934,36.0534,605.7651],[44.698,36.0483,613.2151],[44.7249,36.0314,628.4265],[44.7425,36.0183,609.1484],[44.7774,35.9868,608.4215],[44.826,35.9474,594.3467],[44.8849,35.9081,532.9613],[44.892,35.9001,442.3068],[44.8952,35.8932,390.7433],[44.896,35.8832,458.44],[44.8939,35.8763,606.4874],[44.8894,35.8707,641.4633],[44.8807,35.8656,495.3902],[44.8413,35.8626,412.8105],[44.7532,35.8615,379.5035],[44.7129,35.8586,457.331],[44.6414,35.8575,556.2496],[44.585,35.854,363.5085],[44.5863,35.8436,437.9357],[44.5924,35.8273,626.1099],[44.6255,35.768,740.7061],[44.64,35.7453,677.0111],[44.6569,35.7265,767.8723],[44.7051,35.695,756.3544],[44.7097,35.6894,760.9047],[44.7134,35.6808,776.0702],[44.7146,35.6682,767.2714],[44.7133,35.6608,756.5173],[44.6892,35.622,662.9895],[44.681,35.6021,744.0455],[44.6766,35.5771,628.6371],[44.6758,35.5448,718.7734],[44.6777,35.5329,770.7546],[44.6841,35.5161,828.3521],[44.6981,35.4965,856.9445],[44.7258,35.4664,882.3147],[44.7307,35.4576,896.8958],[44.7329,35.4438,897.8695],[44.7313,35.436,872.1275],[44.7242,35.4222,867.8209],[44.7175,35.4144,803.7438],[44.6882,35.3882,636.777],[44.6784,35.3724,579.0812],[44.6747,35.3558,587.0551],[44.681399999999996,35.3165,516.3401],[44.6781,35.3013,488.1536],[44.6223,35.1957,323.0878],[44.6155,35.186,339.3899],[44.5988,35.1707,321.4995],[44.5721,35.1522,300.7228],[44.5174,35.12,239.6633],[44.5074,35.112,240.1454],[44.5219,35.0924,237.6226],[44.5454,35.07,236.9125],[44.5735,35.0472,268.7039],[44.5963,35.0345,275.7343],[44.6227,35.0295,279.5541],[44.6813,35.0302,319.253],[44.7302,35.0262,369.7029],[44.8045,35.0151,442.1599],[44.8482,35.0104,504.6839],[44.8622,35.0072,549.7006],[44.8732,35.0025,549.1671],[44.882,34.9967,552.9108],[44.8938,34.9844,507.5108],[44.9016,34.9715,444.3417],[44.9073,34.9568,396.7372],[44.9104,34.9398,392.4204],[44.9112,34.9222,416.5761],[44.9108,34.8762,442.6095],[44.9184,34.8522,448.1292],[44.9284,34.8434,437.713],[44.9399,34.8362,436.5186],[44.9665,34.8259,442.7026],[44.9876,34.8232,382.342],[45.0301,34.828,408.0803],[45.0462,34.8246,413.3167],[45.0538,34.8194,403.6049],[45.0764,34.7904,391.3474],[45.0855,34.7812,386.7253],[45.0939,34.7755,383.6307],[45.1038,34.7713,380.9684],[45.1368,34.76,403.0871],[45.1503,34.7516,386.1376],[45.1643,34.7389,377.9819],[45.1706,34.7305,376.9763],[45.1785,34.7114,329.153],[45.1801,34.7017,317.8589],[45.1783,34.6286,309.0166],[45.1805,34.5999,244.4065],[45.1833,34.5858,219.8976],[45.1925,34.5669,209.3116],[45.2056,34.5531,201.7841],[45.2134,34.5486,206.1807],[45.231,34.5614,194.2217],[45.2647,34.5918,213.9413],[45.2902,34.6124,213.3069],[45.3132,34.6274,224.5356],[45.3648,34.6535,282.3165],[45.3742,34.6602,294.4665],[45.3885,34.6763,294.0081],[45.4115,34.7125,305.0444],[45.4455,34.7837,314.6253],[45.4872,34.8511,492.9695],[45.4988,34.8673,470.9193],[45.5117,34.8819,380.132],[45.5482,34.911,427.3645],[45.5619,34.9274,393.5726],[45.5677,34.942,385.8494],[45.5689,34.9546,406.4566],[45.5621,35.007,584.0338],[45.6006,35.0439,652.4557],[45.6261,35.071,479.594],[45.6391,35.0817,638.5554],[45.6529,35.0867,795.1566],[45.668,35.0876,532.7598],[45.679,35.0843,437.1684],[45.6901,35.0786,389.3542],[45.6908,35.0728,370.4977],[45.7038,35.0369,586.7509],[45.7089,35.0145,579.5723],[45.7131,34.9732,684.3832],[45.7157,34.9071,565.9923],[45.722,34.8808,498.6896],[45.7375,34.8312,482.1864],[45.7402,34.83,551.6556],[45.7617,34.8274,591.2146],[45.7682,34.8285,650.643],[45.7757,34.8317,713.9669],[45.7877,34.8415,997.0114],[45.7923,34.8474,1300.0725],[45.7971,34.8581,1660.6343],[45.7963,34.8715,1788.9102],[45.7898,34.8968,1739.5664],[45.7907,34.903,1740.5957],[45.7986,34.9099,1297.6089],[45.8091,34.9091,1049.0339],[45.8486,34.8941,891.3002],[45.8654,34.8958,943.9813],[45.8701,34.8976,914.3132],[45.8741,34.9015,959.1774],[45.8815,34.9248,892.0253],[45.8975,34.9448,887.0043],[45.9026,34.9546,889.2536],[45.9025,34.9592,826.5657],[45.8928,34.977,854.071],[45.8939,34.986,861.0863],[45.8884,34.9963,855.4415],[45.885,35.0107,720.9904]]]]}}