{"type":"Feature","properties":{"ISO3166-1-Alpha-3":"IRQ","country":"Iraq","fill":"#F0F","id":"3242","name":"As-Sulaymaniyah"},
"geometry":{"type": "Polygon","coordinates": [[[45.11082,36.40253,2201.3423],[45.08374,36.41282,2423.354],[45.07227,36.42341,2333.3423],[45.06855,36.43251,2179.7737],[45.06689,36.44238,2227.9075],[45.06209,36.45535,2203.8628],[45.05408,36.46496,2440.9436],[45.0455,36.47163,2266.002],[45.03909,36.47984,2605.1465],[45.03816,36.494,2703.4509],[45.02534,36.50521,2579.5591],[45.00952,36.5162,3116.0146],[45.00948,36.51609,3116.0146],[45.00545,36.50661,2572.2661],[44.99997,36.49676,2347.8718],[44.98643,36.48023,2562.5796],[44.97527,36.47377,2325.5645],[44.9609,36.4694,2298.5339],[44.92638,36.47139,2553.6179],[44.8837,36.48,2102.3406],[44.86324,36.47961,1650.1495],[44.84112,36.47566,1061.0891],[44.78924,36.45462,1953.8728],[44.74552,36.44527,1641.1632],[44.69984,36.4394,2174.5713],[44.67121,36.44617,1980.6388],[44.65467,36.44811,2209.2771],[44.63379,36.44261,2322.9561],[44.6032,36.42382,1204.3209],[44.58398,36.40571,1026.7018],[44.57281,36.39253,892.241],[44.53985,36.36897,1046.9922],[44.53953,36.34778,1370.4138],[44.54512,36.33608,1434.7642],[44.60268,36.26513,1025.049],[44.6124,36.27409,1241.264],[44.61891,36.27797,1141.8352],[44.62945,36.27761,992.0222],[44.63937,36.27089,1101.2142],[44.6895,36.22179,862.9347],[44.69518,36.21425,813.6888],[44.69797,36.20596,804.473],[44.68867,36.19743,560.993],[44.66542,36.18867,625.5571],[44.65767,36.18389,566.4294],[44.6525,36.17578,566.6982],[44.64692,36.16898,599.6224],[44.63917,36.16268,595.3908],[44.61767,36.14862,707.4934],[44.62201,36.13596,819.8149],[44.62738,36.12679,987.1527],[44.72764,36.06894,990.1086],[44.75048,36.06093,1075.6409],[44.76236,36.0546,1022.2075],[44.77198,36.04821,1045.2783],[44.84525,35.97643,1201.9214],[44.87678,35.95241,976.1209],[44.90148,35.9383,951.2479],[44.96928,35.91091,477.648],[44.97589,35.90429,406.1313],[44.97734,35.90145,411.7632],[44.97765,35.89871,403.9222],[44.97713,35.89644,407.9756],[44.97558,35.89414,406.5074],[44.97341,35.88822,404.4713],[44.97145,35.88543,415.44],[44.96504,35.88122,405.533],[44.95791,35.87913,540.914],[44.94726,35.87789,495.2158],[44.92442,35.8784,516.7399],[44.91491,35.8806,403.6588],[44.90964,35.88339,394.6694],[44.90778,35.88559,401.4219],[44.90551,35.88678,397.213],[44.90334,35.88817,406.8086],[44.89869,35.89215,393.0814],[44.89528,35.8938,395.649],[44.89042,35.89445,396.6147],[44.87967,35.89324,396.9407],[44.87626,35.8936,391.4263],[44.87006,35.89582,392.7022],[44.86654,35.89603,394.2225],[44.85859,35.89476,392.3747],[44.85569,35.89339,389.2989],[44.85507,35.89073,394.3456],[44.86592,35.87443,388.3769],[44.86696,35.87195,387.2234],[44.86138,35.86567,382.0888],[44.84608,35.86133,383.1183],[44.83647,35.8535,378.6766],[44.83347,35.85275,378.5409],[44.83099,35.85414,380.9214],[44.82892,35.85954,375.6801],[44.82789,35.87443,373.5815],[44.82603,35.87719,373.2957],[44.82293,35.87921,376.1736],[44.81921,35.88027,372.6394],[44.81611,35.88016,374.7027],[44.81187,35.87696,373.7252],[44.80908,35.87375,372.7849],[44.80743,35.8706,371.1092],[44.8065,35.86396,369.4214],[44.80567,35.86068,372.7142],[44.80257,35.85846,371.4048],[44.79792,35.85887,371.9427],[44.78986,35.86409,368.9457],[44.78613,35.86864,364.7949],[44.78179,35.87257,366.851],[44.77735,35.87401,363.2061],[44.77105,35.87443,367.0061],[44.76257,35.87189,365.0082],[44.75709,35.86895,364.8988],[44.75141,35.86719,363.5803],[44.74614,35.86755,363.1025],[44.74035,35.87161,363.4524],[44.73529,35.8783,359.2161],[44.73012,35.87954,357.4479],[44.72237,35.87985,357.35],[44.69849,35.87386,359.3654],[44.6927,35.87313,354.5435],[44.68774,35.87381,355.9919],[44.68402,35.87799,353.7606],[44.68371,35.88091,352.9924],[44.68392,35.88337,350.801],[44.68361,35.88574,351.8531],[44.68185,35.88791,353.6139],[44.678959999999996,35.88946,349.8231],[44.67462,35.88957,354.0464],[44.66366,35.8844,351.1368],[44.65994,35.88388,351.0424],[44.65591,35.88716,346.9156],[44.65312,35.89042,345.3044],[44.64847,35.8922,346.4262],[44.64557,35.89259,346.2124],[44.62728,35.88569,345.9999],[44.68247,35.78699,1029.2805],[44.7079,35.76441,782.0049],[44.73074,35.73901,648.0807],[44.77714,35.70542,659.5891],[44.78541,35.6856,631.5614],[44.78634,35.66886,664.0623],[44.76939,35.64408,768.9306],[44.76536,35.63354,766.765],[44.76319,35.60798,716.2751],[44.75916,35.5963,684.1298],[44.75606,35.56036,704.421],[44.75244,35.5316,834.6905],[44.75492,35.52179,884.6949],[44.76174,35.51176,898.5038],[44.78303,35.49217,906.7896],[44.80226,35.47063,988.473],[44.80339,35.45921,956.6493],[44.79823,35.44523,945.5269],[44.788,35.42841,905.8716],[44.75151,35.38797,729.6913],[44.74397,35.36841,695.4631],[44.74686,35.3536,665.2926],[44.75306,35.33673,586.3384],[44.75699,35.32182,633.7213],[44.75275,35.30635,569.2311],[44.7419,35.28516,518.5814],[44.73911,35.27172,483.5584],[44.73632,35.26557,480.1692],[44.7328,35.26113,457.1869],[44.72536,35.25927,443.6851],[44.71616,35.25508,433.9678],[44.70407,35.24816,427.2185],[44.69384,35.23555,414.9721],[44.68991,35.22645,386.4012],[44.68929,35.2179,364.2744],[44.69084,35.21049,358.1951],[44.69766,35.19669,345.3641],[44.69487,35.18834,351.7953],[44.68433,35.17989,335.3051],[44.6064,35.15979,289.7251],[44.56207,35.12907,322.6215],[44.66294,35.04202,319.0056],[44.67937,35.03567,325.2127],[44.7019,35.0306,349.1463],[44.71906,35.03567,365.0179],[44.82851,35.03184,523.9807],[44.86592,35.02626,711.2308],[44.95191,34.97673,411.4656],[44.96401,34.96477,416.2898],[44.96649,34.96042,442.0654],[44.96742,34.9566,459.2462],[44.9668,34.95205,498.9135],[44.96349,34.93862,568.7695],[44.96597,34.86748,523.3476],[45.0192,34.83873,432.7585],[45.03997,34.8216,399.157],[45.04958,34.81098,394.9575],[45.05599,34.80695,387.3074],[45.06281,34.80565,390.9815],[45.0686,34.8071,400.4567],[45.09196,34.81847,445.2026],[45.10084,34.82051,456.0901],[45.11232,34.82147,451.7469],[45.13361,34.81937,491.5575],[45.14611,34.81604,521.5509],[45.15603,34.81178,481.9932],[45.16957,34.80227,475.3266],[45.17733,34.79434,460.8719],[45.1857,34.78364,458.7657],[45.18911,34.77457,440.2757],[45.1919,34.7392,389.8094],[45.19614,34.71667,340.1391],[45.19624,34.71041,330.7251],[45.19562,34.70556,327.6996],[45.19583,34.70091,319.761],[45.19676,34.69403,310.4195],[45.20234,34.67127,282.7037],[45.2136,34.64577,281.4311],[45.2136,34.64148,277.2718],[45.21205,34.63763,277.8856],[45.20761,34.63236,283.4316],[45.19376,34.61962,303.4037],[45.19097,34.61517,280.3324],[45.18962,34.61047,270.5288],[45.18993,34.60463,252.4727],[45.19117,34.59861,240.1823],[45.19717,34.58368,218.5297],[45.198,34.57866,214.1129],[45.19779,34.57316,209.7404],[45.19624,34.56706,205.167],[45.19345,34.56045,201.0074],[45.18621,34.54949,193.7149],[45.18632,34.54562,192.2419],[45.18869,34.5412,190.8009],[45.19159,34.53921,193.8812],[45.19934,34.53709,197.4017],[45.20296,34.53668,194.2239],[45.20606,34.53665,186.6391],[45.21009,34.53606,190.9947],[45.21267,34.53301,188.2018],[45.21453,34.52831,195.6317],[45.21732,34.5128,177.7892],[45.25009,34.52887,179.5614],[45.35902,34.63701,217.6028],[45.37235,34.64654,222.4735],[45.37979,34.64605,222.3779],[45.38351,34.64634,223.3436],[45.39354,34.6482,224.6769],[45.39974,34.6483,226.2563],[45.40853,34.65,229.8344],[45.41876,34.65339,231.6671],[45.43736,34.66204,237.3729],[45.44449,34.66693,239.118],[45.44935,34.67202,241.3599],[45.45028,34.67468,240.4237],[45.45059,34.6776,242.8574],[45.4539,34.6869,244.6253],[45.46537,34.70315,254.6321],[45.46785,34.70801,249.512],[45.47043,34.71553,253.0989],[45.47095,34.71837,253.4539],[45.47033,34.72106,252.0169],[45.4694,34.72375,254.5024],[45.46909,34.72711,253.5157],[45.46919,34.73077,256.543],[45.47033,34.73488,257.371],[45.47043,34.73791,258.2865],[45.4726,34.74338,259.2246],[45.47622,34.75067,262.3682],[45.48718,34.76679,280.1463],[45.5002,34.79514,275.2206],[45.50485,34.80023,273.7041],[45.50971,34.80353,277.0201],[45.5156,34.80581,276.8189],[45.51777,34.80896,277.5956],[45.51922,34.81309,282.5003],[45.52759,34.83149,285.3976],[45.531,34.84317,287.3072],[45.53854,34.85844,292.6995],[45.54836,34.86725,297.2426],[45.5527,34.87345,295.6111],[45.55467,34.87841,294.5073],[45.55549,34.88374,297.6111],[45.55808,34.88575,298.3056],[45.56118,34.88606,298.1047],[45.56449,34.88549,299.2967],[45.56748,34.8857,299.3916],[45.59322,34.90498,306.8808],[45.60138,34.91407,307.5],[45.62443,34.9444,324.3219],[45.6297,34.9536,320.8148],[45.63228,34.95996,320.8661],[45.63228,34.96259,322.4336],[45.63249,34.96544,323.4883],[45.63218,34.96761,325.2661],[45.63063,34.96939,325.827],[45.62763,34.97063,324.8268],[45.62391,34.97125,337.9922],[45.6144,34.97187,326.5948],[45.61151,34.97257,329.445],[45.60934,34.97851,331.5961],[45.61916,34.98564,331.5221],[45.62257,34.99996,338.2661],[45.6266,35.00412,338.8116],[45.63508,35.00848,353.2536],[45.63942,35.0159,343.1245],[45.64055,35.01913,344.9373],[45.639,35.02076,343.2245],[45.63683,35.02029,347.5848],[45.63353,35.01918,345.7242],[45.63073,35.0197,345.4903],[45.62815,35.02197,353.9934],[45.62753,35.0299,379.7638],[45.63011,35.03525,377.9469],[45.63621,35.04435,354.6184],[45.64004,35.04753,357.8108],[45.64334,35.04864,357.2373],[45.64562,35.04678,355.171],[45.64644,35.04461,354.5],[45.64624,35.04171,358.8729],[45.64644,35.0397,355.5],[45.64799,35.03908,356.3299],[45.65047,35.04011,357.3331],[45.65337,35.04233,389.5257],[45.65616,35.04378,392.2248],[45.66422,35.04693,368.8273],[45.66691,35.0507,361.4963],[45.67104,35.05876,367.0988],[45.67621,35.06528,372.4058],[45.68696,35.07561,375.5137],[45.69233,35.08186,377.7487],[45.69605,35.08698,383.7203],[45.69688,35.09375,393.7764],[45.69822,35.09892,401.2195],[45.70711,35.1068,610.2988],[45.713,35.10992,661.8558],[45.71951,35.11003,734.9762],[45.72613,35.10664,813.8535],[45.73378,35.10124,882.0707],[45.73843,35.09726,916.28],[45.74401,35.09003,1014.2201],[45.81243,35.03042,738.5233],[45.82318,35.01608,701.4047],[45.82008,35.01443,717.8066],[45.81615,35.01324,725.8256],[45.81171,35.01233,752.7147],[45.80674,35.01226,766.7148],[45.80282,35.01293,776.2965],[45.79837,35.01432,807.4514],[45.79434,35.01468,820.4724],[45.78669,35.01406,894.2634],[45.7839,35.01448,880.4087],[45.78153,35.01282,946.3586],[45.78029,35.00598,1027.9452],[45.78979,34.91423,1616.1244],[45.7962,34.90306,1378.2678],[45.79621,34.90304,1378.2678],[45.80804,34.89787,1203.5342],[45.83501,34.89017,825.6735],[45.8502,34.90681,824.2695],[45.85785,34.93131,832.2932],[45.86633,34.94955,817.9633],[45.86896,34.96836,756.1709],[45.85971,34.99425,672.751],[45.85971,34.9944,672.751],[45.85682,35.00805,652.9318],[45.85702,35.02127,670.4132],[45.86188,35.0328,670.1212],[45.87248,35.04143,617.6378],[45.87904,35.04324,546.3756],[45.89309,35.04437,1194.2965],[45.89909,35.04691,1417.6699],[45.90116,35.05161,1255.5583],[45.89837,35.06391,560.5183],[45.8994,35.06861,534.0596],[45.9132,35.08732,499.0852],[45.92017,35.08964,504.2357],[45.93495,35.08546,544.937],[45.95604,35.07424,808.1072],[45.96637,35.07073,751.9138],[45.97924,35.07156,497.4578],[46.00921,35.06091,778.8409],[46.02508,35.06427,633.167],[46.03975,35.07553,1335.5609],[46.06657,35.08882,737.916],[46.07665,35.08969,659.2481],[46.09453,35.08582,557.754],[46.11995,35.09274,883.4855],[46.13236,35.09476,897.0482],[46.14311,35.09951,1254.6494],[46.15106,35.1116,916.8846],[46.13039,35.1314,1023.1473],[46.14383,35.15961,1458.6072],[46.16548,35.18995,1668.1721],[46.16925,35.21625,1765.4979],[46.15416,35.22664,1829.5262],[46.11541,35.22633,1098.73],[46.10145,35.23428,1071.2723],[46.09877,35.25005,1106.6426],[46.10766,35.26276,1142.2715],[46.12006,35.2749,1594.9586],[46.12529,35.28499,1294.6221],[46.1274,35.28906,1441.0862],[46.12016,35.31852,1764.2429],[46.09629,35.34115,1858.0647],[46.04099,35.38156,1911.4121],[45.97702,35.46533,1171.8727],[45.96399,35.49417,1500.689],[45.96358,35.50342,1432.3584],[45.96606,35.51148,1516.4868],[45.97133,35.51804,1414.5439],[45.97924,35.523,1234.5765],[45.98322,35.52698,1250.5317],[45.98456,35.53106,1279.735],[45.98312,35.5353,1271.2748],[45.97924,35.53949,1265.5663],[45.96803,35.5585,1391.0891],[45.95934,35.57871,1536.9362],[45.96389,35.57974,1681.3947],[45.9687,35.57974,1698.2931],[45.99924,35.57215,1468.4641],[46.00203,35.58594,1398.8385],[45.99231,35.62439,1281.6091],[45.99237,35.64087,1272.3173],[45.99588,35.65839,1442.5681],[46.00379,35.67426,1615.2522],[46.0165,35.68573,1765.437],[46.03707,35.69157,1560.8657],[46.10704,35.68981,1518.6218],[46.1276,35.69369,1842.0864],[46.17773,35.71539,1906.1361],[46.217,35.71358,2174.3201],[46.23788,35.71555,2329.3904],[46.25349,35.72774,2014.1484],[46.26713,35.74412,1782.7378],[46.29751,35.75989,2138.3589],[46.31338,35.77151,2050.6418],[46.32506,35.78784,2040.6228],[46.32707,35.8035,1735.9764],[46.31963,35.81688,1878.395],[46.30299,35.82655,2202.104],[46.28139,35.82831,1986.2122],[46.26351,35.82112,2082.1699],[46.24641,35.81141,2194.5391],[46.22744,35.80572,2030.2164],[46.18496,35.79818,2351.1895],[46.16352,35.79751,2275.5859],[46.14336,35.80453,2119.6221],[46.1352,35.81001,2160.0894],[46.1291,35.81554,1894.5498],[46.12481,35.82247,1695.6849],[46.11985,35.84288,2300.9658],[46.11505,35.84644,2409.1682],[46.10776,35.84743,2470.0518],[46.07696,35.85699,2549.2869],[46.06042,35.85724,2200.1384],[46.0443,35.85228,2027.9984],[46.02497,35.84329,1979.4622],[46.00492,35.83797,1945.877],[45.94126,35.84035,1589.9775],[45.90911,35.8313,1539.9917],[45.89878,35.83218,1602.0538],[45.8885,35.83487,1720.5651],[45.87832,35.83523,1738.2134],[45.85408,35.81833,1767.874],[45.83475,35.81053,1960.2349],[45.81419,35.80934,1660.2157],[45.79791,35.81838,1640.7197],[45.78674,35.82024,1567.2832],[45.74902,35.81099,1890.9055],[45.73104,35.81513,1482.7006],[45.71874,35.82831,1549.8903],[45.69321,35.87988,1807.5811],[45.64686,35.93321,1637.0212],[45.61704,35.95543,934.1739],[45.58986,35.95961,951.0484],[45.57694,35.96623,1120.7361],[45.53999,35.99398,946.6871],[45.50142,36.00543,879.2823],[45.47927,36.01201,926.8167],[45.45312,36.01165,1219.3516],[45.41995,35.99827,1006.0131],[45.40217,35.99424,999.4205],[45.40196,35.99408,999.4205],[45.40186,35.99403,999.4205],[45.4016,35.99403,999.4205],[45.40155,35.99398,999.4205],[45.38181,35.98297,1002.0129],[45.35959,35.97687,637.5872],[45.33809,35.9793,1086.1858],[45.32052,35.99398,988.9359],[45.32031,35.99403,988.9359],[45.32021,35.99408,988.9359],[45.32021,35.99413,988.9359],[45.32021,35.99429,988.9359],[45.3137,36.01041,1226.6055],[45.31959,36.03103,856.6959],[45.33189,36.0516,1072.4758],[45.34419,36.06746,1648.8918],[45.34832,36.08751,1590.2075],[45.33561,36.10772,1799.8751],[45.3046,36.14038,1614.972],[45.29954,36.16141,1751.3278],[45.30202,36.20756,1507.0281],[45.29737,36.22673,2008.3696],[45.2828,36.23841,1626.9465],[45.26419,36.25019,2083.1575],[45.25851,36.26223,1977.009],[45.28269,36.27489,1534.6764],[45.26393,36.29427,1056.0688],[45.25701,36.31169,1334.1121],[45.25448,36.35478,1361.4883],[45.24962,36.37794,1925.3923],[45.23887,36.403,2249.6743],[45.2213,36.42093,2513.8689],[45.19598,36.42243,2550.197],[45.13996,36.40439,2728.9612],[45.11082,36.40253,2201.3423]]]}}