{"type":"Feature","properties":{"id":141672.0,"name":null,"lge_id":null,"pfafstette":2429193.0,"lke_type":null,"altitude":450,"objectid":88052,"scalerank":12,"featurecla":"Lake","note":"_untitled_88052","funkyname":0,"min_zoom":7.0,"min_label":8.0},
"geometry":{"type": "Polygon","coordinates": [[[45.805186394146233,35.181586004681577,462.2659],[45.805186394146233,35.181586004681577,462.2659],[45.791514519146233,35.175299383587827,475.4157],[45.752207878521233,35.162237860150327,625.7338],[45.723643425396233,35.154242254681577,476.8317],[45.731700066021233,35.138434149212827,457.5],[45.757823112896233,35.141119696087827,457.5],[45.793223503521233,35.155157782025327,457.5],[45.809336784771233,35.166754461712827,498.7052],[45.805186394146233,35.181586004681577,462.2659]]]}}