{"type":"Feature","properties":{"GID_2":"IRQ.18.1_1","GID_0":"IRQ","country":"Iraq","GID_1":"IRQ.18_1","province":"Wasit","NL_NAME_1":"NA","county":"AlHayy","VARNAME_2":"NA","NL_NAME_2":"NA","TYPE_2":"Kaza","ENGTYPE_2":"District","CC_2":"NA","HASC_2":"NA","name":"Al_Hayy.county"},
"geometry":{"type": "MultiPolygon","coordinates": [[[[45.6988,31.9107,10.7169],[45.7671,31.9085,9.4613],[45.8097,31.9103,9.1766],[45.8371,31.9131,8.8241],[45.8694,31.9211,9.2015],[46.0194,31.9684,11.9569],[46.0443,31.9734,12.42],[46.0865,31.9784,11.9],[46.117,31.9813,11.5742],[46.1451,31.9821,9.5135],[46.311,31.9804,10.6562],[46.3223,31.9817,10.6322],[46.3278,31.9999,11.0553],[46.3301,32.014,12.0601],[46.3303,32.0794,11.1838],[46.3287,32.0887,11.1189],[46.3235,32.1028,11.9899],[46.3218,32.132,10.6474],[46.3159,32.1507,11.1446],[46.3145,32.1693,10.9119],[46.3126,32.1759,11.9211],[46.3063,32.1803,12.7205],[46.2792,32.1818,12.2863],[46.2725,32.1837,12.1532],[46.2693,32.1869,11.3612],[46.2629,32.2037,11.489],[46.2542,32.2112,12.0691],[46.2282,32.2143,11.2914],[46.2142,32.2193,10.7266],[46.1918,32.2232,10.9864],[46.1822,32.2273,10.9073],[46.1552,32.2301,11.888],[46.1483,32.2331,11.5376],[46.1429,32.2386,11.9726],[46.1397,32.2464,12.0175],[46.1374,32.2805,11.6619],[46.1219,32.3128,12.1667],[46.117,32.3189,11.9114],[46.1107,32.3233,11.8171],[46.1034,32.325,12.3745],[46.0468,32.3251,13.6839],[46.0321,32.3269,14.3082],[46.0129,32.3371,14.267],[45.998,32.3548,13.456],[45.9692,32.3598,14.6918],[45.96,32.3696,14.9813],[45.9513,32.3728,15.859],[45.929,32.3729,15.6484],[45.911,32.3675,13.7786],[45.9043,32.3677,14.3665],[45.8978,32.3716,15.611],[45.8776,32.391,14.6437],[45.8675,32.3962,14.0177],[45.8566,32.3955,15.1947],[45.8429,32.3903,15.5797],[45.8251,32.3896,14.4499],[45.8027,32.3964,14.2846],[45.7846,32.3995,14.8256],[45.775,32.4037,15.0792],[45.7638,32.4052,15.29],[45.7534,32.4031,14.424],[45.7442,32.3931,14.7354],[45.7356,32.3902,14.8232],[45.7282,32.391,15.0764],[45.7128,32.3965,15.361],[45.696,32.3975,16.8876],[45.6993,32.3838,13.9739],[45.6991,32.368,13.7614],[45.6896,32.3383,13.9062],[45.6851,32.3288,13.8866],[45.683,32.3184,13.8274],[45.6856,32.3128,13.539],[45.701,32.3032,12.6757],[45.7057,32.2938,12.3389],[45.7009,32.2765,12.4702],[45.6987,32.2473,12.6472],[45.6925,32.2282,12.2019],[45.6896,32.2027,11.8187],[45.6716,32.1619,11.8899],[45.6631,32.1586,11.8127],[45.6441,32.157,11.5],[45.6373,32.1529,11.5],[45.6291,32.1377,11.5],[45.6264,32.1062,12.1935],[45.6237,32.0984,12.2132],[45.6167,32.0912,12.4775],[45.5993,32.0824,12.4434],[45.6831,31.9575,10.8492],[45.6896,31.9434,10.5643],[45.6988,31.9107,10.7169]]]]}}