{"type":"Feature","properties":{"GID_2":"IRQ.1.7_1","GID_0":"IRQ","country":"Iraq","GID_1":"IRQ.1_1","province":"Al-Anbar","NL_NAME_1":"NA","county":"ArRutbah","VARNAME_2":"NA","NL_NAME_2":"NA","TYPE_2":"Kaza","ENGTYPE_2":"District","CC_2":"NA","HASC_2":"NA","name":"Ar_Rutbah.county"},
"geometry":{"type": "MultiPolygon","coordinates": [[[[43.4478,33.0147,35.4273],[43.2684,33.015,67.8382],[43.2527,33.0171,78.7357],[43.2382,33.0224,79.79],[43.2283,33.0226,82.2851],[43.2197,33.0194,84.0614],[43.2093,33.006,73.5356],[43.1902,32.9927,84.8677],[43.1619,32.9655,91.4055],[43.1424,32.9544,98.5253],[43.1151,32.9453,103.5881],[43.0928,32.9412,105.3682],[43.0674,32.9299,112.72],[43.0606,32.9299,111.161],[43.0395,32.9376,113.2844],[43.0301,32.9372,119.0183],[43.017,32.9314,120.4764],[42.9951,32.9138,127.0345],[42.973,32.9094,138.3577],[42.9633,32.9055,139.6667],[42.9538,32.9039,141.2889],[42.9184,32.9033,143.0171],[42.8944,32.8966,156.4481],[42.8735,32.8956,164.4442],[42.815,32.8961,167.2233],[42.7854,32.9035,188.5573],[42.7322,32.9038,219.5892],[42.717,32.9057,214.7398],[42.701,32.9135,231.928],[42.6836,32.9261,214.5632],[42.6612,32.9377,209.0896],[42.6395,32.9554,223.6227],[42.6102,32.9641,229.1761],[42.5951,32.9817,224.3293],[42.5673,32.9985,253.2393],[42.5553,33.0138,237.8885],[42.5164,33.0353,244.0704],[42.5014,33.055,268.9341],[42.4486,33.1084,282.4007],[42.4429,33.1172,276.5581],[42.4415,33.1223,276.7457],[42.4412,33.1516,275.429],[42.4376,33.1527,276.8377],[42.4148,33.1728,283.6284],[42.4042,33.1784,285.9198],[42.3954,33.1967,283.8642],[42.3821,33.2379,283.9882],[42.3678,33.2667,277.4899],[42.3553,33.2841,280.3998],[42.3475,33.3002,276.6575],[42.3422,33.3177,270.6649],[42.3157,33.372,277.83],[42.3141,33.382,286.6836],[42.3136,33.419,267.6537],[42.3116,33.4256,277.1141],[42.3055,33.4303,278.2894],[42.2697,33.4416,270.6704],[42.2409,33.453,296.4212],[42.2119,33.4559,297.6396],[42.1974,33.4611,305.482],[42.175,33.4651,307.4873],[42.1175,33.4853,321.2671],[42.0837,33.4881,330.9584],[42.0695,33.4931,332.8761],[42.0472,33.4972,337.1763],[42.0057,33.5173,351.9287],[41.9913,33.5212,348.3491],[41.9657,33.5332,353.4033],[41.9434,33.5373,356.3931],[41.9178,33.5494,359.2296],[41.8939,33.5573,363.3544],[41.8635,33.5613,365.1301],[41.8015,33.5825,363.7298],[41.7723,33.5844,361.8202],[41.7486,33.591,361.2085],[41.7132,33.5917,371.1398],[41.7037,33.5933,376.1754],[41.5983,33.6295,397.7813],[41.568,33.6334,404.1163],[41.544,33.6414,408.2168],[41.5185,33.6536,410.9567],[41.4945,33.6616,412.2042],[41.4766,33.6645,410.576],[41.4626,33.6695,364.0501],[41.4402,33.6735,410.3632],[41.4067,33.6856,421.1893],[41.3887,33.6885,422.5663],[41.3747,33.6935,421.3602],[41.3524,33.6976,425.78],[41.3268,33.7096,431.023],[41.2885,33.7216,425.7424],[41.2629,33.7336,426.5826],[41.2373,33.7365,426.557],[41.229,33.7391,425.9813],[41.2118,33.7487,427.5116],[41.1999,33.7636,420.4023],[41.1861,33.7602,422.9542],[41.1571,33.7605,424.5985],[41.139,33.7667,425.7749],[41.1128,33.7697,426.2008],[41.1032,33.7737,426.1675],[41.0809,33.7777,425.7374],[41.0671,33.7828,425.454],[41.0451,33.7848,427.7944],[41.0268,33.7909,429.552],[40.9975,33.7927,434.7294],[40.979,33.7989,435.6831],[40.961,33.8018,437.2512],[40.9514,33.8059,439.7866],[40.9291,33.8098,444.8681],[40.9195,33.8139,445.2231],[40.8971,33.8178,451.9767],[40.8636,33.8299,453.9445],[40.8413,33.8339,443.9034],[40.8316,33.838,449.6146],[40.8055,33.8409,460.2051],[40.7917,33.8459,458.8697],[40.7694,33.8499,460.8762],[40.7597,33.854,460.1253],[40.7374,33.8579,449.0936],[40.7278,33.862,443.4573],[40.7055,33.866,427.0543],[40.6917,33.871,415.1604],[40.6655,33.8739,406.8958],[40.6274,33.8873,392.1761],[40.5871,33.8884,426.3784],[40.5776,33.89,444.7549],[40.5637,33.8952,433.6057],[40.5261,33.897,453.2396],[40.5121,33.9021,447.0665],[40.4898,33.9061,457.8893],[40.476,33.9112,461.7213],[40.4498,33.9141,454.7207],[40.412,33.9274,438.248],[40.3743,33.9292,451.9069],[40.3604,33.9343,442.3029],[40.3512,33.936,451.5511],[40.3072,33.936,470.7776],[40.298,33.9344,467.164],[40.2838,33.9292,463.3627],[40.2387,33.9276,478.1151],[40.2199,33.9213,487.9856],[40.1555,33.9202,490.9214],[40.1462,33.9186,493.9267],[40.1319,33.9134,495.5331],[40.0758,33.9124,484.2888],[40.0662,33.9107,487.0956],[40.052,33.9054,511.376],[40.0374,33.9044,506.6327],[40.0224,33.9051,528.2645],[40.0094,33.9098,536.0161],[39.9755,33.9412,529.8994],[39.472,33.7003,678.9487],[38.7968,33.3682,714.4872],[38.818,33.3057,718.2685],[38.8288,33.2582,731.6034],[38.9938,32.7753,789.35],[39.0379,32.6409,820.644],[39.0535,32.582,845.1951],[39.0577,32.5437,870.472],[39.0522,32.5127,878.4331],[39.0163,32.4598,882.2109],[39.0094,32.4342,893.124],[39.0098,32.4132,887.7544],[39.0153,32.3877,879.1293],[39.0255,32.3616,886.2585],[39.0395,32.3404,892.1409],[39.0566,32.3275,896.6174],[39.0815,32.3208,897.9622],[39.104,32.3203,900.944],[39.1989,32.3281,913.5234],[39.2233,32.3259,918.1286],[39.2414,32.3203,922.8176],[39.2637,32.3044,920.8544],[39.2891,32.2708,915.2279],[39.3009,32.2371,923.1357],[39.3021,32.2213,926.8484],[39.2124,32.1524,939.6992],[39.797,32.0545,825.6208],[40.4133,31.9481,687.0048],[40.9149,31.6694,631.8135],[41.4407,31.3732,422.4427],[42.0856,31.1117,346.365],[42.806,30.6016,355.0799],[42.8418,30.69,341.3239],[42.8596,30.7428,330.8874],[42.8617,30.7573,330.5425],[42.8638,30.818,321.5688],[42.8685,30.8469,327.2818],[42.8743,30.8598,323.7291],[42.8878,30.8808,313.2645],[42.9425,30.9531,319.4369],[42.9606,30.9801,331.9313],[43.0466,31.1486,296.3209],[43.0564,31.1718,282.67],[43.0619,31.1946,285.5591],[43.0629,31.2604,316.4812],[43.0681,31.2821,298.3035],[43.0893,31.323,279.3624],[43.1613,31.4428,264.076],[43.182,31.4812,263.9073],[43.1919,31.5072,279.9864],[43.2036,31.5615,299.0261],[43.2099,31.5782,283.9289],[43.2265,31.6059,268.9424],[43.3543,31.7692,230.5516],[43.3861,31.8052,224.2558],[43.425,31.8377,215.5726],[43.4461,31.8511,213.8528],[43.4622,31.8589,209.8232],[43.5685,31.8989,178.4021],[43.6224,31.9227,169.4404],[43.6935,31.9511,140.5888],[43.7184,31.9646,130.4215],[43.7298,31.9738,125.056],[43.7379,31.9868,124.4593],[43.7403,31.9973,113.2815],[43.7395,32.0076,113.2478],[43.7312,32.0242,129.004],[43.7236,32.0328,128.2028],[43.6614,32.0888,147.4933],[43.6442,32.0983,157.5569],[43.6215,32.1208,119.2717],[43.6063,32.1319,118.6867],[43.5638,32.1688,121.4282],[43.3873,32.3103,135.2995],[43.3461,32.3479,139.287],[43.2898,32.395,143.5086],[43.1904,32.4745,152.8311],[43.1721,32.4916,153.7976],[43.163,32.505,149.5254],[43.1611,32.5124,151.5369],[43.1622,32.5179,147.07],[43.1654,32.5228,144.9348],[43.1786,32.5308,139.7584],[43.2006,32.5377,134.9654],[43.2918,32.5578,112.8303],[43.4249,32.5724,66.9517],[43.4447,32.5771,59.9257],[43.4525,32.5804,60.3671],[43.4548,32.5838,59.3602],[43.4465,32.594,56.3865],[43.4423,32.6027,55.5677],[43.4399,32.6113,55.4416],[43.4388,32.6259,51.9261],[43.4393,32.6739,37.3231],[43.4409,32.6828,34.0724],[43.4463,32.697,28.5287],[43.4473,32.7169,27.2436],[43.4464,32.742,29.3311],[43.44,32.7603,29.7315],[43.4394,32.778,27.2027],[43.4463,32.8004,27.659],[43.4493,32.8184,22.3112],[43.4546,32.8325,32.0566],[43.4568,32.8711,21.584],[43.4547,32.9096,34.0984],[43.4495,32.9237,37.596],[43.4479,32.9326,36.3615],[43.4478,33.0147,35.4273]]]]}}