{"type":"Feature","properties":{"GID_2":"IRQ.18.5_1","GID_0":"IRQ","country":"Iraq","GID_1":"IRQ.18_1","province":"Wasit","NL_NAME_1":"NA","county":"Badrah","VARNAME_2":"NA","NL_NAME_2":"NA","TYPE_2":"Kaza","ENGTYPE_2":"District","CC_2":"NA","HASC_2":"NA","name":"Badrah.county"},
"geometry":{"type": "MultiPolygon","coordinates": [[[[45.9477,33.485,301.7966],[45.9514,33.4647,200.002],[45.9503,33.4517,181.0748],[45.9445,33.4344,159.2665],[45.9391,33.4244,163.5889],[45.9212,33.4008,138.2143],[45.9047,33.3866,113.4547],[45.8595,33.3638,78.508],[45.8265,33.3419,62.0621],[45.7305,33.2694,45.0364],[45.6875,33.2332,38.7822],[45.6655,33.2077,35.7677],[45.6351,33.1567,29.3786],[45.6156,33.1285,26.5482],[45.5878,33.0977,25.0863],[45.5357,33.0483,21.8023],[45.5187,33.0369,20.8539],[45.5006,33.029,20.5267],[45.4376,33.0122,19.9324],[45.4388,32.9944,19.5231],[45.4451,32.9716,19.2889],[45.4455,32.8504,18.5411],[45.4471,32.8414,18.0133],[45.4524,32.8273,17.9719],[45.4539,32.7891,18.28],[45.4582,32.7822,18.7045],[45.471,32.7754,18.1674],[45.5022,32.7668,17.4089],[45.5475,32.7639,16.7459],[45.5617,32.7586,16.6465],[45.5714,32.757,16.5097],[45.6543,32.7563,15.8411],[45.6828,32.7489,15.5418],[45.7314,32.7477,14.9702],[45.7501,32.7415,14.9693],[45.7793,32.7396,14.5606],[45.798,32.7334,14.3941],[45.8272,32.7316,13.772],[45.8455,32.7255,13.5673],[45.8676,32.7235,13.5807],[45.9436,32.6985,13.5116],[45.9691,32.6863,13.4629],[46.0075,32.6745,13.7632],[46.0235,32.6666,13.8591],[46.0411,32.6546,14.4654],[46.0633,32.6503,15.9507],[46.105,32.63,15.4387],[46.1187,32.6277,15.244],[46.1348,32.6275,14.5429],[46.1392,32.6328,14.5385],[46.1423,32.6471,15.1253],[46.1462,32.6568,15.86],[46.1501,32.6793,15.5484],[46.1542,32.6889,16.2254],[46.1571,32.7069,17.8323],[46.1634,32.7254,20.2334],[46.1641,32.8009,27.7209],[46.1663,32.8152,30.0675],[46.1708,32.8214,29.9895],[46.1772,32.8257,30.247],[46.1955,32.8291,33.6418],[46.2004,32.8317,34.6287],[46.2068,32.8461,35.1214],[46.2128,32.8515,35.6242],[46.2251,32.8578,36.9926],[46.2396,32.8615,39.592],[46.256,32.8688,42.9042],[46.272,32.877,47.0332],[46.2782,32.8818,48.8179],[46.2827,32.8882,50.3286],[46.2844,32.8955,52.7264],[46.2843,32.9524,71.1183],[46.2565,32.9503,62.3435],[46.2506,32.9484,59.993],[46.2378,32.9483,55.7528],[46.2142,32.9506,51.8594],[46.1896,32.9551,50.1743],[46.1752,32.9549,43.1112],[46.1614,32.9527,40.8111],[46.1528,32.9554,39.5418],[46.144,32.9558,37.0374],[46.1071,32.9672,32.1642],[46.102,32.9696,33.3045],[46.0962,32.9764,36.5591],[46.0957,32.9821,38.5661],[46.1019,33.0087,67.4203],[46.1072,33.0138,66.7628],[46.1155,33.0157,75.7482],[46.1229,33.0152,83.8164],[46.1362,33.0217,88.898],[46.1593,33.0456,137.5693],[46.1682,33.0574,144.2738],[46.1684,33.0608,157.7831],[46.1619,33.0637,146.9081],[46.1215,33.07,152.1875],[46.1108,33.0735,169.3742],[46.1037,33.0806,138.5245],[46.0986,33.0824,141.7193],[46.0821,33.0837,106.0494],[46.0674,33.0869,116.4498],[46.0491,33.0936,137.0764],[46.0469,33.0963,152.4393],[46.0466,33.1004,138.8764],[46.0497,33.121,109.025],[46.0516,33.1241,108.1954],[46.0567,33.1253,106.7777],[46.0715,33.118899999999996,113.7147],[46.0911,33.1134,128.4425],[46.1157,33.1091,135.7126],[46.1295,33.1109,135.7098],[46.1422,33.119,139.8024],[46.161,33.1385,157.2672],[46.1723,33.1476,169.9699],[46.1821,33.1604,181.8268],[46.1998,33.1741,200.5672],[46.2048,33.1801,216.7774],[46.2064,33.1841,218.1192],[46.2055,33.1877,214.1481],[46.2032,33.1897,209.7751],[46.1858,33.1914,207.7865],[46.1844,33.1947,215.0958],[46.1894,33.2235,312.2417],[46.1962,33.2398,445.2203],[46.1973,33.2534,640.1205],[46.187,33.262,687.048],[46.1564,33.2744,701.9442],[46.1454,33.2811,733.8055],[46.1346,33.2921,939.8334],[46.1169,33.3175,850.7551],[46.0852,33.3519,621.8727],[46.0628,33.3639,668.23],[46.0507,33.3739,519.028],[46.0456,33.3823,516.5065],[46.0423,33.392,506.2233],[46.0391,33.4162,360.243],[46.0365,33.4241,522.7662],[46.0389,33.4474,696.5032],[46.0369,33.4604,747.5714],[46.0333,33.4677,743.7136],[46.0185,33.4765,608.6688],[46.0064,33.4799,547.3356],[45.9979,33.4976,353.5305],[45.9947,33.5012,299.0403],[45.9902,33.5024,301.8363],[45.9843,33.5014,281.2508],[45.9628,33.4887,241.4837],[45.9477,33.485,301.7966]]]]}}