{"type":"Feature","properties":{"GID_2":"IRQ.1.6_1","GID_0":"IRQ","country":"Iraq","GID_1":"IRQ.1_1","province":"Al-Anbar","NL_NAME_1":"NA","county":"ArRamadi","VARNAME_2":"NA","NL_NAME_2":"NA","TYPE_2":"Kaza","ENGTYPE_2":"District","CC_2":"NA","HASC_2":"NA","name":"Ar_Ramadi.county"},
"geometry":{"type": "MultiPolygon","coordinates": [[[[43.7169,33.6567,56.1537],[43.6966,33.6695,63.4876],[43.6627,33.6858,61.9416],[43.6264,33.7011,64.518],[43.6008,33.7085,63.1065],[43.5673,33.7122,70.0491],[43.4476,33.7131,44.0],[43.4312,33.715,44.0],[43.4157,33.7192,44.0],[43.4032,33.7256,44.0],[43.3681,33.7526,44.0],[43.3045,33.8079,44.0],[43.2698,33.8408,44.0],[43.2431,33.8615,44.0],[43.1971,33.905,44.0],[43.1516,33.9441,44.0],[43.1157,33.9782,44.0],[43.0847,34.0033,44.0],[43.0625,34.0246,51.5472],[43.0455,34.0043,62.2118],[43.0402,33.9777,63.8112],[43.0352,33.9637,69.0989],[43.0348,33.9546,72.1301],[43.042,33.9258,83.698],[43.043,33.8549,74.2667],[43.0481,33.8403,79.171],[43.0498,33.8299,80.8336],[43.0506,33.7193,86.5753],[43.0568,33.6997,101.7554],[43.0586,33.6792,111.0969],[43.0647,33.6598,95.4773],[43.0666,33.6393,92.2816],[43.0727,33.62,85.03],[43.0743,33.5674,79.4367],[43.0805,33.548,68.9868],[43.0826,33.5274,53.499],[43.0871,33.5131,52.2638],[43.0852,33.5034,56.3328],[43.08,33.4979,56.4889],[43.0636,33.4876,52.4601],[43.0528,33.4764,52.7029],[43.0431,33.4573,61.7104],[43.0393,33.4429,70.5233],[43.0315,33.4268,77.1594],[43.0072,33.3955,101.6314],[43.0038,33.3929,99.9965],[42.9947,33.3935,100.2449],[42.982,33.3998,93.3148],[42.9643,33.4122,96.3419],[42.9519,33.4144,90.4146],[42.931,33.4137,91.9419],[42.8795,33.399,96.0486],[42.8656,33.3993,99.2283],[42.8586,33.4023,99.4191],[42.8524,33.4075,99.4171],[42.8357,33.4287,87.5713],[42.8249,33.4327,91.6763],[42.8146,33.4301,91.7323],[42.8107,33.4256,91.5945],[42.7954,33.3778,107.9947],[42.79,33.3522,117.1889],[42.7809,33.3355,119.616],[42.7644,33.3176,127.4801],[42.76,33.3102,132.0524],[42.76,33.3038,134.7401],[42.7662,33.2934,130.6319],[42.7674,33.2869,129.7128],[42.7598,33.2676,134.7212],[42.7422,33.2481,145.5432],[42.7163,33.2296,157.0505],[42.7015,33.2111,163.473],[42.6936,33.2095,169.8976],[42.6798,33.2139,173.4252],[42.6505,33.2163,182.7986],[42.6331,33.2212,180.3735],[42.5981,33.2131,194.9663],[42.5762,33.1957,210.3578],[42.5687,33.1923,213.5884],[42.5353,33.1917,222.4668],[42.5115,33.1985,233.623],[42.5018,33.1977,243.1166],[42.4846,33.1882,250.7998],[42.475,33.1748,251.1864],[42.4551,33.1552,266.9135],[42.448,33.152,272.6194],[42.4412,33.1516,275.429],[42.4409,33.1279,276.9769],[42.4429,33.1172,276.5581],[42.4559,33.1006,297.4291],[42.5014,33.055,268.9341],[42.5164,33.0353,244.0704],[42.5553,33.0138,237.8885],[42.5673,32.9985,253.2393],[42.5951,32.9817,224.3293],[42.6102,32.9641,229.1761],[42.617,32.9611,228.1478],[42.6355,32.9576,226.9809],[42.6612,32.9377,209.0896],[42.6836,32.9261,214.5632],[42.701,32.9135,231.928],[42.7219,32.9045,212.6059],[42.7854,32.9035,188.5573],[42.815,32.8961,167.2233],[42.8735,32.8956,164.4442],[42.8944,32.8966,156.4481],[42.9184,32.9033,143.0171],[42.9538,32.9039,141.2889],[42.9633,32.9055,139.6667],[42.973,32.9094,138.3577],[42.9951,32.9138,127.0345],[43.017,32.9314,120.4764],[43.0301,32.9372,119.0183],[43.0395,32.9376,113.2844],[43.0606,32.9299,111.161],[43.0674,32.9299,112.72],[43.0928,32.9412,105.3682],[43.1151,32.9453,103.5881],[43.1424,32.9544,98.5253],[43.1619,32.9655,91.4055],[43.1902,32.9927,84.8677],[43.2093,33.006,73.5356],[43.2197,33.0194,84.0614],[43.2283,33.0226,82.2851],[43.2382,33.0224,79.79],[43.2527,33.0171,78.7357],[43.2684,33.015,67.8382],[43.4478,33.0147,35.4273],[43.4488,33.0183,35.658],[43.4569,33.0277,48.5127],[43.4661,33.0357,44.0114],[43.4768,33.0414,38.8652],[43.4937,33.0754,37.5505],[43.498,33.0896,34.1513],[43.5009,33.0938,34.9869],[43.5089,33.1002,32.7997],[43.5277,33.1072,31.7163],[43.5375,33.118899999999996,31.9861],[43.5364,33.191,63.047],[43.5381,33.2013,52.4559],[43.5433,33.2158,47.9579],[43.5443,33.2314,43.5],[43.5434,33.2523,43.5],[43.5364,33.2768,43.5],[43.536,33.298,43.5],[43.5383,33.3131,43.5],[43.5444,33.3218,43.5],[43.5628,33.3359,43.5],[43.5771,33.3527,81.1866],[43.5955,33.3662,45.7681],[43.6,33.3751,44.934],[43.6104,33.4087,44.4801],[43.6262,33.4407,43.2555],[43.6711,33.4899,54.7825],[43.6788,33.506,61.489],[43.6828,33.5282,74.6112],[43.7023,33.5856,72.9271],[43.7023,33.5923,73.3108],[43.6991,33.605,74.0033],[43.7067,33.6381,62.9555],[43.712,33.6507,57.6073],[43.7169,33.6567,56.1537]]]]}}