{"type":"Feature","properties":{"ISO3166-1-Alpha-3":"IRQ","country":"Iraq","fill":"#F0F","id":"3063","name":"Baghdad"},
"geometry":{"type": "Polygon","coordinates": [[[44.49437,33.39075,37.07],[44.45706,33.41837,36.646],[44.45706,33.4184,36.646],[44.43711,33.42749,35.3855],[44.42719,33.42915,35.2153],[44.35557,33.43163,35.6402],[44.34978,33.43251,35.6394],[44.34296,33.42563,38.9162],[44.32983,33.39044,28.0],[44.27785,33.37857,33.9174],[44.27919,33.37414,34.2788],[44.27929,33.36902,34.4376],[44.26978,33.34954,34.57],[44.23816,33.32107,34.5473],[44.22627,33.30143,33.1224],[44.22224,33.28218,32.1812],[44.22245,33.26117,32.1945],[44.2272,33.24084,33.2644],[44.23712,33.22361,32.1683],[44.2488,33.21389,32.433],[44.27557,33.19978,31.0961],[44.28725,33.18916,30.3057],[44.30038,33.19082,30.9446],[44.31319,33.18914,30.8631],[44.33882,33.18309,29.8499],[44.50481,33.17601,29.7617],[44.50482,33.17601,29.7617],[44.50636,33.21924,31.257],[44.51597,33.23107,31.5293],[44.51907,33.23363,31.1102],[44.52527,33.23988,27.9544],[44.52651,33.24376,31.452],[44.5261,33.24802,32.6657],[44.52217,33.25505,33.9098],[44.5199,33.26342,28.7039],[44.52682,33.27942,28.8869],[44.52682,33.27037,33.1107],[44.52434,33.26727,34.1588],[44.52465,33.26451,34.346],[44.52827,33.26427,33.8658],[44.53302,33.26676,32.1928],[44.53612,33.2734,34.1989],[44.5385,33.28081,32.2005],[44.53736,33.31102,29.8054],[44.53602,33.34068,35.933],[44.54109,33.35039,29.6548],[44.54202,33.36243,28.9073],[44.54264,33.36476,32.439],[44.54326,33.36626,31.4953],[44.54264,33.36915,34.5159],[44.53726,33.38318,37.7507],[44.53478,33.39225,38.6423],[44.53333,33.40357,36.83],[44.5292,33.40812,38.2859],[44.52579,33.41088,37.6385],[44.49437,33.39075,37.07]]]}}