{"type":"Feature","properties":{"GID_2":"IRQ.16.3_1","GID_0":"IRQ","country":"Iraq","GID_1":"IRQ.16_1","province":"Ninawa","NL_NAME_1":"NA","county":"AlHamdaniyah","VARNAME_2":"NA","NL_NAME_2":"NA","TYPE_2":"Kaza","ENGTYPE_2":"District","CC_2":"NA","HASC_2":"NA","name":"Al_Hamdaniyah.county"},
"geometry":{"type": "MultiPolygon","coordinates": [[[[43.711,36.286,295.5099],[43.6904,36.3027,257.8224],[43.6616,36.3614,352.1147],[43.6538,36.3699,362.6037],[43.6214,36.3812,359.9113],[43.5715,36.3823,320.7581],[43.5648,36.3842,339.3551],[43.5612,36.3872,335.5489],[43.5375,36.4187,347.2808],[43.5358,36.4275,324.3453],[43.5366,36.4458,295.3415],[43.5348,36.4605,311.5086],[43.5249,36.492,348.4241],[43.5197,36.5017,364.723],[43.5073,36.5035,328.2057],[43.4705,36.517,448.7931],[43.4248,36.5177,881.8976],[43.4125,36.5197,897.0088],[43.4,36.5298,746.903],[43.3864,36.5475,459.1961],[43.3753,36.5497,442.5302],[43.3481,36.5502,411.139],[43.3415,36.5521,426.0398],[43.3371,36.5586,429.5104],[43.3336,36.5764,425.8932],[43.3274,36.5811,419.237],[43.3163,36.5818,414.4789],[43.3091,36.5801,401.5882],[43.3,36.5726,378.9389],[43.2907,36.5597,351.9385],[43.2749,36.5515,362.6149],[43.2627,36.5497,368.0183],[43.2401,36.5499,356.0803],[43.2392,36.5209,324.6527],[43.2377,36.5158,316.7392],[43.2265,36.4971,299.695],[43.2251,36.4874,295.9874],[43.2261,36.4703,287.811],[43.2219,36.4596,265.929],[43.2185,36.4566,264.8808],[43.2118,36.4546,264.7694],[43.1807,36.4522,273.8096],[43.1641,36.4447,271.7814],[43.1483,36.4347,263.0673],[43.1447,36.4306,269.4517],[43.1399,36.4184,278.6838],[43.1626,36.3906,248.9485],[43.1726,36.3748,233.1252],[43.1966,36.3531,247.2032],[43.1971,36.347,238.4798],[43.193,36.3331,237.2972],[43.1937,36.3234,228.7461],[43.2088,36.2911,225.8614],[43.2174,36.276,235.3938],[43.2316,36.2668,259.0394],[43.2496,36.2601,242.7613],[43.2544,36.254,240.8263],[43.2575,36.2437,248.865],[43.2752,36.2068,253.6633],[43.2785,36.1968,239.246],[43.2789,36.14,202.5014],[43.2812,36.1239,200.3473],[43.3012,36.0983,197.9227],[43.3089,36.0822,196.4814],[43.313,36.06,194.0121],[43.3247,36.0343,187.9871],[43.3288,36.0039,241.8028],[43.3374,35.9828,210.5842],[43.3457,35.9728,186.6711],[43.3586,35.9673,211.2946],[43.3641,35.9744,203.3131],[43.3821,35.9831,203.6899],[43.4285,35.9912,214.0578],[43.4453,35.9961,211.9023],[43.4676,36.009,215.0504],[43.4841,36.0221,210.8568],[43.4982,36.0393,226.5577],[43.5256,36.0943,217.9845],[43.5567,36.145,225.5965],[43.5829,36.1824,231.0036],[43.5863,36.19,236.3221],[43.5942,36.199,238.6098],[43.6302,36.2288,251.0357],[43.6678,36.2572,301.0398],[43.7032,36.2782,308.9706],[43.711,36.286,295.5099]]]]}}